{"version": 0.6, "generator": "Overpass API 0.7.62.10 2d4cfc48", "osm3s": {"timestamp_osm_base": "2026-02-25T08:03:44Z", "copyright": "The data included in this document is from www.openstreetmap.org. The data is made available under ODbL."}, "elements": [{"type": "node", "id": 3152595366, "lat": 22.5074535, "lon": 114.1549343, "tags": {"bus": "yes", "highway": "bus_stop", "name": "\u65b0\u570d\u8ecd\u71df San Wai Barracks", "name:en": "San Wai Barracks", "name:zh": "\u65b0\u570d\u8ecd\u71df", "public_transport": "platform", "ref": "3663A", "ref:ctb": "3663A", "route_ref": "78C;78P;78X;79;79P;79X;679;979"}}, {"type": "node", "id": 3152595368, "lat": 22.5012267, "lon": 114.1467317, "tags": {"bus": "yes", "highway": "bus_stop", "name": "\u7c89\u5dba\u99ac\u9069\u8def", "public_transport": "platform"}}, {"type": "node", "id": 3607376423, "lat": 22.4940984, "lon": 114.1399211, "tags": {"bus": "yes", "highway": "bus_stop", "name": "\u7c89\u5dba\u6d88\u9632\u5c40 Fanling Fire Station", "name:en": "Fanling Fire Station", "name:zh": "\u7c89\u5dba\u6d88\u9632\u5c40", "network": "KMB", "network:wikidata": "Q312243", "operator": "KMB", "public_transport": "platform", "ref:kmb": "SH02-S-2150-0", "route_ref": "70K;270C;277X;279X;373;673;673P"}}, {"type": "node", "id": 3607376424, "lat": 22.4917669, "lon": 114.1393373, "tags": {"access:bus": "private", "addr:street": "\u7c89\u5dba\u8eca\u7ad9\u8def Fanling Station Road", "addr:street:en": "Fanling Station Road", "addr:street:ref:kmb": "FA02", "addr:street:zh": "\u7c89\u5dba\u8eca\u7ad9\u8def", "bench": "no", "brand": "\u4e5d\u5df4 KMB", "brand:en": "KMB", "brand:wikidata": "Q312243", "brand:zh": "\u4e5d\u5df4", "bus": "yes", "bus:conditional": "yes @ (franchised)", "bus_bay": "parallel", "direction:ref": "W", "highway": "bus_stop", "local_ref": "C1", "name": "\u7c89\u5dba\u7ad9 Fanling Station", "name:en": "Fanling Station", "name:zh": "\u7c89\u5dba\u7ad9", "nat_name": "\u7c89\u5dba\u7ad9\u8f49\u8eca\u7ad9 Fanling Station BBI", "nat_name:en": "Fanling Station BBI", "nat_name:en:pronunciation:en-Latn": "Fanling Station Interchange", "nat_name:pronunciation:mul": "\u7c89\u5dba\u7ad9\u8f49\u8eca\u7ad9 Fanling Station Interchange", "nat_name:zh": "\u7c89\u5dba\u7ad9\u8f49\u8eca\u7ad9", "nat_name:zh:pronunciation:yue-Hant": "\u7c89\u5dba\u7ad9\u8f49\u8eca\u7ad9", "network": "\u4e5d\u5df4 KMB;\u9f8d\u904b LWB", "network:en": "KMB;LWB", "network:wikidata": "Q312243;Q6673423", "network:zh": "\u4e5d\u5df4;\u9f8d\u904b", "note": "\u5f80\u4e0a\u6c34 To Sheung Shui", "official_name": "\u7c89\u5dba\u7ad9\u8f49\u8eca\u7ad9\uff0d\u7c89\u5dba\u7ad9 Fanling Station BBI - Fanling Station", "official_name:en": "Fanling Station BBI - Fanling Station", "official_name:en:pronunciation:en-Latn": "Fanling Station Interchange - Fanling Station", "official_name:pronunciation:mul": "\u7c89\u5dba\u7ad9\u8f49\u8eca\u7ad9\uff0d\u7c89\u5dba\u7ad9 Fanling Station Interchange - Fanling Station", "official_name:zh": "\u7c89\u5dba\u7ad9\u8f49\u8eca\u7ad9\uff0d\u7c89\u5dba\u7ad9", "official_name:zh:pronunciation:yue-Hant": "\u7c89\u5dba\u7ad9\u8f49\u8eca\u7ad9\uff0d\u7c89\u5dba\u7ad9", "operation": "private", "operator": "\u4e5d\u9f8d\u5df4\u58eb\uff08\u4e00\u4e5d\u4e09\u4e09\uff09\u6709\u9650\u516c\u53f8 The Kowloon Motor Bus Company (1933) Limited", "operator:en": "The Kowloon Motor Bus Company (1933) Limited", "operator:wikidata": "Q312243", "operator:zh": "\u4e5d\u9f8d\u5df4\u58eb\uff08\u4e00\u4e5d\u4e09\u4e09\uff09\u6709\u9650\u516c\u53f8", "owner": "\u8f09\u901a\u570b\u969b\u63a7\u80a1\u6709\u9650\u516c\u53f8 Transport International Holdings Limited", "owner:en": "Transport International Holdings Limited", "owner:wikidata": "Q312243Q7834879", "ownership": "private", "public_transport": "platform", "public_transport:bus": "yes", "ref:kmb": "FA02-W-1050-0", "route_ref": "78K;78S;79K;N78;278K", "shelter": "yes"}}, {"type": "node", "id": 3607376426, "lat": 22.4923911, "lon": 114.1400052, "tags": {"addr:street": "\u65b0\u904b\u8def San Wan Road", "addr:street:en": "San Wan Road", "addr:street:ref:kmb": "SA12", "addr:street:zh": "\u65b0\u904b\u8def", "brand": "\u4e5d\u5df4 KMB", "brand:en": "KMB", "brand:wikidata": "Q312243", "brand:zh": "\u4e5d\u5df4", "bus": "yes", "direction:ref": "W", "highway": "bus_stop", "local_ref": "B1", "name": "\u7c89\u5dba\u540d\u90fd Fanling Town Centre", "name:en": "Fanling Town Centre", "name:zh": "\u7c89\u5dba\u540d\u90fd", "nat_name": "\u7c89\u5dba\u7ad9\u8f49\u8eca\u7ad9 Fanling Station BBI", "nat_name:en": "Fanling Station BBI", "nat_name:en:pronunciation:en-Latn": "Fanling Station Interchange", "nat_name:pronunciation:mul": "\u7c89\u5dba\u7ad9\u8f49\u8eca\u7ad9 Fanling Station Interchange", "nat_name:zh": "\u7c89\u5dba\u7ad9\u8f49\u8eca\u7ad9", "nat_name:zh:pronunciation:yue-Hant": "\u7c89\u5dba\u7ad9\u8f49\u8eca\u7ad9", "network": "\u4e5d\u5df4 KMB;\u9f8d\u904b LWB", "network:en": "KMB;LWB", "network:wikidata": "Q312243;Q6673423", "network:zh": "\u4e5d\u5df4;\u9f8d\u904b", "official_name": "\u7c89\u5dba\u7ad9\u8f49\u8eca\u7ad9\uff0d\u7c89\u5dba\u540d\u90fd Fanling Station BBI - Fanling Town Centre", "official_name:en": "Fanling Station BBI - Fanling Town Centre", "official_name:en:pronunciation:en-Latn": "Fanling Station Interchange - Fanling Town Centre", "official_name:pronunciation:mul": "\u7c89\u5dba\u7ad9\u8f49\u8eca\u7ad9\uff0d\u7c89\u5dba\u540d\u90fd Fanling Station Interchange - Fanling Town Centre", "official_name:zh": "\u7c89\u5dba\u7ad9\u8f49\u8eca\u7ad9\uff0d\u7c89\u5dba\u540d\u90fd", "official_name:zh:pronunciation:yue-Hant": "\u7c89\u5dba\u7ad9\u8f49\u8eca\u7ad9\uff0d\u7c89\u5dba\u540d\u90fd", "operation": "private", "operator": "\u4e5d\u9f8d\u5df4\u58eb\uff08\u4e00\u4e5d\u4e09\u4e09\uff09\u6709\u9650\u516c\u53f8 The Kowloon Motor Bus Company (1933) Limited", "operator:en": "The Kowloon Motor Bus Company (1933) Limited", "operator:wikidata": "Q312243", "operator:zh": "\u4e5d\u9f8d\u5df4\u58eb\uff08\u4e00\u4e5d\u4e09\u4e09\uff09\u6709\u9650\u516c\u53f8", "owner": "\u8f09\u901a\u570b\u969b\u63a7\u80a1\u6709\u9650\u516c\u53f8 Transport International Holdings Limited", "owner:en": "Transport International Holdings Limited", "owner:wikidata": "Q312243Q7834879", "ownership": "private", "public_transport": "platform", "ref": "SA12-W-1050-0", "ref:kmb": "SA12-W-1050-0", "route_ref": "70K;73B;261;373;673;673A"}}, {"type": "node", "id": 3607376427, "lat": 22.4925544, "lon": 114.1401687, "tags": {"addr:street": "\u65b0\u904b\u8def San Wan Road", "addr:street:en": "San Wan Road", "addr:street:ref:kmb": "SA12", "addr:street:zh": "\u65b0\u904b\u8def", "brand": "\u4e5d\u5df4 KMB", "brand:en": "KMB", "brand:wikidata": "Q312243", "brand:zh": "\u4e5d\u5df4", "bus": "yes", "direction:ref": "E", "highway": "bus_stop", "local_ref": "A1", "name": "\u7965\u83ef\u90a8 Cheung Wah Estate", "name:en": "Cheung Wah Estate", "name:zh": "\u7965\u83ef\u90a8", "nat_name": "\u7c89\u5dba\u7ad9\u8f49\u8eca\u7ad9 Fanling Station BBI", "nat_name:en": "Fanling Station BBI", "nat_name:en:pronunciation:en-Latn": "Fanling Station Interchange", "nat_name:pronunciation:mul": "\u7c89\u5dba\u7ad9\u8f49\u8eca\u7ad9 Fanling Station Interchange", "nat_name:zh": "\u7c89\u5dba\u7ad9\u8f49\u8eca\u7ad9", "nat_name:zh:pronunciation:yue-Hant": "\u7c89\u5dba\u7ad9\u8f49\u8eca\u7ad9", "network": "\u4e5d\u5df4 KMB;\u9f8d\u904b LWB", "network:en": "KMB;LWB", "network:wikidata": "Q312243;Q6673423", "network:zh": "\u4e5d\u5df4;\u9f8d\u904b", "official_name": "\u7c89\u5dba\u7ad9\u8f49\u8eca\u7ad9\uff0d\u7965\u83ef\u90a8 Fanling Station BBI - Cheung Wah Estate", "official_name:en": "Fanling Station BBI - Cheung Wah Estate", "official_name:en:pronunciation:en-Latn": "Fanling Station Interchange - Cheung Wah Estate", "official_name:pronunciation:mul": "\u7c89\u5dba\u7ad9\u8f49\u8eca\u7ad9\uff0d\u7965\u83ef\u90a8 Fanling Station Interchange - Cheung Wah Estate", "official_name:zh": "\u7c89\u5dba\u7ad9\u8f49\u8eca\u7ad9\uff0d\u7965\u83ef\u90a8", "official_name:zh:pronunciation:yue-Hant": "\u7c89\u5dba\u7ad9\u8f49\u8eca\u7ad9\uff0d\u7965\u83ef\u90a8", "old_name": "\u7965\u83ef\u90a8\u7965\u980c\u6a13 Cheung Chung House, Cheung Wah Estate", "old_name:en": "Cheung Chung House, Cheung Wah Estate", "old_name:zh": "\u7965\u83ef\u90a8\u7965\u980c\u6a13", "operation": "private", "operator": "\u4e5d\u9f8d\u5df4\u58eb\uff08\u4e00\u4e5d\u4e09\u4e09\uff09\u6709\u9650\u516c\u53f8 The Kowloon Motor Bus Company (1933) Limited", "operator:en": "The Kowloon Motor Bus Company (1933) Limited", "operator:wikidata": "Q312243", "operator:zh": "\u4e5d\u9f8d\u5df4\u58eb\uff08\u4e00\u4e5d\u4e09\u4e09\uff09\u6709\u9650\u516c\u53f8", "owner": "\u8f09\u901a\u570b\u969b\u63a7\u80a1\u6709\u9650\u516c\u53f8 Transport International Holdings Limited", "owner:en": "Transport International Holdings Limited", "owner:wikidata": "Q312243Q7834879", "ownership": "private", "public_transport": "platform", "ref": "SA12-E-1050-0", "ref:kmb": "SA12-E-1050-0", "route_ref": "70K;78K;78S;79K;270C;277X;278A;278K;279X;373;673;673P;N78", "shelter": "yes", "was:name": "\u7965\u83ef\u90a8\u7965\u980c\u6a13 Cheung Chung House, Cheung Wah Estate", "was:name:en": "Cheung Chung House, Cheung Wah Estate", "was:name:zh": "\u7965\u83ef\u90a8\u7965\u980c\u6a13"}}, {"type": "node", "id": 4017476973, "lat": 22.4957734, "lon": 114.139905, "tags": {"bus": "yes", "highway": "bus_stop", "name": "\u74a7\u5cf0\u8def Pik Fung Road", "name:en": "Pik Fung Road", "name:zh": "\u74a7\u5cf0\u8def", "network": "CTB", "network:wikidata": "Q5124055", "operator": "\u57ce\u5df4 Citybus", "operator:en": "Citybus", "operator:wikidata": "Q5124055", "operator:zh": "\u57ce\u5df4", "public_transport": "platform", "ref:ctb": "3774A", "route_ref": "56A;B7"}}, {"type": "node", "id": 4017476974, "lat": 22.4956587, "lon": 114.1396913, "tags": {"bus": "yes", "highway": "bus_stop", "name": "\u7c89\u5dba\u6cd5\u9662\u5927\u6a13 Fanling Law Courts Building", "name:en": "Fanling Law Courts Building", "name:zh": "\u7c89\u5dba\u6cd5\u9662\u5927\u6a13", "network": "CTB", "network:wikidata": "Q5124055", "operator": "\u57ce\u5df4 Citybus", "operator:en": "Citybus", "operator:wikidata": "Q5124055", "operator:zh": "\u57ce\u5df4", "public_transport": "platform", "ref:ctb": "3717A", "route_ref": "56A;B7"}}, {"type": "node", "id": 4031250871, "lat": 22.4968432, "lon": 114.1412249, "tags": {"bus": "yes", "highway": "bus_stop", "name": "\u7c89\u5dba\u6a13\u6751 Fan Leng Lau Tsuen", "name:en": "Fan Leng Lau Tsuen", "name:zh": "\u7c89\u5dba\u6a13\u6751", "public_transport": "platform", "ref:kmb": "FA04-N-1000-0", "route_ref": "78K;277X;278K;279X;373;E43;N78", "shelter": "yes"}}, {"type": "node", "id": 4031250872, "lat": 22.4970488, "lon": 114.1413704, "tags": {"bus": "yes", "highway": "bus_stop", "name": "\u79ae\u8ce2\u6703\u4e2d\u5b78 Rhenish Church Secondary School", "name:en": "Rhenish Church Secondary School", "name:zh": "\u79ae\u8ce2\u6703\u4e2d\u5b78", "public_transport": "platform", "ref:kmb": "FA04-S-1000-0", "route_ref": "73B;78K;270C;277X;278A;278K;279X;373;E43;N78"}}, {"type": "node", "id": 5001081674, "lat": 22.507698, "lon": 114.1556594, "tags": {"bus": "yes", "highway": "bus_stop", "name": "\u65b0\u570d\u8ecd\u71df San Wai Barracks", "name:en": "San Wai Barracks", "name:zh": "\u65b0\u570d\u8ecd\u71df", "public_transport": "platform", "ref": "3680A", "ref:ctb": "3680A", "route_ref": "78C;79;79P;79X;679;979"}}, {"type": "node", "id": 5001081675, "lat": 22.5038487, "lon": 114.1493749, "tags": {"bench": "yes", "bin": "yes", "bus": "yes", "highway": "bus_stop", "name": "\u9f8d\u8e8d\u982d Lung Yeuk Tau", "name:en": "Lung Yeuk Tau", "name:zh": "\u9f8d\u8e8d\u982d", "public_transport": "platform", "ref:kmb": "SH02-N-1150-0", "route_ref": "78A;78B;78K;79K;277A;278A;N78", "shelter": "yes", "tactile_paving": "no"}}, {"type": "node", "id": 5001081676, "lat": 22.5035899, "lon": 114.1494085, "tags": {"bus": "yes", "highway": "bus_stop", "name": "\u9f8d\u8e8d\u982d Lung Yeuk Tau", "name:en": "Lung Yeuk Tau", "name:zh": "\u9f8d\u8e8d\u982d", "operator": "\u4e5d\u5df4 KMB", "public_transport": "platform", "ref:kmb": "SH02-S-2000-0", "route_ref": "78A;78B;78K;79K;277A;278A;N78"}}, {"type": "node", "id": 5001081677, "lat": 22.5008415, "lon": 114.14634, "tags": {"bus": "yes", "highway": "bus_stop", "local_ref": "ND265", "name": "\u9038\u5cef Green Code", "name:en": "Green Code", "name:zh": "\u9038\u5cef", "operator": "\u4e5d\u5df4 KMB", "public_transport": "platform", "ref:kmb": "SH02-N-1100-0", "route_ref": "78A;78B;78K;78S;79K;277A;278A;N78"}}, {"type": "node", "id": 5001081678, "lat": 22.5000583, "lon": 114.1459035, "tags": {"bus": "yes", "highway": "bus_stop", "local_ref": "ND551", "name": "\u5b89\u6a02\u6751 On Lok Tsuen", "name:en": "On Lok Tsuen", "name:zh": "\u5b89\u6a02\u6751", "public_transport": "platform", "ref:kmb": "SH02-S-2050-0", "route_ref": "78A;78K;79K;277A;278A;N78", "shelter": "yes"}}, {"type": "node", "id": 5001081679, "lat": 22.4975626, "lon": 114.1431143, "tags": {"bus": "yes", "highway": "bus_stop", "name": "\u806f\u548c\u589f\u7403\u5834 Luen Wo Hui Playground", "name:en": "Luen Wo Hui Playground", "name:zh": "\u806f\u548c\u589f\u7403\u5834", "network": "KMB", "network:wikidata": "Q312243", "operator": "\u4e5d\u5df4 KMB", "operator:en": "KMB", "operator:wikidata": "Q312243", "operator:zh": "\u4e5d\u5df4", "public_transport": "platform", "ref": "SH02-N-1050-0", "ref:kmb": "SH02-N-1050-0", "route_ref": "70K;73B;78A;78B;78S;79K;261;270C;277A;278A;373;673;673A"}}, {"type": "node", "id": 5001081680, "lat": 22.4969719, "lon": 114.1428926, "tags": {"bus": "yes", "highway": "bus_stop", "name": "\u7c89\u5dba\u6a02\u548c\u8857 Lok Wo Street Fanling", "name:en": "Lok Wo Street Fanling", "name:zh": "\u7c89\u5dba\u6a02\u548c\u8857", "public_transport": "platform", "ref": "SH02-S-2100-0", "ref:kmb": "SH02-S-2100-0", "route_ref": "70K;78A;78K;78S;79K;261;277A;373;673;673A;673P"}}, {"type": "node", "id": 5001081681, "lat": 22.494322, "lon": 114.1399755, "tags": {"bus": "yes", "highway": "bus_stop", "name": "\u7c89\u5dba\u6d88\u9632\u5c40 Fanling Fire Station", "name:en": "Fanling Fire Station", "name:zh": "\u7c89\u5dba\u6d88\u9632\u5c40", "public_transport": "platform", "ref:kmb": "SH02-N-0900-0", "route_ref": "70K;673;673A"}}, {"type": "node", "id": 5001081682, "lat": 22.4959271, "lon": 114.1415237, "tags": {"bus": "yes", "highway": "bus_stop", "name": "\u7c89\u5dba\u6a13 Fan Leng Lau", "name:en": "Fan Leng Lau", "name:zh": "\u7c89\u5dba\u6a13", "public_transport": "platform", "ref:kmb": "SH02-N-1000-0", "route_ref": "70K;78A;78K;261;270C;277A;277X;278A;278K;279X;673;673A;N78", "shelter": "yes"}}, {"type": "node", "id": 6018907357, "lat": 22.4924774, "lon": 114.1412531, "tags": {"access:bus": "private", "alt_name": "\u7965\u83ef\u5df4\u58eb\u7e3d\u7ad9 Cheung Wah Bus Terminus", "alt_name:en": "Cheung Wah Bus Terminus", "alt_name:zh": "\u7965\u83ef\u5df4\u58eb\u7e3d\u7ad9", "brand": "\u4e5d\u5df4 KMB", "brand:en": "KMB", "brand:wikidata": "Q312243", "brand:zh": "\u4e5d\u5df4", "bus": "yes", "bus:conditional": "yes @ (franchised)", "bus_bay": "lane", "highway": "bus_stop", "name": "\u7965\u83ef Cheung Wah", "name:en": "Cheung Wah", "name:zh": "\u7965\u83ef", "network": "\u4e5d\u5df4 KMB; \u9f8d\u904b LWB", "network:en": "KMB;LWB", "network:wikidata": "Q312243;Q6673423", "network:zh": "\u4e5d\u5df4;\u9f8d\u904b", "operation": "private", "operator": "\u4e5d\u9f8d\u5df4\u58eb\uff08\u4e00\u4e5d\u4e09\u4e09\uff09\u6709\u9650\u516c\u53f8 The Kowloon Motor Bus Company (1933) Limited", "operator:en": "The Kowloon Motor Bus Company (1933) Limited", "operator:wikidata": "Q312243", "operator:zh": "\u4e5d\u9f8d\u5df4\u58eb\uff08\u4e00\u4e5d\u4e09\u4e09\uff09\u6709\u9650\u516c\u53f8", "owner": "\u8f09\u901a\u570b\u969b\u63a7\u80a1\u6709\u9650\u516c\u53f8 Transport International Holdings Limited", "owner:en": "Transport International Holdings Limited", "owner:wikidata": "Q312243Q7834879", "ownership": "private", "public_transport": "platform", "public_transport:bus": "yes", "ref": "CH08-T-1000-0", "ref:kmb": "CH08-T-1000-0", "station": "bus", "station:ref": "CH08"}}, {"type": "node", "id": 6261145885, "lat": 22.5006661, "lon": 114.1424521, "tags": {"bus": "yes", "highway": "bus_stop", "name": "\u6d77\u806f\u5ee3\u5834 Union Plaza", "name:en": "Union Plaza", "name:zh": "\u6d77\u806f\u5ee3\u5834", "public_transport": "platform", "ref:kmb": "WO11-W-1050-0", "route_ref": "73B;261;270C;270D;277X;278K;279A;279B;279X;978A;N373", "shelter": "yes"}}, {"type": "node", "id": 6261145886, "lat": 22.5008974, "lon": 114.142452, "tags": {"bus": "yes", "highway": "bus_stop", "name": "\u4e0a\u6c34\u5ba3\u9053\u5c0f\u5b78 Alliance Primary School, Sheung Shui", "name:en": "Alliance Primary School, Sheung Shui", "name:zh": "\u4e0a\u6c34\u5ba3\u9053\u5c0f\u5b78", "public_transport": "platform", "ref:kmb": "WO11-E-1000-0", "route_ref": "70K;78K;261;270S;277X;278K;279X;373;673;673A;673P;978A;N78;N373", "shelter": "yes"}}, {"type": "node", "id": 6327610132, "lat": 22.5003591, "lon": 114.143322, "tags": {"bus": "yes", "highway": "bus_stop", "name": "\u806f\u548c\u589f\u7e3d\u7ad9 Luen Wo Hui Bus Terminus", "name:en": "Luen Wo Hui Bus Terminus", "name:zh": "\u806f\u548c\u589f\u7e3d\u7ad9", "public_transport": "platform", "ref:kmb": "LU02-T-1000-0", "route_ref": "278K"}}, {"type": "node", "id": 7755500682, "lat": 22.5007181, "lon": 114.1402042, "tags": {"bus": "yes", "highway": "bus_stop", "name": "\u7c89\u5dba\u6a13\u8def Fan Leng Lau Road", "name:en": "Fan Leng Lau Road", "name:zh": "\u7c89\u5dba\u6a13\u8def", "public_transport": "platform", "ref:kmb": "FA04-S-0950-0", "route_ref": "70K;261;673;673A;673P;978A;E43;N373"}}, {"type": "node", "id": 7755562119, "lat": 22.5006442, "lon": 114.1399945, "tags": {"bus": "yes", "highway": "bus_stop", "name": "\u7c89\u5dba\u6a13\u8def Fan Leng Lau Road", "name:en": "Fan Leng Lau Road", "name:zh": "\u7c89\u5dba\u6a13\u8def", "public_transport": "platform", "ref:kmb": "FA04-N-1050-0", "route_ref": "70K;261;270D;279A;279B;673;673A;978A;E43;N373"}}, {"type": "node", "id": 8592129831, "lat": 22.4941016, "lon": 114.1399246, "tags": {"bus": "yes", "highway": "bus_stop", "name": "\u7c89\u5dba\u6d88\u9632\u5c40 Fanling Fire Station", "name:en": "Fanling Fire Station", "name:zh": "\u7c89\u5dba\u6d88\u9632\u5c40", "operator": "LWB", "public_transport": "platform", "ref:lwb": "SH02-S-2135-2", "route_ref": "A43;A43P;N42A;NA43"}}, {"type": "node", "id": 10658373407, "lat": 22.4924351, "lon": 114.1399803, "tags": {"addr:street": "\u65b0\u904b\u8def San Wan Road", "addr:street:en": "San Wan Road", "addr:street:ref:kmb": "SA12", "addr:street:zh": "\u65b0\u904b\u8def", "brand": "\u4e5d\u5df4 KMB", "brand:en": "KMB", "brand:wikidata": "Q312243", "brand:zh": "\u4e5d\u5df4", "bus": "yes", "direction:ref": "W", "highway": "bus_stop", "local_ref": "B1", "name": "\u7c89\u5dba\u540d\u90fd Fanling Town Centre", "name:en": "Fanling Town Centre", "name:zh": "\u7c89\u5dba\u540d\u90fd", "nat_name": "\u7c89\u5dba\u7ad9\u8f49\u8eca\u7ad9 Fanling Station BBI", "nat_name:en": "Fanling Station BBI", "nat_name:en:pronunciation:en-Latn": "Fanling Station Interchange", "nat_name:pronunciation:mul": "\u7c89\u5dba\u7ad9\u8f49\u8eca\u7ad9 Fanling Station Interchange", "nat_name:zh": "\u7c89\u5dba\u7ad9\u8f49\u8eca\u7ad9", "nat_name:zh:pronunciation:yue-Hant": "\u7c89\u5dba\u7ad9\u8f49\u8eca\u7ad9", "network": "\u4e5d\u5df4 KMB;\u9f8d\u904b LWB", "network:en": "KMB;LWB", "network:wikidata": "Q312243;Q6673423", "network:zh": "\u4e5d\u5df4;\u9f8d\u904b", "official_name": "\u7c89\u5dba\u7ad9\u8f49\u8eca\u7ad9\uff0d\u7c89\u5dba\u540d\u90fd Fanling Station BBI - Fanling Town Centre", "official_name:en": "Fanling Station BBI - Fanling Town Centre", "official_name:en:pronunciation:en-Latn": "Fanling Station Interchange - Fanling Town Centre", "official_name:pronunciation:mul": "\u7c89\u5dba\u7ad9\u8f49\u8eca\u7ad9\uff0d\u7c89\u5dba\u540d\u90fd Fanling Station Interchange - Fanling Town Centre", "official_name:zh": "\u7c89\u5dba\u7ad9\u8f49\u8eca\u7ad9\uff0d\u7c89\u5dba\u540d\u90fd", "official_name:zh:pronunciation:yue-Hant": "\u7c89\u5dba\u7ad9\u8f49\u8eca\u7ad9\uff0d\u7c89\u5dba\u540d\u90fd", "operation": "private", "operator": "\u4e5d\u9f8d\u5df4\u58eb\uff08\u4e00\u4e5d\u4e09\u4e09\uff09\u6709\u9650\u516c\u53f8 The Kowloon Motor Bus Company (1933) Limited", "operator:en": "The Kowloon Motor Bus Company (1933) Limited", "operator:wikidata": "Q312243", "operator:zh": "\u4e5d\u9f8d\u5df4\u58eb\uff08\u4e00\u4e5d\u4e09\u4e09\uff09\u6709\u9650\u516c\u53f8", "owner": "\u8f09\u901a\u570b\u969b\u63a7\u80a1\u6709\u9650\u516c\u53f8 Transport International Holdings Limited", "owner:en": "Transport International Holdings Limited", "owner:wikidata": "Q312243Q7834879", "ownership": "private", "public_transport": "platform", "ref": "SA12-W-1080-0", "ref:kmb": "SA12-W-1080-0", "route_ref": "270C;277X;279X;A43;E43;N42A;NA43"}}, {"type": "node", "id": 10658373412, "lat": 22.492548, "lon": 114.1401818, "tags": {"addr:street": "\u65b0\u904b\u8def San Wan Road", "addr:street:en": "San Wan Road", "addr:street:ref:kmb": "SA12", "addr:street:zh": "\u65b0\u904b\u8def", "brand": "\u4e5d\u5df4 KMB", "brand:en": "KMB", "brand:wikidata": "Q312243", "brand:zh": "\u4e5d\u5df4", "bus": "yes", "direction:ref": "E", "highway": "bus_stop", "local_ref": "A1", "name": "\u7965\u83ef\u90a8 Cheung Wah Estate", "name:en": "Cheung Wah Estate", "name:zh": "\u7965\u83ef\u90a8", "nat_name": "\u7c89\u5dba\u7ad9\u8f49\u8eca\u7ad9 Fanling Station BBI", "nat_name:en": "Fanling Station BBI", "nat_name:en:pronunciation:en-Latn": "Fanling Station Interchange", "nat_name:pronunciation:mul": "\u7c89\u5dba\u7ad9\u8f49\u8eca\u7ad9 Fanling Station Interchange", "nat_name:zh": "\u7c89\u5dba\u7ad9\u8f49\u8eca\u7ad9", "nat_name:zh:pronunciation:yue-Hant": "\u7c89\u5dba\u7ad9\u8f49\u8eca\u7ad9", "network": "\u4e5d\u5df4 KMB;\u9f8d\u904b LWB", "network:en": "KMB;LWB", "network:wikidata": "Q312243;Q6673423", "network:zh": "\u4e5d\u5df4;\u9f8d\u904b", "official_name": "\u7c89\u5dba\u7ad9\u8f49\u8eca\u7ad9\uff0d\u7965\u83ef\u90a8 Fanling Station BBI - Cheung Wah Estate", "official_name:en": "Fanling Station BBI - Cheung Wah Estate", "official_name:en:pronunciation:en-Latn": "Fanling Station Interchange - Cheung Wah Estate", "official_name:pronunciation:mul": "\u7c89\u5dba\u7ad9\u8f49\u8eca\u7ad9\uff0d\u7965\u83ef\u90a8 Fanling Station Interchange - Cheung Wah Estate", "official_name:zh": "\u7c89\u5dba\u7ad9\u8f49\u8eca\u7ad9\uff0d\u7965\u83ef\u90a8", "official_name:zh:pronunciation:yue-Hant": "\u7c89\u5dba\u7ad9\u8f49\u8eca\u7ad9\uff0d\u7965\u83ef\u90a8", "old_name": "\u7965\u83ef\u90a8\u7965\u980c\u6a13 Cheung Chung House, Cheung Wah Estate", "old_name:en": "Cheung Chung House, Cheung Wah Estate", "old_name:zh": "\u7965\u83ef\u90a8\u7965\u980c\u6a13", "operation": "private", "operator": "\u4e5d\u9f8d\u5df4\u58eb\uff08\u4e00\u4e5d\u4e09\u4e09\uff09\u6709\u9650\u516c\u53f8 The Kowloon Motor Bus Company (1933) Limited", "operator:en": "The Kowloon Motor Bus Company (1933) Limited", "operator:wikidata": "Q312243", "operator:zh": "\u4e5d\u9f8d\u5df4\u58eb\uff08\u4e00\u4e5d\u4e09\u4e09\uff09\u6709\u9650\u516c\u53f8", "owner": "\u8f09\u901a\u570b\u969b\u63a7\u80a1\u6709\u9650\u516c\u53f8 Transport International Holdings Limited", "owner:en": "Transport International Holdings Limited", "owner:wikidata": "Q312243Q7834879", "ownership": "private", "public_transport": "platform", "ref": "SA12-E-1060-0", "ref:kmb": "SA12-E-1060-0", "route_ref": "261;673A;A43;A43P;E43;N42A;NA43", "was:name": "\u7965\u83ef\u90a8\u7965\u980c\u6a13 Cheung Chung House, Cheung Wah Estate", "was:name:en": "Cheung Chung House, Cheung Wah Estate", "was:name:zh": "\u7965\u83ef\u90a8\u7965\u980c\u6a13"}}, {"type": "node", "id": 10973981999, "lat": 22.4957403, "lon": 114.1398201, "tags": {"bus": "yes", "highway": "bus_stop", "name": "\u74a7\u5cf0\u8def Pik Fung Road", "name:en": "Pik Fung Road", "name:zh": "\u74a7\u5cf0\u8def", "public_transport": "stop_position"}}, {"type": "node", "id": 10973982004, "lat": 22.4956839, "lon": 114.1397883, "tags": {"bus": "yes", "highway": "bus_stop", "name": "\u7c89\u5dba\u6cd5\u9662\u5927\u6a13 Fanling Law Courts Building", "name:en": "Fanling Law Courts Building", "name:zh": "\u7c89\u5dba\u6cd5\u9662\u5927\u6a13", "public_transport": "stop_position"}}, {"type": "node", "id": 11005209041, "lat": 22.5016706, "lon": 114.146487, "tags": {"bus": "yes", "highway": "bus_stop", "name": "\u9038\u5cef Green Code", "name:en": "Green Code", "name:zh": "\u9038\u5cef", "public_transport": "platform"}}, {"type": "node", "id": 11005209042, "lat": 22.5018901, "lon": 114.1427149, "tags": {"bus": "yes", "highway": "bus_stop", "name": "\u69ae\u8f1d\u4e2d\u5fc3 Wing Fai Centre", "name:en": "Wing Fai Centre", "name:zh": "\u69ae\u8f1d\u4e2d\u5fc3", "public_transport": "platform"}}, {"type": "node", "id": 11005209046, "lat": 22.502368, "lon": 114.1448652, "tags": {"bus": "yes", "departures_board": "timetable", "highway": "bus_stop", "name": "\u7da0\u60a0\u8ed2 Belair Monte", "name:en": "Belair Monte", "name:zh": "\u7da0\u60a0\u8ed2", "public_transport": "platform"}}, {"type": "node", "id": 11083799064, "lat": 22.495937, "lon": 114.1415344, "tags": {"bus": "yes", "highway": "bus_stop", "name": "\u7c89\u5dba\u6a13 Fan Leng Lau", "name:en": "Fan Leng Lau", "name:zh": "\u7c89\u5dba\u6a13", "public_transport": "platform", "ref:kmb": "SH02-N-1025-2", "route_ref": "A43;A43P;N42A;NA43", "shelter": "yes"}}, {"type": "node", "id": 11083799065, "lat": 22.5006432, "lon": 114.143512, "tags": {"bus": "yes", "highway": "bus_stop", "name": "\u806f\u548c\u589f\u7e3d\u7ad9 Luen Wo Hui Bus Terminus", "name:en": "Luen Wo Hui Bus Terminus", "name:zh": "\u806f\u548c\u589f\u7e3d\u7ad9", "public_transport": "platform", "ref:kmb": "LU02-T-1200-0", "route_ref": "277X"}}, {"type": "node", "id": 11083799066, "lat": 22.500405, "lon": 114.143375, "tags": {"bus": "yes", "highway": "bus_stop", "name": "\u806f\u548c\u589f\u7e3d\u7ad9 Luen Wo Hui Bus Terminus", "name:en": "Luen Wo Hui Bus Terminus", "name:zh": "\u806f\u548c\u589f\u7e3d\u7ad9", "public_transport": "platform", "ref:kmb": "LU02-T-1050-0", "route_ref": "279A;279B;279X;N373"}}, {"type": "node", "id": 11083799068, "lat": 22.5004738, "lon": 114.1434005, "tags": {"bus": "yes", "highway": "bus_stop", "name": "\u806f\u548c\u589f\u7e3d\u7ad9 Luen Wo Hui Bus Terminus", "name:en": "Luen Wo Hui Bus Terminus", "name:zh": "\u806f\u548c\u589f\u7e3d\u7ad9", "public_transport": "platform", "ref:kmb": "LU02-T-1050-0", "route_ref": "70K;78K;79K;373;673;673A;N78;270S"}}, {"type": "node", "id": 11083799070, "lat": 22.5001689, "lon": 114.1436542, "tags": {"bus": "yes", "highway": "bus_stop", "name": "\u806f\u548c\u589f\u7e3d\u7ad9 Luen Wo Hui Bus Terminus", "name:en": "Luen Wo Hui Bus Terminus", "name:zh": "\u806f\u548c\u589f\u7e3d\u7ad9", "public_transport": "platform", "ref:kmb": "LU02-T-1300-0", "route_ref": "270C;270D;978A"}}, {"type": "node", "id": 11083799072, "lat": 22.5002319, "lon": 114.1436993, "tags": {"bus": "yes", "highway": "bus_stop", "name": "\u806f\u548c\u589f\u7e3d\u7ad9 Luen Wo Hui Bus Terminus", "name:en": "Luen Wo Hui Bus Terminus", "name:zh": "\u806f\u548c\u589f\u7e3d\u7ad9", "public_transport": "platform", "ref:kmb": "LU02-T-1150-0", "route_ref": "79K;278A"}}, {"type": "node", "id": 11083799076, "lat": 22.5006043, "lon": 114.1434725, "tags": {"bus": "yes", "highway": "bus_stop", "name": "\u806f\u548c\u589f\u7e3d\u7ad9 Luen Wo Hui Bus Terminus", "name:en": "Luen Wo Hui Bus Terminus", "name:zh": "\u806f\u548c\u589f\u7e3d\u7ad9", "public_transport": "platform", "ref:kmb": "LU02-T-1125-2", "route_ref": "A43;A43P;N42A;NA43"}}, {"type": "node", "id": 11085228206, "lat": 22.5075225, "lon": 114.1550524, "tags": {"bus": "yes", "highway": "bus_stop", "name": "\u65b0\u570d\u8ecd\u71df San Wai Barracks", "name:en": "San Wai Barracks", "name:zh": "\u65b0\u570d\u8ecd\u71df", "public_transport": "platform", "ref:kmb": "SH02-N-1200-0", "route_ref": "78K;79K;277A;N78"}}, {"type": "node", "id": 11085228215, "lat": 22.5077675, "lon": 114.1557838, "tags": {"bus": "yes", "highway": "bus_stop", "name": "\u65b0\u570d\u8ecd\u71df San Wai Barracks", "name:en": "San Wai Barracks", "name:zh": "\u65b0\u570d\u8ecd\u71df", "public_transport": "platform", "ref:kmb": "SH02-S-1950-0", "route_ref": "78K;79K;277A;N78"}}, {"type": "node", "id": 11099205371, "lat": 22.5029656, "lon": 114.1490993, "tags": {"bus": "yes", "highway": "bus_stop", "name": "\u9f8d\u8e8d\u982d Lung Yeuk Tau (54K)", "public_transport": "platform"}}, {"type": "node", "id": 11099205372, "lat": 22.5002682, "lon": 114.1540012, "tags": {"bus": "yes", "highway": "bus_stop", "name": "\u6771\u95a3\u570d Tung Kok Wai (54K)", "public_transport": "platform"}}, {"type": "node", "id": 11149744733, "lat": 22.4956263, "lon": 114.1397217, "tags": {"bus": "yes", "highway": "bus_stop", "name": "\u7c89\u5dba\u6cd5\u9662\u5927\u6a13 Fanling Law Courts Building", "name:en": "Fanling Law Courts Building", "name:zh": "\u7c89\u5dba\u6cd5\u9662\u5927\u6a13", "network": "KMB", "network:wikidata": "Q312243", "operator": "\u4e5d\u5df4 KMB", "operator:en": "KMB", "operator:wikidata": "Q312243", "operator:zh": "\u4e5d\u5df4", "public_transport": "platform", "ref:kmb": "JO01-W-1000-0", "route_ref": "73B;79K;373"}}, {"type": "node", "id": 11149744734, "lat": 22.4957916, "lon": 114.1398859, "tags": {"bus": "yes", "highway": "bus_stop", "name": "\u74a7\u5cf0\u8def Pik Fung Road", "name:en": "Pik Fung Road", "name:zh": "\u74a7\u5cf0\u8def", "network": "KMB", "network:wikidata": "Q312243", "operator": "\u4e5d\u5df4 KMB", "operator:en": "KMB", "operator:wikidata": "Q312243", "operator:zh": "\u4e5d\u5df4", "public_transport": "platform", "ref:kmb": "JO01-E-1250-0", "route_ref": "79K;373"}}, {"type": "node", "id": 11149744735, "lat": 22.4975782, "lon": 114.143127, "tags": {"bus": "yes", "highway": "bus_stop", "name": "\u806f\u548c\u589f\u904a\u6a02\u5834 Luen Wo Hui Playground", "name:en": "Luen Wo Hui Playground", "name:zh": "\u806f\u548c\u589f\u904a\u6a02\u5834", "public_transport": "platform", "ref:ctb": "3780A", "route_ref": "56A"}}, {"type": "node", "id": 11149744740, "lat": 22.4975925, "lon": 114.143144, "tags": {"bus": "yes", "highway": "bus_stop", "name": "\u806f\u548c\u589f\u7403\u5834 Luen Wo Hui Playground", "name:en": "Luen Wo Hui Playground", "name:zh": "\u806f\u548c\u589f\u7403\u5834", "network": "\u9f8d\u904b\u6a5f\u5834\u5df4\u58eb Long Win Bus", "network:en": "Long Win Bus", "network:short": "LBW", "network:wikidata": "Q6673423", "network:yue": "\u9f8d\u904b\u6a5f\u5834\u5df4\u58eb", "operator": "\u9f8d\u904b\u5df4\u58eb LWB", "operator:en": "LWB", "operator:wikidata": "Q6673423", "operator:zh": "\u9f8d\u904b\u5df4\u58eb", "public_transport": "platform", "ref:lwb": "SH02-N-1075-2", "route_ref": "A43;A43P;N42A;NA43"}}, {"type": "node", "id": 11149744741, "lat": 22.4969814, "lon": 114.1429041, "tags": {"bus": "yes", "highway": "bus_stop", "name": "\u7c89\u5dba\u6a02\u548c\u8857 Lok Wo Street Fanling", "name:en": "Lok Wo Street Fanling", "name:zh": "\u7c89\u5dba\u6a02\u548c\u8857", "public_transport": "platform", "ref:ctb": "3779A", "route_ref": "56A"}}, {"type": "node", "id": 11149744742, "lat": 22.4969651, "lon": 114.1428842, "tags": {"bus": "yes", "highway": "bus_stop", "name": "\u7c89\u5dba\u6a02\u548c\u8857 Lok Wo Street Fanling", "name:en": "Lok Wo Street Fanling", "name:zh": "\u7c89\u5dba\u6a02\u548c\u8857", "network": "\u9f8d\u904b\u6a5f\u5834\u5df4\u58eb Long Win Bus", "network:en": "Long Win Bus", "network:short": "LBW", "network:wikidata": "Q6673423", "network:yue": "\u9f8d\u904b\u6a5f\u5834\u5df4\u58eb", "operator": "\u9f8d\u904b\u5df4\u58eb LWB", "operator:en": "LWB", "operator:wikidata": "Q6673423", "operator:zh": "\u9f8d\u904b\u5df4\u58eb", "public_transport": "platform", "ref:lwb": "SH02-S-2125-2", "route_ref": "A43;A43P;N42A;NA43"}}, {"type": "node", "id": 11366291331, "lat": 22.4999801, "lon": 114.1458267, "tags": {"bus": "yes", "highway": "bus_stop", "local_ref": "ND551a", "name": "\u5b89\u6a02\u6751 On Lok Tsuen", "name:en": "On Lok Tsuen", "name:zh": "\u5b89\u6a02\u6751", "operator": "\u9f8d\u904b\u5df4\u58eb Long Win Bus", "public_transport": "platform", "route_ref": "A43P"}}, {"type": "node", "id": 11366291334, "lat": 22.4947466, "lon": 114.1437513, "tags": {"bus": "yes", "highway": "bus_stop", "name": "\u5b89\u5168\u8857 On Chuen Street", "public_transport": "platform"}}, {"type": "node", "id": 11366291335, "lat": 22.4946771, "lon": 114.1440338, "tags": {"bus": "yes", "highway": "bus_stop", "name": "\u5b89\u5168\u8857 On Chuen Street", "public_transport": "platform"}}, {"type": "node", "id": 11397244417, "lat": 22.5005403, "lon": 114.1426022, "tags": {"bus": "yes", "highway": "bus_stop", "name": "\u6d77\u806f\u5ee3\u5834 Union Plaza", "name:en": "Union Plaza", "name:zh": "\u6d77\u806f\u5ee3\u5834", "public_transport": "platform", "ref:kmb": "WO11-W-0950-0", "route_ref": "70K;78K;278A;373;673;673A;N78"}}, {"type": "node", "id": 11436254491, "lat": 22.4927685, "lon": 114.1396422, "tags": {"addr:street": "\u65b0\u904b\u8def San Wan Road", "addr:street:en": "San Wan Road", "addr:street:ref:kmb": "SA12", "addr:street:zh": "\u65b0\u904b\u8def", "brand": "\u4e5d\u5df4 KMB", "brand:en": "KMB", "brand:wikidata": "Q312243", "brand:zh": "\u4e5d\u5df4", "bus": "yes", "direction:ref": "W", "highway": "bus_stop", "local_ref": "B1", "name": "\u7c89\u5dba\u540d\u90fd Fanling Town Centre", "name:en": "Fanling Town Centre", "name:zh": "\u7c89\u5dba\u540d\u90fd", "nat_name": "\u7c89\u5dba\u7ad9\u8f49\u8eca\u7ad9 Fanling Station BBI", "nat_name:en": "Fanling Station BBI", "nat_name:en:pronunciation:en-Latn": "Fanling Station Interchange", "nat_name:pronunciation:mul": "\u7c89\u5dba\u7ad9\u8f49\u8eca\u7ad9 Fanling Station Interchange", "nat_name:zh": "\u7c89\u5dba\u7ad9\u8f49\u8eca\u7ad9", "nat_name:zh:pronunciation:yue-Hant": "\u7c89\u5dba\u7ad9\u8f49\u8eca\u7ad9", "network": "\u4e5d\u5df4 KMB;\u9f8d\u904b LWB", "network:en": "KMB;LWB", "network:wikidata": "Q312243;Q6673423", "network:zh": "\u4e5d\u5df4;\u9f8d\u904b", "official_name": "\u7c89\u5dba\u7ad9\u8f49\u8eca\u7ad9\uff0d\u7c89\u5dba\u540d\u90fd Fanling Station BBI - Fanling Town Centre", "official_name:en": "Fanling Station BBI - Fanling Town Centre", "official_name:en:pronunciation:en-Latn": "Fanling Station Interchange - Fanling Town Centre", "official_name:pronunciation:mul": "\u7c89\u5dba\u7ad9\u8f49\u8eca\u7ad9\uff0d\u7c89\u5dba\u540d\u90fd Fanling Station Interchange - Fanling Town Centre", "official_name:zh": "\u7c89\u5dba\u7ad9\u8f49\u8eca\u7ad9\uff0d\u7c89\u5dba\u540d\u90fd", "official_name:zh:pronunciation:yue-Hant": "\u7c89\u5dba\u7ad9\u8f49\u8eca\u7ad9\uff0d\u7c89\u5dba\u540d\u90fd", "operation": "private", "operator": "\u4e5d\u9f8d\u5df4\u58eb\uff08\u4e00\u4e5d\u4e09\u4e09\uff09\u6709\u9650\u516c\u53f8 The Kowloon Motor Bus Company (1933) Limited", "operator:en": "The Kowloon Motor Bus Company (1933) Limited", "operator:wikidata": "Q312243", "operator:zh": "\u4e5d\u9f8d\u5df4\u58eb\uff08\u4e00\u4e5d\u4e09\u4e09\uff09\u6709\u9650\u516c\u53f8", "owner": "\u8f09\u901a\u570b\u969b\u63a7\u80a1\u6709\u9650\u516c\u53f8 Transport International Holdings Limited", "owner:en": "Transport International Holdings Limited", "owner:wikidata": "Q312243Q7834879", "ownership": "private", "public_transport": "platform", "ref": "SA12-W-1090-0", "ref:kmb": "SA12-W-1090-0", "route_ref": "78A;278A"}}, {"type": "node", "id": 12089135690, "lat": 22.5008547, "lon": 114.1463525, "tags": {"bus": "yes", "highway": "bus_stop", "name": "\u9038\u5cef Green Code", "name:en": "Green Code", "name:zh": "\u9038\u5cef", "operator": "\u57ce\u5df4 Citybus", "public_transport": "platform", "ref:ctb": "3846A", "route_ref": "56A"}}, {"type": "node", "id": 12534522654, "lat": 22.5048182, "lon": 114.154561, "tags": {"bus": "yes", "highway": "bus_stop", "name": "\u7687\u540e\u5c71\u4e00\u865f One Queens Hill", "name:en": "One Queens Hill", "name:zh": "\u7687\u540e\u5c71\u4e00\u865f", "network": "\u57ce\u5df4 Citybus", "network:en": "Citybus", "network:wikidata": "Q5124055", "network:zh": "\u57ce\u5df4", "operator": "\u57ce\u5df4\u6709\u9650\u516c\u53f8 Citybus Limited", "operator:en": "Citybus Limited", "operator:wikidata": "Q5124055", "operator:zh": "\u57ce\u5df4\u6709\u9650\u516c\u53f8", "public_transport": "platform", "ref:cbnw": "3878A", "route_ref": "78P;78X;79;79X"}}, {"type": "node", "id": 12534522655, "lat": 22.5048388, "lon": 114.1545489, "tags": {"bus": "yes", "highway": "bus_stop", "name": "\u9f8d\u99ac\u8def Lung Ma Road", "name:en": "Lung Ma Road", "name:zh": "\u9f8d\u99ac\u8def", "network": "KMB", "network:wikidata": "Q312243", "public_transport": "platform", "ref:kmb": "LU14-S-1000-0", "route_ref": "78A;78B;N78"}}]}