{"version": 0.6, "generator": "Overpass API 0.7.62.10 2d4cfc48", "osm3s": {"timestamp_osm_base": "2026-02-24T02:24:33Z", "copyright": "The data included in this document is from www.openstreetmap.org. The data is made available under ODbL."}, "elements": [{"type": "node", "id": 1311402542, "lat": 22.3729784, "lon": 114.1747698, "tags": {"access:bus": "private", "bench": "no", "brand": "\u4e5d\u5df4 KMB", "brand:en": "KMB", "brand:zh": "\u4e5d\u5df4", "bus": "yes", "highway": "bus_stop", "layer": "1", "name": "\u5927\u570d\u65b0\u6751 Tai Wai New Village", "name:en": "Tai Wai New Village", "name:zh": "\u5927\u570d\u65b0\u6751", "network": "\u4e5d\u5df4 KMB;\u9f8d\u904b LWB", "network:en": "KMB;LWB", "network:zh": "\u4e5d\u5df4;\u9f8d\u904b", "operator": "\u4e5d\u9f8d\u5df4\u58eb\uff08\u4e00\u4e5d\u4e09\u4e09\uff09\u6709\u9650\u516c\u53f8 The Kowloon Motor Bus Company (1933) Limited", "operator:en": "The Kowloon Motor Bus Company (1933) Limited", "operator:ownership": "private", "operator:wikidata": "Q312243", "operator:zh": "\u4e5d\u9f8d\u5df4\u58eb\uff08\u4e00\u4e5d\u4e09\u4e09\uff09\u6709\u9650\u516c\u53f8", "owner": "\u4e5d\u9f8d\u5df4\u58eb\uff08\u4e00\u4e5d\u4e09\u4e09\uff09\u6709\u9650\u516c\u53f8 The Kowloon Motor Bus Company (1933) Limited", "owner:en": "The Kowloon Motor Bus Company (1933) Limited", "owner:wikidata": "Q312243", "owner:zh": "\u4e5d\u9f8d\u5df4\u58eb\uff08\u4e00\u4e5d\u4e09\u4e09\uff09\u6709\u9650\u516c\u53f8", "ownership": "private", "public_transport": "platform", "public_transport:bus": "yes", "ref": "TA21-N-1700-0", "ref:hkbus": "\u5927\u570d\u65b0\u6751", "ref:kmb": "TA21-N-1700-0", "shelter": "yes"}}, {"type": "node", "id": 1311402681, "lat": 22.377687, "lon": 114.1749751, "tags": {"bench": "no", "bin": "no", "bus": "yes", "highway": "bus_stop", "name": "\u7f8e\u6797 Mei Lam", "name:en": "Mei Lam", "name:zh": "\u7f8e\u6797", "operator": "KMB", "public_transport": "platform", "ref:hkbus": "\u7f8e\u6797\u7e3d\u7ad9", "ref:kmb": "ME02-T-0900-0", "route_ref": "283;286P;286X;288C;985", "shelter": "yes", "wikidata": "Q15924590"}}, {"type": "node", "id": 1985830891, "lat": 22.3728414, "lon": 114.1856179, "tags": {"highway": "bus_stop", "name": "\u79e6\u77f3\u90a8\u77f3\u7469\u6a13 Shek Ying House Chun Shek Estate", "name:en": "Shek Ying House Chun Shek Estate", "name:zh": "\u79e6\u77f3\u90a8\u77f3\u7469\u6a13", "ref:hkbus": "\u79e6\u77f3\u90a8\u77f3\u7469\u6a13", "ref:kmb": "SH08-N-1250-0", "route_ref": "47X;80X;81K;82K;282", "shelter": "yes"}}, {"type": "node", "id": 2041706322, "lat": 22.3729105, "lon": 114.1855584, "tags": {"highway": "bus_stop", "name": "\u79e6\u77f3\u90a8\u77f3\u7469\u6a13 Shek Ying House Chun Shek Estate", "name:en": "Shek Ying House Chun Shek Estate", "name:zh": "\u79e6\u77f3\u90a8\u77f3\u7469\u6a13", "ref:hkbus": "\u79e6\u77f3\u90a8\u77f3\u7469\u6a13", "ref:kmb": "SH08-N-1300-0", "route_ref": "82K;85B;87B;281;281M", "shelter": "yes"}}, {"type": "node", "id": 2041706325, "lat": 22.3734513, "lon": 114.1855449, "tags": {"highway": "bus_stop", "name": "\u79e6\u77f3\u90a8\u77f3\u7469\u6a13 Shek Ying House Chun Shek Estate", "name:en": "Shek Ying House Chun Shek Estate", "name:zh": "\u79e6\u77f3\u90a8\u77f3\u7469\u6a13", "ref:hkbus": "\u79e6\u77f3\u90a8\u77f3\u7469\u6a13", "ref:kmb": "SH08-S-1000-0", "route_ref": "47X;80X;81K;82K;85B;87B;281;281M;282", "shelter": "yes"}}, {"type": "node", "id": 2041816389, "lat": 22.3743359, "lon": 114.1839927, "tags": {"bus": "yes", "highway": "bus_stop", "name": "\u8eca\u516c\u5edf Che Kung Miu", "name:en": "Che Kung Miu", "name:zh": "\u8eca\u516c\u5edf", "name:zh-Hans": "\u8f66\u516c\u5e99", "public_transport": "platform", "ref:hkbus": "\u8eca\u516c\u5edf", "ref:kmb": "CH07-S-1175-2", "route_ref": "E42;E42C;E42P;N42;R42;NA41"}}, {"type": "node", "id": 2041816394, "lat": 22.3743364, "lon": 114.1840242, "tags": {"bus": "yes", "highway": "bus_stop", "name": "\u8eca\u516c\u5edf Che Kung Miu", "name:en": "Che Kung Miu", "name:zh": "\u8eca\u516c\u5edf", "name:zh-Hans": "\u8f66\u516c\u5e99", "public_transport": "platform", "ref:hkbus": "\u8eca\u516c\u5edf", "ref:kmb": "CH07-S-1150-0", "route_ref": "85B;86A;89B;281M", "shelter": "yes"}}, {"type": "node", "id": 2041816399, "lat": 22.37435, "lon": 114.1841303, "tags": {"bus": "yes", "highway": "bus_stop", "name": "\u8eca\u516c\u5edf Che Kung Miu", "name:en": "Che Kung Miu", "name:zh": "\u8eca\u516c\u5edf", "name:zh-Hans": "\u8f66\u516c\u5e99", "public_transport": "platform", "ref:hkbus": "\u8eca\u516c\u5edf", "ref:kmb": "CH07-S-1100-0", "route_ref": "81C;82K;87B;170;182;249X;281;281B;287P;287X;982X;N170;N182;N281", "shelter": "yes"}}, {"type": "node", "id": 2041839600, "lat": 22.3746249, "lon": 114.1840902, "tags": {"bus": "yes", "highway": "bus_stop", "name": "\u8eca\u516c\u5edf Che Kung Miu", "name:en": "Che Kung Miu", "name:zh": "\u8eca\u516c\u5edf", "name:zh-Hans": "\u8f66\u516c\u5e99", "public_transport": "platform", "ref:hkbus": "\u8eca\u516c\u5edf", "ref:kmb": "CH07-N-1200-0", "route_ref": "87B;281", "shelter": "yes"}}, {"type": "node", "id": 2041839601, "lat": 22.3746326, "lon": 114.1841807, "tags": {"bus": "yes", "highway": "bus_stop", "name": "\u8eca\u516c\u5edf Che Kung Miu", "name:en": "Che Kung Miu", "name:zh": "\u8eca\u516c\u5edf", "name:zh-Hans": "\u8f66\u516c\u5e99", "public_transport": "platform", "ref:hkbus": "\u8eca\u516c\u5edf", "ref:kmb": "CH07-N-1250-0", "route_ref": "81C;82K;86A;89B;170;182;182X;249X;286A;287X;982X;N170;N182;N281;T80", "shelter": "yes"}}, {"type": "node", "id": 2041839602, "lat": 22.3746335, "lon": 114.1842103, "tags": {"bus": "yes", "highway": "bus_stop", "name": "\u8eca\u516c\u5edf Che Kung Miu", "name:en": "Che Kung Miu", "name:zh": "\u8eca\u516c\u5edf", "name:zh-Hans": "\u8f66\u516c\u5e99", "public_transport": "platform", "ref:hkbus": "\u8eca\u516c\u5edf", "ref:kmb": "CH07-N-1275-2", "route_ref": "E42;E42C;E42P;N42;R42;NA41"}}, {"type": "node", "id": 2043956560, "lat": 22.376615, "lon": 114.1743464, "tags": {"bus": "yes", "highway": "bus_stop", "name": "\u7f8e\u8f1d\u8857 Mei Fai Street", "name:en": "Mei Fai Street", "name:zh": "\u7f8e\u8f1d\u8857", "operator": "\u4e5d\u5df4 KMB", "public_transport": "platform", "ref:hkbus": "\u7f8e\u8f1d\u8857", "ref:kmb": "ME04-N-1000-0", "route_ref": "81;82K:283;286X"}}, {"type": "node", "id": 2051466620, "lat": 22.3721783, "lon": 114.1780169, "tags": {"bus": "yes", "highway": "bus_stop", "name": "\u7a4d\u904b\u8857 Chik Wan Street", "name:en": "Chik Wan Street", "name:zh": "\u7a4d\u904b\u8857", "public_transport": "platform", "ref:hkbus": "\u7a4d\u904b\u8857", "ref:kmb": "ME02-W-1000-0"}}, {"type": "node", "id": 2051466623, "lat": 22.3733486, "lon": 114.1770408, "tags": {"bus": "yes", "highway": "bus_stop", "name": "\u6d77\u798f\u82b1\u5712 Holford Garden", "name:en": "Holford Garden", "name:zh": "\u6d77\u798f\u82b1\u5712", "public_transport": "platform", "ref:hkbus": "\u6d77\u798f\u82b1\u5712", "ref:kmb": "ME02-W-1200-0", "route_ref": "46S;46X", "shelter": "yes"}}, {"type": "node", "id": 2051466624, "lat": 22.3748523, "lon": 114.1759012, "tags": {"bus": "yes", "highway": "bus_stop", "name": "\u7a4d\u8f1d\u8857 Chik Fai Street", "name:en": "Chik Fai Street", "name:zh": "\u7a4d\u8f1d\u8857", "public_transport": "platform", "ref:hkbus": "\u7a4d\u8f1d\u8857", "ref:kmb": "ME02-W-1235-0", "route_ref": "72A;80K;81;286X;288C"}}, {"type": "node", "id": 2051466625, "lat": 22.373284, "lon": 114.1770925, "tags": {"bus": "yes", "highway": "bus_stop", "name": "\u6d77\u798f\u82b1\u5712 Holford Garden", "name:en": "Holford Garden", "name:zh": "\u6d77\u798f\u82b1\u5712", "public_transport": "platform", "ref:hkbus": "\u6d77\u798f\u82b1\u5712", "ref:kmb": "ME02-W-1175-2", "route_ref": "E42;E42C;E42P;N42;NA41"}}, {"type": "node", "id": 2051466627, "lat": 22.3734341, "lon": 114.1769725, "tags": {"bus": "yes", "highway": "bus_stop", "name": "\u6d77\u798f\u82b1\u5712 Holford Garden", "name:en": "Holford Garden", "name:zh": "\u6d77\u798f\u82b1\u5712", "public_transport": "platform", "ref:hkbus": "\u6d77\u798f\u82b1\u5712", "ref:kmb": "ME02-W-1230-0", "route_ref": "80K;85;88;88K;288C"}}, {"type": "node", "id": 2051466630, "lat": 22.3732599, "lon": 114.1771119, "tags": {"bus": "yes", "highway": "bus_stop", "name": "\u6d77\u798f\u82b1\u5712 Holford Garden", "name:en": "Holford Garden", "name:zh": "\u6d77\u798f\u82b1\u5712", "public_transport": "platform", "ref:hkbus": "\u6d77\u798f\u82b1\u5712", "ref:kmb": "ME02-W-1150-0", "route_ref": "72A;80;82K;286X;985", "shelter": "yes"}}, {"type": "node", "id": 2052392452, "lat": 22.3702378, "lon": 114.1796243, "tags": {"bus": "yes", "highway": "bus_stop", "local_ref": "C2", "name": "\u65b0\u7fe0\u90a8 Sun Chui Estate", "name:en": "Sun Chui Estate", "name:zh": "\u65b0\u7fe0\u90a8", "public_transport": "platform", "ref:hkbus": "\u65b0\u7fe0\u90a8", "ref:kmb": "HU02-W-1100-0", "route_ref": "82K;85;88K;170;182;182X;286X;N170;N182", "shelter": "yes"}}, {"type": "node", "id": 2052392453, "lat": 22.3690918, "lon": 114.1791684, "tags": {"bus": "yes", "highway": "bus_stop", "name": "\u9686\u4ea8\u90a8 Lung Hang Estate", "name:en": "Lung Hang Estate", "name:zh": "\u9686\u4ea8\u90a8", "public_transport": "platform", "ref:hkbus": "\u9686\u4ea8\u90a8", "ref:kmb": "TI04-N-1150-0", "route_ref": "80;80A;80P;82K;88K;985;985B;A42;T80", "shelter": "yes"}}, {"type": "node", "id": 2052392454, "lat": 22.3684536, "lon": 114.1781129, "tags": {"bus": "yes", "highway": "bus_stop", "name": "\u9686\u4ea8\u90a8 Lung Hang Estate", "name:en": "Lung Hang Estate", "name:zh": "\u9686\u4ea8\u90a8", "operator": "\u4e5d\u5df4 KMB", "public_transport": "platform", "ref:hkbus": "\u9686\u4ea8\u90a8", "ref:kmb": "TI04-S-1000-0", "route_ref": "80;82K;85B;87B;281M;N281", "shelter": "yes"}}, {"type": "node", "id": 2052392455, "lat": 22.3675691, "lon": 114.1749665, "tags": {"bus": "yes", "highway": "bus_stop", "name": "\u986f\u8000\u90a8 Hin Yiu Estate", "name:en": "Hin Yiu Estate", "name:zh": "\u986f\u8000\u90a8", "ref:hkbus": "\u986f\u8000\u90a8", "ref:kmb": "TI04-N-0950-0", "route_ref": "286X"}}, {"type": "node", "id": 2052392456, "lat": 22.3690432, "lon": 114.1790554, "tags": {"bus": "yes", "highway": "bus_stop", "name": "\u9686\u4ea8\u90a8 Lung Hang Estate", "name:en": "Lung Hang Estate", "name:zh": "\u9686\u4ea8\u90a8", "public_transport": "platform", "ref:hkbus": "\u9686\u4ea8\u90a8", "ref:kmb": "TI04-N-1100-0", "route_ref": "46S;46X;N281", "shelter": "yes"}}, {"type": "node", "id": 2052392459, "lat": 22.3689492, "lon": 114.1788128, "tags": {"bus": "yes", "highway": "bus_stop", "name": "\u9686\u4ea8\u90a8 Lung Hang Estate", "name:en": "Lung Hang Estate", "name:zh": "\u9686\u4ea8\u90a8", "operator": "kmb", "public_transport": "platform", "ref:hkbus": "\u9686\u4ea8\u90a8", "ref:kmb": "TI04-N-1000-0", "route_ref": "85B;281M", "shelter": "yes"}}, {"type": "node", "id": 2052392460, "lat": 22.3701583, "lon": 114.1796849, "tags": {"bus": "yes", "highway": "bus_stop", "local_ref": "C3", "name": "\u65b0\u7fe0\u90a8 Sun Chui Estate", "name:en": "Sun Chui Estate", "name:zh": "\u65b0\u7fe0\u90a8", "public_transport": "platform", "ref:hkbus": "\u65b0\u7fe0\u90a8", "ref:kmb": "HU02-W-1050-0", "route_ref": "86A;89B;286A;T80", "shelter": "yes"}}, {"type": "node", "id": 2052392461, "lat": 22.3703385, "lon": 114.1799148, "tags": {"bus": "yes", "highway": "bus_stop", "local_ref": "B1", "name": "\u65b0\u7fe0\u90a8 Sun Chui Estate", "name:en": "Sun Chui Estate", "name:zh": "\u65b0\u7fe0\u90a8", "public_transport": "platform", "ref:hkbus": "\u65b0\u7fe0\u90a8", "ref:kmb": "HU02-E-1150-0", "route_ref": "80;85", "shelter": "yes"}}, {"type": "node", "id": 2052392462, "lat": 22.3689915, "lon": 114.1789345, "tags": {"bus": "yes", "highway": "bus_stop", "name": "\u9686\u4ea8\u90a8 Lung Hang Estate", "name:en": "Lung Hang Estate", "name:zh": "\u9686\u4ea8\u90a8", "public_transport": "platform", "ref:hkbus": "\u9686\u4ea8\u90a8", "ref:kmb": "TI04-N-1050-0", "route_ref": "81S;87B;286X", "shelter": "yes"}}, {"type": "node", "id": 2052392463, "lat": 22.367236, "lon": 114.1754559, "tags": {"bus": "yes", "highway": "bus_stop", "name": "\u986f\u8000\u90a8 Hin Yiu Estate", "name:en": "Hin Yiu Estate", "name:zh": "\u986f\u8000\u90a8", "operator": "\u4e5d\u5df4 KMB", "public_transport": "platform", "ref:hkbus": "\u986f\u8000\u90a8", "ref:kmb": "TI04-S-1050-0", "route_ref": "82K;286X", "shelter": "yes"}}, {"type": "node", "id": 2052392464, "lat": 22.3703162, "lon": 114.1795627, "tags": {"bus": "yes", "highway": "bus_stop", "local_ref": "C1", "name": "\u65b0\u7fe0\u90a8 Sun Chui Estate", "name:en": "Sun Chui Estate", "name:zh": "\u65b0\u7fe0\u90a8", "public_transport": "platform", "ref:hkbus": "\u65b0\u7fe0\u90a8", "ref:kmb": "HU02-W-1150-0", "route_ref": "46S;16X;81C", "shelter": "yes"}}, {"type": "node", "id": 2052392465, "lat": 22.3705998, "lon": 114.1796776, "tags": {"bus": "yes", "highway": "bus_stop", "local_ref": "B4", "name": "\u65b0\u7fe0\u90a8 Sun Chui Estate", "name:en": "Sun Chui Estate", "name:zh": "\u65b0\u7fe0\u90a8", "public_transport": "platform", "ref:hkbus": "\u65b0\u7fe0\u90a8", "ref:kmb": "HU02-E-1100-0", "route_ref": "81C;87B;281B", "shelter": "yes"}}, {"type": "node", "id": 2052392466, "lat": 22.370404, "lon": 114.1798627, "tags": {"bus": "yes", "highway": "bus_stop", "local_ref": "B2", "name": "\u65b0\u7fe0\u90a8 Sun Chui Estate", "name:en": "Sun Chui Estate", "name:zh": "\u65b0\u7fe0\u90a8", "public_transport": "platform", "ref:hkbus": "\u65b0\u7fe0\u90a8", "ref:kmb": "HU02-E-1150-0", "route_ref": "89B", "shelter": "yes"}}, {"type": "node", "id": 2052392469, "lat": 22.3736874, "lon": 114.1771623, "tags": {"bus": "yes", "highway": "bus_stop", "name": "\u5927\u570d\u8857\u5e02 Tai Wai Market", "name:en": "Tai Wai Market", "name:zh": "\u5927\u570d\u8857\u5e02", "network": "\u9f8d\u904b\u6a5f\u5834\u5df4\u58eb Long Win Bus", "network:en": "Long Win Bus", "network:short": "LBW", "network:wikidata": "Q6673423", "network:yue": "\u9f8d\u904b\u6a5f\u5834\u5df4\u58eb", "public_transport": "platform", "ref:hkbus": "\u5927\u570d\u8857\u5e02", "ref:kmb": "ME02-E-1075-2", "route_ref": "E42;E42C;E42P;N42;NA41"}}, {"type": "node", "id": 2052392470, "lat": 22.3704632, "lon": 114.179808, "tags": {"bus": "yes", "highway": "bus_stop", "local_ref": "B3", "name": "\u65b0\u7fe0\u90a8 Sun Chui Estate", "name:en": "Sun Chui Estate", "name:zh": "\u65b0\u7fe0\u90a8", "public_transport": "platform", "ref:hkbus": "\u65b0\u7fe0\u90a8", "ref:kmb": "HU02-E-1150-0", "route_ref": "170;182;N170;N182", "shelter": "yes"}}, {"type": "node", "id": 2052392472, "lat": 22.3708551, "lon": 114.1794199, "tags": {"bus": "yes", "highway": "bus_stop", "local_ref": "B5", "name": "\u65b0\u7fe0\u90a8 Sun Chui Estate", "name:en": "Sun Chui Estate", "name:zh": "\u65b0\u7fe0\u90a8", "public_transport": "platform", "ref:hkbus": "\u65b0\u7fe0\u90a8", "ref:kmb": "HU02-E-1000-0", "route_ref": "46S;46X;88K;286X;985", "shelter": "yes"}}, {"type": "node", "id": 2052393046, "lat": 22.3738221, "lon": 114.1770516, "tags": {"bus": "yes", "highway": "bus_stop", "name": "\u5927\u570d\u8857\u5e02 Tai Wai Market", "name:en": "Tai Wai Market", "name:zh": "\u5927\u570d\u8857\u5e02", "public_transport": "platform", "ref:hkbus": "\u5927\u570d\u8857\u5e02", "ref:kmb": "ME02-E-1000-0", "route_ref": "80;80A;85;T80", "shelter": "yes"}}, {"type": "node", "id": 2052393047, "lat": 22.3737194, "lon": 114.177136, "tags": {"bus": "yes", "highway": "bus_stop", "name": "\u5927\u570d\u8857\u5e02 Tai Wai Market", "name:en": "Tai Wai Market", "name:zh": "\u5927\u570d\u8857\u5e02", "public_transport": "platform", "ref:hkbus": "\u5927\u570d\u8857\u5e02", "ref:kmb": "ME02-E-1050-0", "route_ref": "46S;46X;72A;80K;81S;82B;82K;88;88K;286P;286X;288C;985;985A", "shelter": "yes"}}, {"type": "node", "id": 2052395821, "lat": 22.3688478, "lon": 114.1750308, "tags": {"bus": "yes", "highway": "bus_stop", "name": "\u540d\u57ce Festival City", "name:en": "Festival City", "name:zh": "\u540d\u57ce", "operator": "\u4e5d\u5df4 KMB", "public_transport": "platform", "ref:hkbus": "\u540d\u57ce", "ref:kmb": "CH07-N-1050-0", "route_ref": "80;82K;85B;87B;281M;288C;985;N281"}}, {"type": "node", "id": 2052395825, "lat": 22.3708113, "lon": 114.1780285, "tags": {"bus": "yes", "highway": "bus_stop", "local_ref": "D2", "name": "\u7530\u5fc3\u6751 Tin Sam Village", "name:en": "Tin Sam Village", "name:zh": "\u7530\u5fc3\u6751", "public_transport": "platform", "ref:hkbus": "\u7530\u5fc3\u6751 (\u8eca\u516c\u5edf\u8def)", "ref:kmb": "CH07-S-1300-0", "route_ref": "82K;85B;249X;281M", "shelter": "yes"}}, {"type": "node", "id": 2052395828, "lat": 22.3706983, "lon": 114.1778668, "tags": {"bus": "yes", "highway": "bus_stop", "local_ref": "D1", "name": "\u7530\u5fc3\u6751 Tin Sam Village", "name:en": "Tin Sam Village", "name:zh": "\u7530\u5fc3\u6751", "public_transport": "platform", "ref:hkbus": "\u7530\u5fc3\u6751 (\u8eca\u516c\u5edf\u8def)", "ref:kmb": "CH07-S-1350-0", "route_ref": "80;80A;81S;87B;286P;287P;287X;288C;982X;985;985A;985B;N281", "shelter": "yes"}}, {"type": "node", "id": 2052395830, "lat": 22.3725768, "lon": 114.1803043, "tags": {"bus": "yes", "highway": "bus_stop", "local_ref": "F2", "name": "\u5927\u570d\u7ad9 Tai Wai Railway Station", "name:en": "Tai Wai Station", "name:zh": "\u5927\u570d\u7ad9", "operator": "LWB", "public_transport": "platform", "ref:hkbus": "\u5927\u570d\u7ad9 (\u8eca\u516c\u5edf\u8def)", "ref:kmb": "CH07-N-1125-2", "route_ref": "A41;E42;E42C;E42P;N42;NA41"}}, {"type": "node", "id": 2052395832, "lat": 22.368676, "lon": 114.1752693, "tags": {"bus": "yes", "highway": "bus_stop", "name": "\u96f2\u53e0\u82b1\u5712 Carado Garden", "name:en": "Carado Garden", "name:zh": "\u96f2\u53e0\u82b1\u5712", "public_transport": "platform", "ref:hkbus": "\u96f2\u53e0\u82b1\u5712", "ref:kmb": "CH07-S-1450-0", "route_ref": "80;80A;81S;87B;288C;985;985B;N281"}}, {"type": "node", "id": 2052395833, "lat": 22.3726476, "lon": 114.1804132, "tags": {"bus": "yes", "highway": "bus_stop", "local_ref": "F1", "name": "\u5927\u570d\u7ad9 Tai Wai Station", "name:en": "Tai Wai Station", "name:zh": "\u5927\u570d\u7ad9", "operator": "KMB", "public_transport": "platform", "ref:hkbus": "\u5927\u570d\u7ad9 (\u8eca\u516c\u5edf\u8def)", "ref:kmb": "CH07-N-1150-0", "route_ref": "81C;82K;85B;86A;87B;89B;170;182;182X;249X;286A;287X;982X;N170;N182;N281;T80", "shelter": "yes"}}, {"type": "node", "id": 2640394131, "lat": 22.3743361, "lon": 114.1840051, "tags": {"bus": "yes", "highway": "bus_stop", "name": "\u8eca\u516c\u5edf Che Kung Miu", "name:en": "Che Kung Miu", "name:zh": "\u8eca\u516c\u5edf", "name:zh-Hans": "\u8f66\u516c\u5e99", "public_transport": "platform"}}, {"type": "node", "id": 2666815503, "lat": 22.3778123, "lon": 114.1811582, "tags": {"bus": "yes", "highway": "bus_stop", "name": "\u677e\u5dba\u8def Chung Ling Road", "name:en": "Chung Ling Road", "name:zh": "\u677e\u5dba\u8def", "public_transport": "platform", "ref:hkbus": "\u677e\u5dba\u8def", "ref:kmb": "CH25-E-1000-0", "shelter": "yes"}}, {"type": "node", "id": 2666815523, "lat": 22.3769546, "lon": 114.1717931, "tags": {"bus": "yes", "highway": "bus_stop", "name": "\u7f8e\u81f4\u6a13 Mei Chi House", "name:en": "Mei Chi House", "name:zh": "\u7f8e\u81f4\u6a13", "network": "KMB", "network:wikidata": "Q312243", "operator": "\u4e5d\u5df4 KMB", "operator:en": "KMB", "operator:wikidata": "Q312243", "operator:zh": "\u4e5d\u5df4", "public_transport": "platform", "ref:hkbus": "\u7f8e\u81f4\u6a13", "ref:kmb": "HE05-E-1000-0", "route_ref": "80;80A;283;985;985A;T80"}}, {"type": "node", "id": 2666815524, "lat": 22.3763191, "lon": 114.17624, "tags": {"bus": "yes", "highway": "bus_stop", "name": "\u7f8e\u6797\u90a8\u7f8e\u6953\u6a13 Mei Fung House Mei Lam Estate", "name:en": "Mei Fung House Mei Lam Estate", "name:zh": "\u7f8e\u6797\u90a8\u7f8e\u6953\u6a13", "public_transport": "platform", "ref:hkbus": "\u7f8e\u6797\u90a8\u7f8e\u6953\u6a13", "ref:kmb": "TA24-E-1000-0", "shelter": "yes"}}, {"type": "node", "id": 2666815525, "lat": 22.3771838, "lon": 114.1785472, "tags": {"bus": "yes", "highway": "bus_stop", "name": "\u7f8e\u6797\u90a8 Mei Lam Estate", "name:en": "Mei Lam Estate", "name:zh": "\u7f8e\u6797\u90a8", "public_transport": "platform", "ref:hkbus": "\u7f8e\u6797\u90a8", "ref:kmb": "TA21-S-2150-0", "route_ref": "72A;85;283;288C"}}, {"type": "node", "id": 2666815526, "lat": 22.3771876, "lon": 114.1785573, "tags": {"bus": "yes", "highway": "bus_stop", "name": "\u7f8e\u6797\u90a8 Mei Lam Estate", "name:en": "Mei Lam Estate", "name:zh": "\u7f8e\u6797\u90a8", "public_transport": "platform", "ref:hkbus": "\u7f8e\u6797\u90a8", "ref:kmb": "TA21-S-2100-0", "route_ref": "81", "shelter": "yes"}}, {"type": "node", "id": 2666815527, "lat": 22.3772055, "lon": 114.1786459, "tags": {"bus": "yes", "highway": "bus_stop", "name": "\u7f8e\u6797\u90a8 Mei Lam Estate", "name:en": "Mei Lam Estate", "name:zh": "\u7f8e\u6797\u90a8", "public_transport": "platform", "ref:hkbus": "\u7f8e\u6797\u90a8", "ref:kmb": "TA21-S-2050-0", "route_ref": "80K;88;88K", "shelter": "yes"}}, {"type": "node", "id": 2666815528, "lat": 22.3774568, "lon": 114.1786618, "tags": {"bench": "yes", "bus": "yes", "highway": "bus_stop", "name": "\u7f8e\u6843\u6a13 Mei Tao House", "name:en": "Mei Tao House", "name:zh": "\u7f8e\u6843\u6a13", "public_transport": "platform", "ref:hkbus": "\u7f8e\u6843\u6a13", "ref:kmb": "TA21-N-1790-0", "route_ref": "72;72A;81", "shelter": "yes"}}, {"type": "node", "id": 2666815529, "lat": 22.377466, "lon": 114.1788264, "tags": {"bench": "yes", "bus": "yes", "highway": "bus_stop", "name": "\u7f8e\u6843\u6a13 Mei Tao House", "name:en": "Mei Tao House", "name:zh": "\u7f8e\u6843\u6a13", "public_transport": "platform", "ref:hkbus": "\u7f8e\u6843\u6a13", "ref:kmb": "TA21-N-1800-0", "route_ref": "80K;85;88;88K;283;288C", "shelter": "yes"}}, {"type": "node", "id": 2666815530, "lat": 22.3774764, "lon": 114.1789393, "tags": {"bus": "yes", "highway": "bus_stop", "name": "\u7f8e\u6843\u6a13 Mei Tao House", "name:en": "Mei Tao House", "name:zh": "\u7f8e\u6843\u6a13", "public_transport": "platform", "ref:hkbus": "\u7f8e\u6843\u6a13", "ref:kmb": "TA21-N-1850-0", "route_ref": "81", "shelter": "yes"}}, {"type": "node", "id": 2666815531, "lat": 22.371228, "lon": 114.1827136, "tags": {"bus": "yes", "highway": "bus_stop", "name": "\u65b0\u7530\u6751 San Tin Village", "name:en": "San Tin Village", "name:zh": "\u65b0\u7530\u6751", "public_transport": "platform", "ref:hkbus": "\u65b0\u7530\u6751", "ref:kmb": "CH18-E-1000-0", "shelter": "yes"}}, {"type": "node", "id": 2666815534, "lat": 22.3712176, "lon": 114.1825436, "tags": {"highway": "bus_stop", "name": "\u65b0\u7530\u6751 San Tin Village", "name:en": "San Tin Village", "name:zh": "\u65b0\u7530\u6751", "ref:hkbus": "\u65b0\u7530\u6751", "ref:kmb": "CH18-W-1000-0", "shelter": "yes"}}, {"type": "node", "id": 2666815537, "lat": 22.3711367, "lon": 114.1744096, "tags": {"highway": "bus_stop", "name": "\u6c99\u7530\u5dba\u8def Sha Tin Heights Road", "name:en": "Sha Tin Heights Road", "name:zh": "\u6c99\u7530\u5dba\u8def", "ref:hkbus": "\u6c99\u7530\u5dba\u8def", "ref:kmb": "TA21-S-2250-0", "shelter": "yes"}}, {"type": "node", "id": 2666815541, "lat": 22.3681641, "lon": 114.1706351, "tags": {"bus": "yes", "highway": "bus_stop", "name": "\u6c99\u7530\u82b1\u5712 Shatin Heights", "name:en": "Shatin Heights", "name:zh": "\u6c99\u7530\u82b1\u5712", "public_transport": "platform", "ref:hkbus": "\u6c99\u7530\u82b1\u5712", "ref:kmb": "TA21-S-2300-0"}}, {"type": "node", "id": 2666815542, "lat": 22.3690833, "lon": 114.1711185, "tags": {"bus": "yes", "highway": "bus_stop", "name": "\u6c99\u7530\u82b1\u5712 Shatin Heights", "name:en": "Shatin Heights", "name:zh": "\u6c99\u7530\u82b1\u5712", "public_transport": "platform", "ref:hkbus": "\u6c99\u7530\u82b1\u5712", "ref:kmb": "TA21-N-1600-0", "shelter": "yes"}}, {"type": "node", "id": 2666815545, "lat": 22.3720943, "lon": 114.180089, "tags": {"fixme": "yes", "highway": "bus_stop", "local_ref": "A1", "name": "\u65b0\u7fe0\u90a8\u65b0\u660e\u6a13 Sun Ming House Sun Chui Estate", "name:en": "Sun Ming House Sun Chui Estate", "name:zh": "\u65b0\u7fe0\u90a8\u65b0\u660e\u6a13", "ref:hkbus": "\u65b0\u7fe0\u90a8\u65b0\u660e\u6a13", "ref:kmb": "CH07-S-1200-0", "route_ref": "82K;86A;87B;281;286A;287P;287X;982X", "shelter": "yes"}}, {"type": "node", "id": 2666815546, "lat": 22.3721302, "lon": 114.1801584, "tags": {"fixme": "yes", "highway": "bus_stop", "local_ref": "A2", "name": "\u65b0\u7fe0\u90a8\u65b0\u660e\u6a13 Sun Ming House Sun Chui Estate", "name:en": "Sun Ming House Sun Chui Estate", "name:zh": "\u65b0\u7fe0\u90a8\u65b0\u660e\u6a13", "ref:hkbus": "\u65b0\u7fe0\u90a8\u65b0\u660e\u6a13", "ref:kmb": "CH07-S-1185-2", "route_ref": "A41;E42;E42C;E42P;N42;NA41;R42"}}, {"type": "node", "id": 2666815547, "lat": 22.3721399, "lon": 114.1801794, "tags": {"fixme": "yes", "highway": "bus_stop", "local_ref": "A2", "name": "\u65b0\u7fe0\u90a8\u65b0\u660e\u6a13 Sun Ming House Sun Chui Estate", "name:en": "Sun Ming House Sun Chui Estate", "name:zh": "\u65b0\u7fe0\u90a8\u65b0\u660e\u6a13", "ref:hkbus": "\u65b0\u7fe0\u90a8\u65b0\u660e\u6a13", "ref:kmb": "CH07-S-1170-0", "route_ref": "85B;249X;N281", "shelter": "yes"}}, {"type": "node", "id": 2666815556, "lat": 22.3758836, "lon": 114.1763191, "tags": {"bus": "yes", "highway": "bus_stop", "name": "\u5927\u570d\u9053 Tai Wai Road", "name:en": "Tai Wai Road", "name:zh": "\u5927\u570d\u9053", "public_transport": "platform", "ref:hkbus": "\u5927\u570d\u9053", "ref:kmb": "TA24-W-1100-0", "route_ref": "46P;46S;46X"}}, {"type": "node", "id": 2666815557, "lat": 22.3758974, "lon": 114.1763308, "tags": {"bus": "yes", "highway": "bus_stop", "name": "\u5927\u570d\u9053 Tai Wai Road", "name:en": "Tai Wai Road", "name:zh": "\u5927\u570d\u9053", "public_transport": "platform", "ref:hkbus": "\u5927\u570d\u9053", "ref:kmb": "TA24-W-1075-2", "route_ref": "E42;E42C;E42P;N42"}}, {"type": "node", "id": 2666815558, "lat": 22.3762496, "lon": 114.1761721, "tags": {"bus": "yes", "highway": "bus_stop", "name": "\u5927\u570d\u9053 Tai Wai Road", "name:en": "Tai Wai Road", "name:zh": "\u5927\u570d\u9053", "public_transport": "platform", "ref:hkbus": "\u7f8e\u6797\u90a8\u7f8e\u6953\u6a13", "ref:kmb": "TA24-E-0980-2"}}, {"type": "node", "id": 2666815566, "lat": 22.3771394, "lon": 114.1806716, "tags": {"bus": "yes", "highway": "bus_stop", "name": "\u9285\u947c\u7063\u6751 Tung Lo Wan Village", "name:en": "Tung Lo Wan Village", "name:zh": "\u9285\u947c\u7063\u6751", "operator": "\u4e5d\u5df4 KMB", "public_transport": "platform", "ref:hkbus": "\u9285\u947c\u7063\u6751", "ref:kmb": "TA21-S-2000-0", "route_ref": "80K;85;88;88K"}}, {"type": "node", "id": 2666815567, "lat": 22.377433, "lon": 114.1815515, "tags": {"bus": "yes", "highway": "bus_stop", "name": "\u9285\u947c\u7063\u6751 Tung Lo Wan Village", "name:en": "Tung Lo Wan Village", "name:zh": "\u9285\u947c\u7063\u6751", "public_transport": "platform", "ref:hkbus": "\u9285\u947c\u7063\u6751", "ref:kmb": "TA21-N-1900-0", "route_ref": "72;72A;80K;81;85;88;88K"}}, {"type": "node", "id": 3035866981, "lat": 22.3753684, "lon": 114.1775752, "tags": {"bus": "yes", "highway": "bus_stop", "name": "\u7a4d\u5fb7\u91cc Chik Tak Lane", "name:en": "Chik Tak Lane", "name:zh": "\u7a4d\u5fb7\u91cc", "public_transport": "platform", "ref:hkbus": "\u7a4d\u5fb7\u91cc", "ref:kmb": "TA24-W-1050-0", "route_ref": "80"}}, {"type": "node", "id": 3035867013, "lat": 22.37926, "lon": 114.1737616, "tags": {"bus": "yes", "highway": "bus_stop", "name": "\u7f8e\u57ce\u82d1 May Shing Court", "name:en": "May Shing Court", "name:zh": "\u7f8e\u57ce\u82d1", "operator": "\u4e5d\u5df4 KMB", "ref:hkbus": "\u7f8e\u57ce\u82d1", "ref:kmb": "ME02-E-0500-0", "route_ref": "46P;81S;283;286P;288C;985;985A", "shelter": "yes"}}, {"type": "node", "id": 3035867014, "lat": 22.380142, "lon": 114.1737998, "tags": {"bus": "yes", "highway": "bus_stop", "name": "\u7f8e\u677e\u82d1 Mei Chung Court", "name:en": "Mei Chung Court", "name:zh": "\u7f8e\u677e\u82d1", "operator": "\u4e5d\u5df4 KMB", "ref:hkbus": "\u7f8e\u677e\u82d1 (\u7f8e\u7530\u8def)", "ref:kmb": "ME02-W-1250-0", "route_ref": "46P;81S;283;286P;985;985A", "shelter": "yes"}}, {"type": "node", "id": 3035867015, "lat": 22.3801117, "lon": 114.1760235, "tags": {"bus": "yes", "highway": "bus_stop", "name": "\u7f8e\u69d0\u6a13 Mei Wai House", "name:en": "Mei Wai House", "name:zh": "\u7f8e\u69d0\u6a13", "operator": "KMB", "public_transport": "platform", "ref:hkbus": "\u7f8e\u69d0\u6a13", "ref:kmb": "ME02-E-0200-0", "route_ref": "46P;81S;283;286P;288C;985;985A", "shelter": "yes"}}, {"type": "node", "id": 3559147157, "lat": 22.3772343, "lon": 114.1730009, "tags": {"bus": "yes", "highway": "bus_stop", "name": "\u7f8e\u5168\u6a13 Mei Chuen House", "name:en": "Mei Chuen House", "name:zh": "\u7f8e\u5168\u6a13", "public_transport": "platform", "ref:hkbus": "\u7f8e\u5168\u6a13", "ref:kmb": "HE05-W-1000-0", "route_ref": "46P;80;283;286X;985"}}, {"type": "node", "id": 3716615361, "lat": 22.3744463, "lon": 114.1700641, "tags": {"highway": "bus_stop"}}, {"type": "node", "id": 4956420008, "lat": 22.3775292, "lon": 114.1718896, "tags": {"bench": "no", "bus": "yes", "highway": "bus_stop", "network": "63B", "operator": "\u9999\u6e2f\u5c0f\u5df4 Hong Kong Minibus", "public_transport": "platform", "shelter": "no"}}, {"type": "node", "id": 6170756050, "lat": 22.3777752, "lon": 114.1748811, "tags": {"bench": "no", "bus": "yes", "highway": "bus_stop", "name": "\u7f8e\u6797 Mei Lam", "name:en": "Mei Lam", "name:zh": "\u7f8e\u6797", "operator": "KMB", "public_transport": "platform", "ref:hkbus": "\u7f8e\u6797\u7e3d\u7ad9", "ref:kmb": "ME02-T-1100-0", "route_ref": "80A;T80", "shelter": "yes"}}, {"type": "node", "id": 6702244367, "lat": 22.3777445, "lon": 114.1749261, "tags": {"bench": "no", "bus": "yes", "highway": "bus_stop", "name": "\u7f8e\u6797 Mei Lam", "name:en": "Mei Lam", "name:zh": "\u7f8e\u6797", "operator": "KMB", "public_transport": "platform", "ref:hkbus": "\u7f8e\u6797\u7e3d\u7ad9", "ref:kmb": "ME02-T-1050-0", "route_ref": "80", "shelter": "yes"}}, {"type": "node", "id": 7927225891, "lat": 22.3733791, "lon": 114.1783888, "tags": {"addr:street": "\u6751\u5357\u9053 Tsuen Nam Road", "addr:street:en": "Tsuen Nam Road", "addr:street:zh": "\u6751\u5357\u9053", "bus": "minibus", "highway": "bus_stop", "minibus": "yes", "name": "\u5927\u570d\u7ad9\uff08\u6751\u5357\u9053\uff09 Tai Wai Station (Tsuen Nam Road)", "name:en": "Tai Wai Station (Tsuen Nam Road)", "name:zh": "\u5927\u570d\u7ad9\uff08\u6751\u5357\u9053\uff09", "public_transport": "platform", "shelter": "separate"}}, {"type": "node", "id": 8667899533, "lat": 22.3746335, "lon": 114.1842186, "tags": {"bus": "yes", "highway": "bus_stop", "name": "\u8eca\u516c\u5edf Che Kung Miu", "name:en": "Che Kung Miu", "name:zh": "\u8eca\u516c\u5edf", "name:zh-Hans": "\u8f66\u516c\u5e99", "public_transport": "platform", "ref": "1909B", "route_ref": "79;986;B8"}}, {"type": "node", "id": 8667899534, "lat": 22.3725702, "lon": 114.1802942, "tags": {"bus": "yes", "highway": "bus_stop", "name": "\u5927\u570d\u7ad9 Tai Wai Station", "name:en": "Tai Wai Station", "name:zh": "\u5927\u570d\u7ad9", "operator": "CTB", "public_transport": "platform", "ref:ctb": "1908B", "ref:hkbus": "\u5927\u570d\u7ad9 (\u8eca\u516c\u5edf\u8def)", "route_ref": "986"}}, {"type": "node", "id": 8667899535, "lat": 22.3690578, "lon": 114.1790948, "tags": {"highway": "bus_stop", "name": "\u9686\u4ea8\u90a8 Lung Hang Estate", "name:en": "Lung Hang Estate", "name:zh": "\u9686\u4ea8\u90a8", "public_transport": "platform", "ref": "3105B", "route_ref": "986"}}, {"type": "node", "id": 8667899540, "lat": 22.3686489, "lon": 114.1752472, "tags": {"highway": "bus_stop", "name": "\u96f2\u53e0\u82b1\u5712 Carado Garden", "name:en": "Carado Garden", "name:zh": "\u96f2\u53e0\u82b1\u5712", "public_transport": "platform", "ref:ctb": "3100B", "route_ref": "986"}}, {"type": "node", "id": 8667899541, "lat": 22.3707436, "lon": 114.1779308, "tags": {"bus": "yes", "highway": "bus_stop", "name": "\u7530\u5fc3\u6751 Tin Sam Village", "name:en": "Tin Sam Village", "name:zh": "\u7530\u5fc3\u6751", "public_transport": "platform", "ref": "3099B", "route_ref": "586;587;986;989"}}, {"type": "node", "id": 8668041920, "lat": 22.3738299, "lon": 114.1770452, "tags": {"bus": "yes", "highway": "bus_stop", "name": "\u5927\u570d\u8857\u5e02 Tai Wai Market", "name:en": "Tai Wai Market", "name:zh": "\u5927\u570d\u8857\u5e02", "public_transport": "platform", "ref:ctb": "3098B", "route_ref": "798P;987;989"}}, {"type": "node", "id": 8668041921, "lat": 22.3777485, "lon": 114.1751526, "tags": {"bench": "no", "bin": "no", "bus": "yes", "highway": "bus_stop", "name": "\u7f8e\u6797\u90a8 Mei Lam Estate", "name:en": "Mei Lam Estate", "name:zh": "\u7f8e\u6797\u90a8", "operator": "CTB", "public_transport": "platform", "ref": "3095C", "ref:hkbus": "\u7f8e\u6797\u7e3d\u7ad9", "route_ref": "798P;989", "shelter": "yes"}}, {"type": "node", "id": 8668041922, "lat": 22.379234, "lon": 114.1737659, "tags": {"bus": "yes", "highway": "bus_stop", "name": "\u7f8e\u57ce\u82d1 May Shing Court", "name:en": "May Shing Court", "name:zh": "\u7f8e\u57ce\u82d1", "operator": "\u57ce\u5df4 Citybus", "public_transport": "platform", "ref:ctb": "3097B", "route_ref": "798P;989"}}, {"type": "node", "id": 8668041923, "lat": 22.3801139, "lon": 114.1760268, "tags": {"bus": "yes", "highway": "bus_stop", "name": "\u7f8e\u6797\u90a8\u7f8e\u69d0\u6a13 Mei Wai House Mei Lam Estate", "name:en": "Mei Wai House Mei Lam Estate", "name:zh": "\u7f8e\u6797\u90a8\u7f8e\u69d0\u6a13", "operator": "CTB", "public_transport": "platform", "ref:ctb": "3096B", "ref:hkbus": "\u7f8e\u69d0\u6a13", "route_ref": "989"}}, {"type": "node", "id": 8668041924, "lat": 22.3801881, "lon": 114.1738376, "tags": {"bus": "yes", "highway": "bus_stop", "name": "\u7f8e\u677e\u82d1 Mei Chung Court", "name:en": "Mei Chung Court", "name:zh": "\u7f8e\u677e\u82d1", "operator": "\u57ce\u5df4 Citybus", "public_transport": "platform", "ref:ctb": "3106B", "ref:hkbus": "\u7f8e\u677e\u82d1 (\u7f8e\u7530\u8def)", "route_ref": "798P;989"}}, {"type": "node", "id": 8668041925, "lat": 22.3771801, "lon": 114.178534, "tags": {"bus": "yes", "highway": "bus_stop", "name": "\u7f8e\u6797\u90a8 Mei Lam Estate", "name:en": "Mei Lam Estate", "name:zh": "\u7f8e\u6797\u90a8", "public_transport": "platform", "ref": "3641A", "route_ref": "798P;989"}}, {"type": "node", "id": 8668041926, "lat": 22.3771436, "lon": 114.1806556, "tags": {"bus": "yes", "highway": "bus_stop", "name": "\u9285\u947c\u7063\u6751 Tung Lo Wan Village", "name:en": "Tung Lo Wan Village", "name:zh": "\u9285\u947c\u7063\u6751", "operator": "\u57ce\u5df4 Citybus", "public_transport": "platform", "ref:ctb": "3640A", "ref:hkbus": "\u9285\u947c\u7063\u6751", "route_ref": "798P;989"}}, {"type": "node", "id": 8671079721, "lat": 22.37313, "lon": 114.1797734, "tags": {"highway": "bus_stop", "name": "\u5927\u570d\u7ad9 Tai Wai Station", "name:en": "Tai Wai Station", "name:zh": "\u5927\u570d\u7ad9", "public_transport": "platform"}}, {"type": "node", "id": 8671079722, "lat": 22.3687664, "lon": 114.1749624, "tags": {"bus": "yes", "highway": "bus_stop", "name": "\u540d\u57ce Festival City", "name:en": "Festival City", "name:zh": "\u540d\u57ce", "operator": "\u57ce\u5df4 Citybus", "public_transport": "platform", "ref:ctb": "3555B", "ref:hkbus": "\u540d\u57ce", "route_ref": "986"}}, {"type": "node", "id": 8671079726, "lat": 22.3685034, "lon": 114.1782365, "tags": {"bus": "yes", "highway": "bus_stop", "name": "\u9686\u4ea8\u90a8 Lung Hang Estate", "name:en": "Lung Hang Estate", "name:zh": "\u9686\u4ea8\u90a8", "operator": "\u57ce\u5df4 Citybus", "public_transport": "platform", "ref:ctb": "3551B", "route_ref": "987"}}, {"type": "node", "id": 8671079727, "lat": 22.3707401, "lon": 114.179555, "tags": {"bus": "yes", "highway": "bus_stop", "name": "\u65b0\u7fe0\u90a8 Sun Chui Estate", "name:en": "Sun Chui Estate", "name:zh": "\u65b0\u7fe0\u90a8", "network": "CTB", "network:wikidata": "Q5124055", "operator": "\u57ce\u5df4 Citybus", "public_transport": "platform", "ref": "1926C", "route_ref": "586;587;986"}}, {"type": "node", "id": 8671079728, "lat": 22.3743531, "lon": 114.1841547, "tags": {"bus": "yes", "highway": "bus_stop", "name": "\u8eca\u516c\u5edf Che Kung Miu", "name:en": "Che Kung Miu", "name:zh": "\u8eca\u516c\u5edf", "name:zh-Hans": "\u8f66\u516c\u5e99", "public_transport": "platform", "ref": "1912B", "route_ref": "79;986;B8"}}, {"type": "node", "id": 8671158644, "lat": 22.3774258, "lon": 114.1815321, "tags": {"bus": "yes", "highway": "bus_stop", "name": "\u9285\u947c\u7063\u6751 Tung Lo Wan Village", "name:en": "Tung Lo Wan Village", "name:zh": "\u9285\u947c\u7063\u6751", "public_transport": "platform", "ref": "3636A", "route_ref": "989"}}, {"type": "node", "id": 8671158645, "lat": 22.3774668, "lon": 114.1788448, "tags": {"bench": "yes", "bus": "yes", "highway": "bus_stop", "name": "\u7f8e\u6843\u6a13 Mei Tao House", "name:en": "Mei Tao House", "name:zh": "\u7f8e\u6843\u6a13", "public_transport": "platform", "ref:ctb": "3635A", "route_ref": "989", "shelter": "yes"}}, {"type": "node", "id": 8671158646, "lat": 22.3734251, "lon": 114.1769796, "tags": {"bus": "yes", "highway": "bus_stop", "name": "\u6d77\u798f\u82b1\u5712 Holford Garden", "name:en": "Holford Garden", "name:zh": "\u6d77\u798f\u82b1\u5712", "public_transport": "platform", "ref:ctb": "3556B", "route_ref": "798P;989"}}, {"type": "node", "id": 10978965209, "lat": 22.3744271, "lon": 114.1840704, "tags": {"bus": "yes", "highway": "bus_stop", "name": "\u8eca\u516c\u5edf Che Kung Miu", "name:en": "Che Kung Miu", "name:zh": "\u8eca\u516c\u5edf", "name:zh-Hans": "\u8f66\u516c\u5e99", "public_transport": "stop_position"}}, {"type": "node", "id": 11049116432, "lat": 22.3688545, "lon": 114.1750376, "tags": {"bus": "yes", "highway": "bus_stop", "name": "\u540d\u57ce Festival City", "name:en": "Festival City", "name:zh": "\u540d\u57ce", "network": "\u9f8d\u904b\u6a5f\u5834\u5df4\u58eb Long Win Bus", "network:en": "Long Win Bus", "network:short": "LBW", "network:wikidata": "Q6673423", "network:yue": "\u9f8d\u904b\u6a5f\u5834\u5df4\u58eb", "public_transport": "platform", "ref:hkbus": "\u540d\u57ce", "ref:lwb": "CH07-N-1050-2", "route_ref": "NA41"}}, {"type": "node", "id": 11124634067, "lat": 22.3744398, "lon": 114.18418, "tags": {"bus": "yes", "highway": "bus_stop", "name": "\u8eca\u516c\u5edf Che Kung Miu", "name:en": "Che Kung Miu", "name:zh": "\u8eca\u516c\u5edf", "name:zh-Hans": "\u8f66\u516c\u5e99", "public_transport": "stop_position"}}, {"type": "node", "id": 11125463960, "lat": 22.3731236, "lon": 114.1805383, "tags": {"bus": "yes", "highway": "bus_stop", "local_ref": "A", "name": "\u5927\u570d\u7ad9 Tai Wai Station", "name:en": "Tai Wai Station", "name:zh": "\u5927\u570d\u7ad9", "network": "CTB", "network:wikidata": "Q5124055", "operator": "\u57ce\u5df4 Citybus", "operator:en": "Citybus", "operator:wikidata": "Q5124055", "operator:zh": "\u57ce\u5df4", "public_transport": "platform", "ref": "A", "ref:ctb": "3633A", "ref:hkbus": "\u5927\u570d\u7ad9\u516c\u5171\u904b\u8f38\u4ea4\u532f\u8655", "route_ref": "798P;B8", "shelter": "yes"}}, {"type": "node", "id": 11125463962, "lat": 22.3733619, "lon": 114.1803157, "tags": {"bus": "yes", "highway": "bus_stop", "local_ref": "G4", "name": "\u5927\u570d\u7ad9 Tai Wai Station", "name:en": "Tai Wai Station", "name:zh": "\u5927\u570d\u7ad9", "network": "KMB", "network:wikidata": "Q312243", "operator": "\u4e5d\u5df4 KMB", "operator:en": "KMB", "operator:wikidata": "Q312243", "operator:zh": "\u4e5d\u5df4", "public_transport": "platform", "ref:hkbus": "\u5927\u570d\u7ad9\u516c\u5171\u904b\u8f38\u4ea4\u532f\u8655", "ref:kmb": "TA11-T-1300-0", "route_ref": "88", "shelter": "yes"}}, {"type": "node", "id": 11125463963, "lat": 22.3732954, "lon": 114.1802088, "tags": {"bus": "yes", "highway": "bus_stop", "local_ref": "G3", "name": "\u5927\u570d\u7ad9 Tai Wai Station", "name:en": "Tai Wai Station", "name:zh": "\u5927\u570d\u7ad9", "network": "KMB", "network:wikidata": "Q312243", "operator": "\u4e5d\u5df4 KMB", "operator:en": "KMB", "operator:wikidata": "Q312243", "operator:zh": "\u4e5d\u5df4", "public_transport": "platform", "ref:hkbus": "\u5927\u570d\u7ad9\u516c\u5171\u904b\u8f38\u4ea4\u532f\u8655", "ref:kmb": "TA11-T-1200-0", "route_ref": "281", "shelter": "yes"}}, {"type": "node", "id": 11125463965, "lat": 22.3731125, "lon": 114.1798732, "tags": {"bus": "yes", "highway": "bus_stop", "local_ref": "G1", "name": "\u5927\u570d\u7ad9 Tai Wai Station", "name:en": "Tai Wai Station", "name:zh": "\u5927\u570d\u7ad9", "network": "KMB", "network:wikidata": "Q312243", "operator": "\u4e5d\u5df4 KMB", "operator:en": "KMB", "operator:wikidata": "Q312243", "operator:zh": "\u4e5d\u5df4", "public_transport": "platform", "ref:hkbus": "\u5927\u570d\u7ad9\u516c\u5171\u904b\u8f38\u4ea4\u532f\u8655", "ref:kmb": "TA11-T-1000-0", "route_ref": "80K;82B", "shelter": "yes"}}, {"type": "node", "id": 11125463967, "lat": 22.3731572, "lon": 114.1799771, "tags": {"bus": "yes", "highway": "bus_stop", "local_ref": "G2", "name": "\u5927\u570d\u7ad9 Tai Wai Station", "name:en": "Tai Wai Station", "name:zh": "\u5927\u570d\u7ad9", "network": "KMB", "network:wikidata": "Q312243", "operator": "\u4e5d\u5df4 KMB", "operator:en": "KMB", "operator:wikidata": "Q312243", "operator:zh": "\u4e5d\u5df4", "public_transport": "platform", "ref:hkbus": "\u5927\u570d\u7ad9\u516c\u5171\u904b\u8f38\u4ea4\u532f\u8655", "ref:kmb": "TA11-T-1100-0", "route_ref": "46S;46X;80K;88K", "shelter": "yes"}}, {"type": "node", "id": 11125463968, "lat": 22.3730161, "lon": 114.1796991, "tags": {"bus": "yes", "highway": "bus_stop", "local_ref": "C", "name": "\u5927\u570d\u7ad9\uff08\u843d\u5ba2\u7ad9\uff09 Tai Wai Station (Alighting Stop)", "name:en": "Tai Wai Station (Alighting Stop)", "name:zh": "\u5927\u570d\u7ad9\uff08\u843d\u5ba2\u7ad9\uff09", "network": "CTB", "network:wikidata": "Q5124055", "operator": "\u57ce\u5df4 Citybus", "operator:en": "Citybus", "operator:wikidata": "Q5124055", "operator:zh": "\u57ce\u5df4", "public_transport": "platform", "ref": "C", "ref:ctb": "3633B", "ref:hkbus": "\u5927\u570d\u7ad9\u516c\u5171\u904b\u8f38\u4ea4\u532f\u8655", "route_ref": "798P;B8", "shelter": "yes"}}, {"type": "node", "id": 11142972929, "lat": 22.3684793, "lon": 114.1781767, "tags": {"bus": "yes", "highway": "bus_stop", "name": "\u9686\u4ea8\u90a8 Lung Hang Estate", "name:en": "Lung Hang Estate", "name:zh": "\u9686\u4ea8\u90a8", "operator": "\u4e5d\u5df4 KMB", "public_transport": "platform", "ref:hkbus": "\u9686\u4ea8\u90a8", "ref:kmb": "TI04-S-0950-0", "route_ref": "46S;46X;88K;286X;985", "shelter": "yes"}}, {"type": "node", "id": 11142972983, "lat": 22.368688, "lon": 114.1752774, "tags": {"bus": "yes", "highway": "bus_stop", "name": "\u96f2\u53e0\u82b1\u5712 Carado Garden", "name:en": "Carado Garden", "name:zh": "\u96f2\u53e0\u82b1\u5712", "public_transport": "platform", "ref:hkbus": "\u96f2\u53e0\u82b1\u5712", "ref:kmb": "CH07-S-1400-0", "route_ref": "82K;85B;281M"}}, {"type": "node", "id": 11142972984, "lat": 22.368664, "lon": 114.1752552, "tags": {"bus": "yes", "highway": "bus_stop", "name": "\u96f2\u53e0\u82b1\u5712 Carado Garden", "name:en": "Carado Garden", "name:zh": "\u96f2\u53e0\u82b1\u5712", "network": "\u9f8d\u904b\u6a5f\u5834\u5df4\u58eb Long Win Bus", "network:en": "Long Win Bus", "network:short": "LBW", "network:wikidata": "Q6673423", "network:yue": "\u9f8d\u904b\u6a5f\u5834\u5df4\u58eb", "public_transport": "platform", "ref:hkbus": "\u96f2\u53e0\u82b1\u5712", "ref:lwb": "CH07-S-1450-2", "route_ref": "NA41"}}, {"type": "node", "id": 11142972991, "lat": 22.3707765, "lon": 114.1779695, "tags": {"bus": "yes", "highway": "bus_stop", "name": "\u7530\u5fc3\u6751 Tin Sam Village", "name:en": "Tin Sam Village", "name:zh": "\u7530\u5fc3\u6751", "network": "\u9f8d\u904b\u6a5f\u5834\u5df4\u58eb Long Win Bus", "network:en": "Long Win Bus", "network:short": "LBW", "network:wikidata": "Q6673423", "network:yue": "\u9f8d\u904b\u6a5f\u5834\u5df4\u58eb", "public_transport": "platform", "ref:hkbus": "\u7530\u5fc3\u6751", "ref:lwb": "CH07-S-1350-2", "route_ref": "NA41"}}, {"type": "node", "id": 11142973040, "lat": 22.3763036, "lon": 114.1708705, "tags": {"bus": "yes", "highway": "bus_stop", "name": "\u7f8e\u7530\u90a8 Mei Tin Estate", "name:en": "Mei Tin Estate", "name:zh": "\u7f8e\u7530\u90a8", "public_transport": "platform", "ref:kmb": "ME03-T-1000-0", "route_ref": "283"}}, {"type": "node", "id": 11142973043, "lat": 22.3762995, "lon": 114.1708595, "tags": {"bus": "yes", "highway": "bus_stop", "name": "\u7f8e\u7530\u90a8 Mei Tin Estate", "name:en": "Mei Tin Estate", "name:zh": "\u7f8e\u7530\u90a8", "public_transport": "platform", "ref:kmb": "ME03-T-1050-0", "route_ref": "82B"}}, {"type": "node", "id": 11142973044, "lat": 22.3762639, "lon": 114.170898, "tags": {"bus": "yes", "highway": "bus_stop", "name": "\u7f8e\u7530\u90a8 Mei Tin Estate", "name:en": "Mei Tin Estate", "name:zh": "\u7f8e\u7530\u90a8", "note": "\u5f80\u89c0\u5858\u78bc\u982d To Kwun Tong Ferry", "public_transport": "platform", "ref:kmb": "ME03-T-1100-0", "route_ref": "80;80A;T80"}}, {"type": "node", "id": 11142973046, "lat": 22.3762254, "lon": 114.1709287, "tags": {"bus": "yes", "highway": "bus_stop", "name": "\u7f8e\u7530\u90a8 Mei Tin Estate", "name:en": "Mei Tin Estate", "name:zh": "\u7f8e\u7530\u90a8", "note": "\u5f80\u7f8e\u6797\u3001\u6df1\u6c34\u57d7 To Mei Lam, Sham Shui Po", "public_transport": "platform", "ref:kmb": "ME03-T-1200-0", "route_ref": "80;81S;286P;286X;985"}}, {"type": "node", "id": 11142973048, "lat": 22.3762046, "lon": 114.1708473, "tags": {"bus": "yes", "highway": "bus_stop", "name": "\u7f8e\u7530\u90a8 Mei Tin Estate", "name:en": "Mei Tin Estate", "name:zh": "\u7f8e\u7530\u90a8", "note": "\u5f80\u986f\u5f91 To Hin Keng", "public_transport": "platform", "ref:kmb": "ME03-T-1300-0", "route_ref": "46P;286X"}}, {"type": "node", "id": 11142973051, "lat": 22.3777168, "lon": 114.1750672, "tags": {"bench": "no", "bin": "no", "bus": "yes", "highway": "bus_stop", "name": "\u7f8e\u6797 Mei Lam", "name:en": "Mei Lam", "name:zh": "\u7f8e\u6797", "operator": "KMB", "public_transport": "platform", "ref:hkbus": "\u7f8e\u6797\u7e3d\u7ad9", "ref:kmb": "ME02-T-1000-0", "route_ref": "81S;286X;288C;985;985A", "shelter": "yes", "wikidata": "Q15924590"}}, {"type": "node", "id": 11142973052, "lat": 22.3777142, "lon": 114.175053, "tags": {"bench": "no", "bin": "no", "bus": "yes", "highway": "bus_stop", "name": "\u7f8e\u6797 Mei Lam", "name:en": "Mei Lam", "name:zh": "\u7f8e\u6797", "network": "\u9f8d\u904b\u6a5f\u5834\u5df4\u58eb Long Win Bus", "network:en": "Long Win Bus", "network:short": "LWB", "network:wikidata": "Q6673423", "network:yue": "\u9f8d\u904b\u6a5f\u5834\u5df4\u58eb", "public_transport": "platform", "ref:hkbus": "\u7f8e\u6797\u7e3d\u7ad9", "ref:lwb": "ME02-T-0900-2", "route_ref": "A46;NA41", "shelter": "yes", "wikidata": "Q15924590"}}, {"type": "node", "id": 11681754855, "lat": 22.3766021, "lon": 114.1743917, "tags": {"bus": "yes", "highway": "bus_stop", "name": "\u7f8e\u8f1d\u8857 Mei Fai Street", "name:en": "Mei Fai Street", "name:zh": "\u7f8e\u8f1d\u8857", "operator": "\u57ce\u5df4 Citybus", "public_transport": "platform", "ref:ctb": "3771A", "ref:hkbus": "\u7f8e\u8f1d\u8857", "route_ref": "798P;989"}}, {"type": "node", "id": 11681754856, "lat": 22.3766061, "lon": 114.1743758, "tags": {"bus": "yes", "highway": "bus_stop", "name": "\u7f8e\u8f1d\u8857 Mei Fai Street", "name:en": "Mei Fai Street", "name:zh": "\u7f8e\u8f1d\u8857", "operator": "\u9f8d\u904b\u5df4\u58eb Long Win Bus", "public_transport": "platform", "ref:hkbus": "\u7f8e\u8f1d\u8857", "ref:kmb": "ME04-N-1000-2", "route_ref": "A46;NA41"}}, {"type": "node", "id": 11765907943, "lat": 22.377135, "lon": 114.1806884, "tags": {"bus": "yes", "highway": "bus_stop", "name": "\u9285\u947c\u7063\u6751 Tung Lo Wan Village", "name:en": "Tung Lo Wan Village", "name:zh": "\u9285\u947c\u7063\u6751", "operator": "\u9f8d\u904b\u5df4\u58eb Long Win Bus", "public_transport": "platform", "ref:hkbus": "\u9285\u947c\u7063\u6751", "ref:kmb": "TA21-S-2000-2", "route_ref": "A46"}}, {"type": "node", "id": 12128716566, "lat": 22.367237, "lon": 114.175446, "tags": {"bus": "yes", "highway": "bus_stop", "name": "\u986f\u8000\u90a8 Hin Yiu Estate", "name:en": "Hin Yiu Estate", "name:zh": "\u986f\u8000\u90a8", "operator": "\u57ce\u5df4 Citybus", "public_transport": "platform", "ref:ctb": "3857A", "ref:hkbus": "\u986f\u8000\u90a8", "route_ref": "987"}}, {"type": "node", "id": 12128716568, "lat": 22.3684897, "lon": 114.1782025, "tags": {"bus": "yes", "highway": "bus_stop", "name": "\u9686\u4ea8\u90a8 Lung Hang Estate", "name:en": "Lung Hang Estate", "name:zh": "\u9686\u4ea8\u90a8", "public_transport": "platform", "ref:hkbus": "\u9686\u4ea8\u90a8", "ref:kmb": "TI04-S-1000-2", "route_ref": "A42"}}, {"type": "node", "id": 12135817120, "lat": 22.3726779, "lon": 114.1799108, "tags": {"bus": "yes", "highway": "bus_stop", "local_ref": "G8", "name": "\u5927\u570d\u7ad9 Tai Wai Station", "name:en": "Tai Wai Station", "name:zh": "\u5927\u570d\u7ad9", "network": "KMB", "network:wikidata": "Q312243", "operator": "\u4e5d\u5df4 KMB", "operator:en": "KMB", "operator:wikidata": "Q312243", "operator:zh": "\u4e5d\u5df4", "public_transport": "platform", "ref:hkbus": "\u5927\u570d\u7ad9\u516c\u5171\u904b\u8f38\u4ea4\u532f\u8655", "ref:kmb": "TA11-T-1700-2", "route_ref": "R42", "shelter": "yes"}}, {"type": "node", "id": 12135817122, "lat": 22.3726748, "lon": 114.179903, "tags": {"bus": "yes", "highway": "bus_stop", "local_ref": "G8", "name": "\u5927\u570d\u7ad9 Tai Wai Station", "name:en": "Tai Wai Station", "name:zh": "\u5927\u570d\u7ad9", "network": "KMB", "network:wikidata": "Q312243", "operator": "\u4e5d\u5df4 KMB", "operator:en": "KMB", "operator:wikidata": "Q312243", "operator:zh": "\u4e5d\u5df4", "public_transport": "platform", "ref:hkbus": "\u5927\u570d\u7ad9\u516c\u5171\u904b\u8f38\u4ea4\u532f\u8655", "ref:kmb": "TA11-T-1600-0", "route_ref": "72A;82D", "shelter": "yes"}}, {"type": "node", "id": 12135817124, "lat": 22.3728606, "lon": 114.1802108, "tags": {"bus": "yes", "highway": "bus_stop", "local_ref": "G6", "name": "\u5927\u570d\u7ad9 Tai Wai Station", "name:en": "Tai Wai Station", "name:zh": "\u5927\u570d\u7ad9", "network": "KMB", "network:wikidata": "Q312243", "operator": "\u4e5d\u5df4 KMB", "operator:en": "KMB", "operator:wikidata": "Q312243", "operator:zh": "\u4e5d\u5df4", "public_transport": "platform", "ref:hkbus": "\u5927\u570d\u7ad9\u516c\u5171\u904b\u8f38\u4ea4\u532f\u8655", "ref:kmb": "TA11-T-1400-0", "route_ref": "249X", "shelter": "yes"}}, {"type": "node", "id": 12135817126, "lat": 22.3727564, "lon": 114.1800526, "tags": {"bus": "yes", "highway": "bus_stop", "local_ref": "B", "name": "\u5927\u570d\u7ad9 Tai Wai Station", "name:en": "Tai Wai Station", "name:zh": "\u5927\u570d\u7ad9", "network": "CTB", "network:wikidata": "Q5124055", "operator": "\u57ce\u5df4 Citybus", "operator:en": "Citybus", "operator:wikidata": "Q5124055", "operator:zh": "\u57ce\u5df4", "public_transport": "platform", "ref": "B", "ref:ctb": "3633C", "ref:hkbus": "\u5927\u570d\u7ad9\u516c\u5171\u904b\u8f38\u4ea4\u532f\u8655", "route_ref": "79;798P", "shelter": "yes"}}, {"type": "node", "id": 13333303162, "lat": 22.3703526, "lon": 114.1795345, "tags": {"bus": "yes", "highway": "bus_stop", "name": "\u65b0\u7fe0\u90a8 Sun Chui Estate", "name:en": "Sun Chui Estate", "name:zh": "\u65b0\u7fe0\u90a8", "network": "CTB", "network:wikidata": "Q5124055", "operator": "\u57ce\u5df4 Citybus", "operator:en": "Citybus", "operator:wikidata": "Q5124055", "operator:zh": "\u57ce\u5df4", "public_transport": "platform", "ref:hkbus": "\u65b0\u7fe0\u90a8", "route_ref": "587"}}]}