{"version": 0.6, "generator": "Overpass API 0.7.62.10 2d4cfc48", "osm3s": {"timestamp_osm_base": "2026-02-25T04:37:14Z", "copyright": "The data included in this document is from www.openstreetmap.org. The data is made available under ODbL."}, "elements": [{"type": "node", "id": 1280476347, "lat": 22.32873, "lon": 114.2172093, "tags": {"alt_name:zh": "\u5f69\u798f\u90a8", "bus": "yes", "highway": "bus_stop", "name": "\u5f69\u798f Choi Fook", "name:en": "Choi Fook", "name:zh": "\u5f69\u798f", "network": "KMB", "network:wikidata": "Q312243", "operator": "\u4e5d\u5df4 KMB", "operator:en": "KMB", "operator:wikidata": "Q312243", "operator:zh": "\u4e5d\u5df4", "owner": "\u4e5d\u5df4 KMB", "owner:en": "KMB", "owner:wikidata": "Q312243", "owner:zh": "\u4e5d\u5df4", "public_transport": "platform", "ref:kmb": "CH42-W-0950-0", "route_ref": "28B"}}, {"type": "node", "id": 1393284599, "lat": 22.3337313, "lon": 114.2150268, "tags": {"highway": "bus_stop", "minibus": "yes", "name": "\u5f69\u96f2\u90a8 Choi Wan Estate", "name:en": "Choi Wan Estate", "name:zh": "\u5f69\u96f2\u90a8", "public_transport": "platform"}}, {"type": "node", "id": 1393284600, "lat": 22.3342314, "lon": 114.2119356, "tags": {"bus": "yes", "highway": "bus_stop", "local_ref": "WT228", "name": "\u5f69\u96f2\u8056\u82e5\u745f\u5c0f\u5b78 Choi Wan St. Joseph's Primary School", "name:en": "Choi Wan St. Joseph's Primary School", "name:zh": "\u5f69\u96f2\u8056\u82e5\u745f\u5c0f\u5b78", "network": "KMB", "network:wikidata": "Q312243", "operator": "\u4e5d\u5df4 KMB", "operator:en": "KMB", "operator:wikidata": "Q312243", "operator:zh": "\u4e5d\u5df4", "owner": "\u4e5d\u5df4 KMB", "owner:en": "KMB", "owner:wikidata": "Q312243", "owner:zh": "\u4e5d\u5df4", "public_transport": "platform", "ref:kmb": "CL01-E-1245-0", "route_ref": "26;26M;26X;27;29M"}}, {"type": "node", "id": 1393307725, "lat": 22.3324568, "lon": 114.2235995, "tags": {"bus": "yes", "highway": "bus_stop", "location": "New Clear Water Bay Road", "name": "\u57fa\u9806\u5b78\u6821 Kei Shun Special School", "name:en": "Kei Shun Special School", "name:zh": "\u57fa\u9806\u5b78\u6821", "network": "KMB", "network:wikidata": "Q312243", "operator": "\u4e5d\u5df4 KMB", "operator:en": "KMB", "operator:wikidata": "Q312243", "operator:zh": "\u4e5d\u5df4", "owner": "\u4e5d\u5df4 KMB", "owner:en": "KMB", "owner:wikidata": "Q312243", "owner:zh": "\u4e5d\u5df4", "public_transport": "platform", "ref:kmb": "NE01-E-1200-0", "route_ref": "26M;42;95;290A;N216;N290"}}, {"type": "node", "id": 1393307754, "lat": 22.3323274, "lon": 114.2153906, "tags": {"bus": "yes", "highway": "bus_stop", "name": "\u767d\u8679\u6a13 Pak Hung House", "name:en": "Pak Hung House", "name:zh": "\u767d\u8679\u6a13", "network": "KMB", "network:wikidata": "Q312243", "operator": "\u4e5d\u5df4 KMB", "operator:en": "KMB", "operator:wikidata": "Q312243", "operator:zh": "\u4e5d\u5df4", "owner": "\u4e5d\u5df4 KMB", "owner:en": "KMB", "owner:wikidata": "Q312243", "owner:zh": "\u4e5d\u5df4", "public_transport": "platform", "ref:hkbus": "\u767d\u8679\u6a13", "ref:kmb": "NE01-W-1000-0", "route_ref": "14D;19;26;26M;26X;27;27X;29M;42;91A;91P;95;96R;213A;213D;291P;N216"}}, {"type": "node", "id": 1393307757, "lat": 22.3320934, "lon": 114.2225506, "tags": {"bus": "yes", "highway": "bus_stop", "name": "\u9806\u5229\u6d88\u9632\u5c40 Shun Lee Fire Station", "name:en": "Shun Lee Fire Station", "name:zh": "\u9806\u5229\u6d88\u9632\u5c40", "network": "KMB", "network:wikidata": "Q312243", "operator": "\u4e5d\u5df4 KMB", "operator:en": "KMB", "operator:wikidata": "Q312243", "operator:zh": "\u4e5d\u5df4", "owner": "\u4e5d\u5df4 KMB", "owner:en": "KMB", "owner:wikidata": "Q312243", "owner:zh": "\u4e5d\u5df4", "public_transport": "platform", "ref:kmb": "LE01-E-0900-0", "route_ref": "14D;26;26X;27;27X;29M"}}, {"type": "node", "id": 1393307765, "lat": 22.3320186, "lon": 114.2226725, "tags": {"bus": "yes", "highway": "bus_stop", "location": "Lee On Road", "name": "\u9806\u5229\u6d88\u9632\u5c40 Shun Lee Fire Station", "name:en": "Shun Lee Fire Station", "name:zh": "\u9806\u5229\u6d88\u9632\u5c40", "network": "KMB", "network:wikidata": "Q312243", "operator": "\u4e5d\u5df4 KMB", "operator:en": "KMB", "operator:wikidata": "Q312243", "operator:zh": "\u4e5d\u5df4", "owner": "\u4e5d\u5df4 KMB", "owner:en": "KMB", "owner:wikidata": "Q312243", "owner:zh": "\u4e5d\u5df4", "public_transport": "platform", "ref:kmb": "LE01-W-1400-0", "route_ref": "14D;26;26M;26X;27;27X;29M;42;290A;N216;N290"}}, {"type": "node", "id": 1393307791, "lat": 22.3326263, "lon": 114.2156004, "tags": {"bus": "yes", "highway": "bus_stop", "location": "New Clear Water Bay Road", "name": "\u767d\u8679\u6a13 Pak Hung House", "name:en": "Pak Hung House", "name:zh": "\u767d\u8679\u6a13", "network": "KMB", "network:wikidata": "Q312243", "operator": "\u4e5d\u5df4 KMB", "operator:en": "KMB", "operator:wikidata": "Q312243", "operator:zh": "\u4e5d\u5df4", "owner": "\u4e5d\u5df4 KMB", "owner:en": "KMB", "owner:wikidata": "Q312243", "owner:zh": "\u4e5d\u5df4", "public_transport": "platform", "ref:hkbus": "\u767d\u8679\u6a13", "ref:kmb": "NE01-E-1100-0", "route_ref": "14D;26;26M;26X;27;27X;29M;42"}}, {"type": "node", "id": 1393333633, "lat": 22.3316769, "lon": 114.2216171, "tags": {"bus": "yes", "highway": "bus_stop", "name": "\u9806\u5229\u7d00\u5f8b\u90e8\u968a\u5bbf\u820d Shun Lee Disciplined Services Quarters", "name:en": "Shun Lee Disciplined Services Quarters", "name:zh": "\u9806\u5229\u7d00\u5f8b\u90e8\u968a\u5bbf\u820d", "public_transport": "platform"}}, {"type": "node", "id": 1490200829, "lat": 22.331929, "lon": 114.2226274, "tags": {"bus": "yes", "highway": "bus_stop", "location": "Lee On Road", "name": "\u9806\u5229\u6d88\u9632\u5c40 Shun Lee Fire Station", "name:en": "Shun Lee Fire Station", "name:zh": "\u9806\u5229\u6d88\u9632\u5c40", "network": "KMB", "network:wikidata": "Q312243", "operator": "\u4e5d\u5df4 KMB", "operator:en": "KMB", "operator:wikidata": "Q312243", "operator:zh": "\u4e5d\u5df4", "owner": "\u4e5d\u5df4 KMB", "owner:en": "KMB", "owner:wikidata": "Q312243", "owner:zh": "\u4e5d\u5df4", "public_transport": "platform", "ref:kmb": "LE01-W-1450-0", "route_ref": "14H;23;23M;91;91M;92"}}, {"type": "node", "id": 2078667553, "lat": 22.33434, "lon": 114.2096906, "tags": {"bus": "yes", "highway": "bus_stop", "local_ref": "F1", "name": "\u725b\u6c60\u7063\u8857\u5e02 Ngau Chi Wan Market", "name:en": "Ngau Chi Wan Market", "name:zh": "\u725b\u6c60\u7063\u8857\u5e02", "network": "KMB", "network:wikidata": "Q312243", "operator": "\u4e5d\u5df4 KMB", "operator:en": "KMB", "operator:wikidata": "Q312243", "operator:zh": "\u4e5d\u5df4", "owner": "\u4e5d\u5df4 KMB", "owner:en": "KMB", "owner:wikidata": "Q312243", "owner:zh": "\u4e5d\u5df4", "public_transport": "platform", "ref:kmb": "CL01-E-1000-0", "route_ref": "26M;27;27X;29M", "wheelchair": "no"}}, {"type": "node", "id": 2232083004, "lat": 22.329492, "lon": 114.2127696, "tags": {"bus": "yes", "highway": "bus_stop", "name": "\u5f69\u5fb7\u5546\u5834 Choi Tak Shopping Centre", "name:en": "Choi Tak Shopping Centre", "name:zh": "\u5f69\u5fb7\u5546\u5834", "network": "KMB", "network:wikidata": "Q312243", "operator": "\u4e5d\u5df4 KMB", "operator:en": "KMB", "operator:wikidata": "Q312243", "operator:zh": "\u4e5d\u5df4", "owner": "\u4e5d\u5df4 KMB", "owner:en": "KMB", "owner:wikidata": "Q312243", "owner:zh": "\u4e5d\u5df4", "public_transport": "platform", "ref:kmb": "CH42-E-0950-0", "route_ref": "2X;9;28B;111P"}}, {"type": "node", "id": 2405720796, "lat": 22.3284139, "lon": 114.2155999, "tags": {"bus": "yes", "highway": "bus_stop", "location": "Choi Ha Road", "name": "\u76c8\u5b89\u6a13 Ying On House", "name:en": "Ying On House", "name:zh": "\u76c8\u5b89\u6a13", "public_transport": "platform", "ref:kmb": "CH43-W-1050-0", "route_ref": "2X;28B"}}, {"type": "node", "id": 2405720797, "lat": 22.3268946, "lon": 114.2152593, "tags": {"alt_name": "\u5f69\u76c8\u90a8\u76c8\u9806\u6a13 Ying Shun House, Choi Ying Estate", "alt_name:en": "Ying Shun House, Choi Ying Estate", "alt_name:zh": "\u5f69\u76c8\u90a8\u76c8\u9806\u6a13", "bus": "yes", "highway": "bus_stop", "location": "Choi Ha Road", "name": "\u76c8\u9806\u6a13 Ying Shun House", "name:en": "Ying Shun House", "name:zh": "\u76c8\u9806\u6a13", "network": "KMB", "network:wikidata": "Q312243", "operator": "\u4e5d\u5df4 KMB", "operator:en": "KMB", "operator:wikidata": "Q312243", "operator:zh": "\u4e5d\u5df4", "owner": "\u4e5d\u5df4 KMB", "owner:en": "KMB", "owner:wikidata": "Q312243", "owner:zh": "\u4e5d\u5df4", "public_transport": "platform", "ref:kmb": "CH43-E-1100-0", "route_ref": "2X;13X;28B;606;606A", "shelter": "yes"}}, {"type": "node", "id": 2405720802, "lat": 22.3257955, "lon": 114.2167866, "tags": {"bus": "yes", "highway": "bus_stop", "location": "Choi Ha Road", "name": "\u5f69\u9824\u5c45 Cheerful Court", "name:en": "Cheerful Court", "name:zh": "\u5f69\u9824\u5c45", "network": "KMB", "network:wikidata": "Q312243", "operator": "\u4e5d\u5df4 KMB", "operator:en": "KMB", "operator:wikidata": "Q312243", "operator:zh": "\u4e5d\u5df4", "owner": "\u4e5d\u5df4 KMB", "owner:en": "KMB", "owner:wikidata": "Q312243", "owner:zh": "\u4e5d\u5df4", "public_transport": "platform", "ref:kmb": "CH43-E-1150-0", "route_ref": "2X;13X;28B;606;606A"}}, {"type": "node", "id": 2405720806, "lat": 22.3290801, "lon": 114.2150417, "tags": {"bus": "yes", "highway": "bus_stop", "location": "Choi Ha Road", "name": "\u76c8\u5b89\u6a13 Ying On House", "name:en": "Ying On House", "name:zh": "\u76c8\u5b89\u6a13", "public_transport": "platform", "ref:kmb": "CH43-E-1000-0", "route_ref": "2X;13X;28B;606;606A"}}, {"type": "node", "id": 2405720814, "lat": 22.3297251, "lon": 114.2163011, "tags": {"alt_name": "\u5f69\u5fb7\u90a8\u5f69\u8ce2\u6a13 Choi Yin House, Choi Tak Estate", "alt_name:en": "Choi Yin House, Choi Tak Estate", "alt_name:zh": "\u5f69\u5fb7\u90a8\u5f69\u8ce2\u6a13", "bus": "yes", "highway": "bus_stop", "location": "Choi Wing Road", "name": "\u5f69\u8ce2\u6a13 Choi Yin House", "name:en": "Choi Yin House", "name:zh": "\u5f69\u8ce2\u6a13", "public_transport": "platform", "ref:kmb": "CH42-W-1050-0", "route_ref": "2X;9;13X;28B;111P"}}, {"type": "node", "id": 2405720818, "lat": 22.3258228, "lon": 114.216629, "tags": {"bus": "yes", "highway": "bus_stop", "location": "Choi Ha Road", "name": "\u5f69\u9824\u5c45 Cheerful Court", "name:en": "Cheerful Court", "name:zh": "\u5f69\u9824\u5c45", "network": "KMB", "network:wikidata": "Q312243", "operator": "\u4e5d\u5df4 KMB", "operator:en": "KMB", "operator:wikidata": "Q312243", "operator:zh": "\u4e5d\u5df4", "owner": "\u4e5d\u5df4 KMB", "owner:en": "KMB", "owner:wikidata": "Q312243", "owner:zh": "\u4e5d\u5df4", "public_transport": "platform", "ref:kmb": "CH43-W-1000-0", "route_ref": "2X;28B"}}, {"type": "node", "id": 2405720827, "lat": 22.329823, "lon": 114.2151817, "tags": {"alt_name": "\u5f69\u5fb7\u90a8\u5f69\u4eae\u6a13 Choi Leung House, Choi Tak Estate", "alt_name:en": "Choi Leung House, Choi Tak Estate", "alt_name:zh": "\u5f69\u5fb7\u90a8\u5f69\u4eae\u6a13", "bus": "yes", "highway": "bus_stop", "location": "Choi Wing Road", "name": "\u5f69\u4eae\u6a13 Choi Leung House", "name:en": "Choi Leung House", "name:zh": "\u5f69\u4eae\u6a13", "network": "KMB", "network:wikidata": "Q312243", "operator": "\u4e5d\u5df4 KMB", "operator:en": "KMB", "operator:wikidata": "Q312243", "operator:zh": "\u4e5d\u5df4", "owner": "\u4e5d\u5df4 KMB", "owner:en": "KMB", "owner:wikidata": "Q312243", "owner:zh": "\u4e5d\u5df4", "public_transport": "platform", "ref:kmb": "CH42-E-1000-0", "route_ref": "2X;9;28B;111P"}}, {"type": "node", "id": 2405943487, "lat": 22.3264338, "lon": 114.2267372, "tags": {"bus": "yes", "highway": "bus_stop", "location": "Shun Tin Bus Terminus", "name": "\u9806\u5929\u7e3d\u7ad9 Shun Tin Bus Terminus", "name:en": "Shun Tin Bus Terminus", "name:zh": "\u9806\u5929\u7e3d\u7ad9", "network": "KMB", "network:wikidata": "Q312243", "operator": "\u4e5d\u5df4 KMB", "operator:en": "KMB", "operator:wikidata": "Q312243", "operator:zh": "\u4e5d\u5df4", "owner": "\u4e5d\u5df4 KMB", "owner:en": "KMB", "owner:wikidata": "Q312243", "owner:zh": "\u4e5d\u5df4", "public_transport": "platform", "ref:hkbus": "\u9806\u5929\u7e3d\u7ad9", "ref:kmb": "SH17-T-1150-0", "route_ref": "26;26X", "shelter": "yes"}}, {"type": "node", "id": 2405949094, "lat": 22.3318679, "lon": 114.2258432, "tags": {"bus": "yes", "highway": "bus_stop", "location": "Lee On Road", "name": "\u5229\u696d\u6a13 Lee Yip House", "name:en": "Lee Yip House", "name:zh": "\u5229\u696d\u6a13", "network": "KMB", "network:wikidata": "Q312243", "operator": "\u4e5d\u5df4 KMB", "operator:en": "KMB", "operator:wikidata": "Q312243", "operator:zh": "\u4e5d\u5df4", "owner": "\u4e5d\u5df4 KMB", "owner:en": "KMB", "owner:wikidata": "Q312243", "owner:zh": "\u4e5d\u5df4", "public_transport": "platform", "ref:hkbus": "\u5229\u696d\u6a13", "ref:kmb": "LE01-W-1240-0", "route_ref": "26;26X;N216", "shelter": "yes"}}, {"type": "node", "id": 2405949095, "lat": 22.3314372, "lon": 114.2263354, "tags": {"bus": "yes", "highway": "bus_stop", "location": "Shun Lee Bus Terminus", "name": "\u9806\u5229\u7e3d\u7ad9 Shun Lee Bus Terminus", "name:en": "Shun Lee Bus Terminus", "name:zh": "\u9806\u5229\u7e3d\u7ad9", "network": "KMB", "network:wikidata": "Q312243", "operator": "\u4e5d\u5df4 KMB", "operator:en": "KMB", "operator:wikidata": "Q312243", "operator:zh": "\u4e5d\u5df4", "owner": "\u4e5d\u5df4 KMB", "owner:en": "KMB", "owner:wikidata": "Q312243", "owner:zh": "\u4e5d\u5df4", "public_transport": "platform", "ref:kmb": "SH16-T-1100-0", "route_ref": "42", "shelter": "yes"}}, {"type": "node", "id": 2405949096, "lat": 22.3312882, "lon": 114.2263244, "tags": {"bus": "yes", "highway": "bus_stop", "location": "Shun Lee Bus Terminus", "name": "\u9806\u5229\u7e3d\u7ad9 Shun Lee Bus Terminus", "name:en": "Shun Lee Bus Terminus", "name:zh": "\u9806\u5229\u7e3d\u7ad9", "network": "KMB", "network:wikidata": "Q312243", "operator": "\u4e5d\u5df4 KMB", "operator:en": "KMB", "operator:wikidata": "Q312243", "operator:zh": "\u4e5d\u5df4", "owner": "\u4e5d\u5df4 KMB", "owner:en": "KMB", "owner:wikidata": "Q312243", "owner:zh": "\u4e5d\u5df4", "public_transport": "platform", "ref:kmb": "SH16-T-1000-0", "route_ref": "29M", "shelter": "yes"}}, {"type": "node", "id": 2405949097, "lat": 22.3318041, "lon": 114.2259277, "tags": {"bus": "yes", "highway": "bus_stop", "location": "Lee On Road", "name": "\u5229\u696d\u6a13 Lee Yip House", "name:en": "Lee Yip House", "name:zh": "\u5229\u696d\u6a13", "network": "KMB", "network:wikidata": "Q312243", "operator": "\u4e5d\u5df4 KMB", "operator:en": "KMB", "operator:wikidata": "Q312243", "operator:zh": "\u4e5d\u5df4", "owner": "\u4e5d\u5df4 KMB", "owner:en": "KMB", "owner:wikidata": "Q312243", "owner:zh": "\u4e5d\u5df4", "public_transport": "platform", "ref:hkbus": "\u5229\u696d\u6a13", "ref:kmb": "LE01-W-1220-0", "route_ref": "14D;26M;27;27X;290A;N290", "shelter": "yes"}}, {"type": "node", "id": 2405949098, "lat": 22.3319546, "lon": 114.2257282, "tags": {"bus": "yes", "highway": "bus_stop", "location": "Lee On Road", "name": "\u5229\u696d\u6a13 Lee Yip House", "name:en": "Lee Yip House", "name:zh": "\u5229\u696d\u6a13", "network": "KMB", "network:wikidata": "Q312243", "operator": "\u4e5d\u5df4 KMB", "operator:en": "KMB", "operator:wikidata": "Q312243", "operator:zh": "\u4e5d\u5df4", "owner": "\u4e5d\u5df4 KMB", "owner:en": "KMB", "owner:wikidata": "Q312243", "owner:zh": "\u4e5d\u5df4", "public_transport": "platform", "ref:hkbus": "\u5229\u696d\u6a13", "ref:kmb": "LE01-W-1250-0", "route_ref": "14H;23;23M", "shelter": "yes"}}, {"type": "node", "id": 2405949099, "lat": 22.3313449, "lon": 114.2263716, "tags": {"bus": "yes", "highway": "bus_stop", "location": "Shun Lee Bus Terminus", "name": "\u9806\u5229\u7e3d\u7ad9 Shun Lee Bus Terminus", "name:en": "Shun Lee Bus Terminus", "name:zh": "\u9806\u5229\u7e3d\u7ad9", "network": "KMB", "network:wikidata": "Q312243", "operator": "\u4e5d\u5df4 KMB", "operator:en": "KMB", "operator:wikidata": "Q312243", "operator:zh": "\u4e5d\u5df4", "owner": "\u4e5d\u5df4 KMB", "owner:en": "KMB", "owner:wikidata": "Q312243", "owner:zh": "\u4e5d\u5df4", "public_transport": "platform", "ref:kmb": "SH16-T-1050-0", "route_ref": "619;619P;619X;N619", "shelter": "yes"}}, {"type": "node", "id": 2405949100, "lat": 22.3319631, "lon": 114.2257169, "tags": {"bus": "yes", "highway": "bus_stop", "location": "Lee On Road", "name": "\u9806\u5229\u90a8\u5229\u696d\u6a13 Lee Yip House, Shun Lee Estate", "name:en": "Lee Yip House, Shun Lee Estate", "name:zh": "\u9806\u5229\u90a8\u5229\u696d\u6a13", "network": "CTB;CityFlyer", "network:wikidata": "Q5124055;Q5124066", "operator": "\u57ce\u5df4 Citybus", "operator:en": "Citybus", "operator:wikidata": "Q5142055", "operator:zh": "\u57ce\u5df4", "owner": "\u57ce\u5df4 Citybus", "owner:en": "Citybus", "owner:wikidata": "Q5142055", "owner:zh": "\u57ce\u5df4", "public_transport": "platform", "ref:CBNW": "1787A", "ref:hkbus": "\u5229\u696d\u6a13", "route_ref": "A29;E22P;N26"}}, {"type": "node", "id": 2405951767, "lat": 22.3330516, "lon": 114.2242061, "tags": {"bus": "yes", "highway": "bus_stop", "location": "Lee On Road", "name": "\u5229\u6052\u6a13 Lee Hang House", "name:en": "Lee Hang House", "name:zh": "\u5229\u6052\u6a13", "network": "KMB", "network:wikidata": "Q312243", "operator": "\u4e5d\u5df4 KMB", "operator:en": "KMB", "operator:wikidata": "Q312243", "operator:zh": "\u4e5d\u5df4", "owner": "\u4e5d\u5df4 KMB", "owner:en": "KMB", "owner:wikidata": "Q312243", "owner:zh": "\u4e5d\u5df4", "public_transport": "platform", "ref:kmb": "LE01-W-1300-0", "route_ref": "14D;14H;23;23M;26;26M;26X;27;27X;29M;42;290A;N216;N290", "shelter": "yes"}}, {"type": "node", "id": 2405951769, "lat": 22.3330786, "lon": 114.2243832, "tags": {"bus": "yes", "highway": "bus_stop", "name": "\u5229\u6052\u6a13 Lee Hang House", "name:en": "Lee Hang House", "name:zh": "\u5229\u6052\u6a13", "network": "KMB", "network:wikidata": "Q312243", "operator": "\u4e5d\u5df4 KMB", "operator:en": "KMB", "operator:wikidata": "Q312243", "operator:zh": "\u4e5d\u5df4", "owner": "\u4e5d\u5df4 KMB", "owner:en": "KMB", "owner:wikidata": "Q312243", "owner:zh": "\u4e5d\u5df4", "public_transport": "platform", "ref:kmb": "LE01-E-0950-0", "route_ref": "14D;26;26X;27;27X;29M", "shelter": "separate"}}, {"type": "node", "id": 2405951770, "lat": 22.3329706, "lon": 114.2243191, "tags": {"bus": "yes", "highway": "bus_stop", "location": "Lee On Road", "name": "\u9806\u5229\u90a8\u5229\u6052\u6a13 Lee Hang House, Shun Lee Estate", "name:en": "Lee Hang House, Shun Lee Estate", "name:zh": "\u9806\u5229\u90a8\u5229\u6052\u6a13", "network": "CTB", "network:wikidata": "Q5124055", "operator": "\u57ce\u5df4 Citybus", "operator:en": "Citybus", "operator:wikidata": "Q5142055", "operator:zh": "\u57ce\u5df4", "owner": "\u57ce\u5df4 Citybus", "owner:en": "Citybus", "owner:wikidata": "Q5142055", "owner:zh": "\u57ce\u5df4", "public_transport": "platform", "ref:ctb": "1723A", "route_ref": "E22P;N26"}}, {"type": "node", "id": 2405961251, "lat": 22.3303893, "lon": 114.2260002, "tags": {"bus": "yes", "highway": "bus_stop", "location": "Shun Lee Tsuen Road", "name": "\u9806\u5229\u90a8\u5229\u5eb7\u6a13 Lee Hong House, Shun Lee Estate", "name:en": "Lee Hong House, Shun Lee Estate", "name:zh": "\u9806\u5229\u90a8\u5229\u5eb7\u6a13", "network": "Citybus;Cityflyer", "network:wikidata": "Q5124055;Q5124066", "operator": "\u57ce\u5df4 Citybus", "operator:en": "Citybus", "operator:wikidata": "Q5124055", "operator:zh": "\u57ce\u5df4", "owner": "\u57ce\u5df4 Citybus", "owner:en": "Citybus", "owner:wikidata": "Q5124055", "owner:zh": "\u57ce\u5df4", "public_transport": "platform", "ref:kmb": "1743A", "route_ref": "A26;E22P;N26"}}, {"type": "node", "id": 2405961253, "lat": 22.3304543, "lon": 114.2259849, "tags": {"bus": "yes", "highway": "bus_stop", "name": "\u5229\u5eb7\u6a13 Lee Hong House", "name:en": "Lee Hong House", "name:zh": "\u5229\u5eb7\u6a13", "network": "KMB", "network:wikidata": "Q312243", "operator": "\u4e5d\u5df4 KMB", "operator:en": "KMB", "operator:wikidata": "Q312243", "operator:zh": "\u4e5d\u5df4", "owner": "\u4e5d\u5df4 KMB", "owner:en": "KMB", "owner:wikidata": "Q312243", "owner:zh": "\u4e5d\u5df4", "public_transport": "platform", "ref:kmb": "SH31-E-1000-0", "route_ref": "26;26M;26X;27;27X;29M;42;95;290A;N216;N290"}}, {"type": "node", "id": 2405961254, "lat": 22.3288402, "lon": 114.2255243, "tags": {"bus": "yes", "highway": "bus_stop", "location": "Shun Lee Tsuen Road", "name": "\u5b89\u980c\u6a13 On Chung House", "name:en": "On Chung House", "name:zh": "\u5b89\u980c\u6a13", "network": "KMB", "network:wikidata": "Q312243", "operator": "\u4e5d\u5df4 KMB", "operator:en": "KMB", "operator:wikidata": "Q312243", "operator:zh": "\u4e5d\u5df4", "owner": "\u4e5d\u5df4 KMB", "owner:en": "KMB", "owner:wikidata": "Q312243", "owner:zh": "\u4e5d\u5df4", "public_transport": "platform", "ref:kmb": "SH27-S-1000-0", "route_ref": "14H;23;23M;95", "shelter": "yes"}}, {"type": "node", "id": 2405964769, "lat": 22.3323238, "lon": 114.2153717, "tags": {"bus": "yes", "highway": "bus_stop", "location": "New Clear Water Bay Road", "name": "\u5f69\u96f2\u90a8\u767d\u8679\u6a13 Pak Hung House, Choi Wan Estate", "name:en": "Pak Hung House, Choi Wan Estate", "name:zh": "\u5f69\u96f2\u90a8\u767d\u8679\u6a13", "network": "CTB;Cityflyer", "network:wikidata": "Q5124055;Q5124066", "operator": "\u57ce\u5df4 Citybus", "operator:en": "Citybus", "operator:wikidata": "Q5124055", "operator:zh": "\u57ce\u5df4", "owner": "\u57ce\u5df4 Citybus", "owner:en": "Citybus", "owner:wikidata": "Q5124055", "owner:zh": "\u57ce\u5df4", "public_transport": "platform", "ref:ctb": "1779A", "route_ref": "A28;E22P;N26"}}, {"type": "node", "id": 2405964770, "lat": 22.3326314, "lon": 114.2156439, "tags": {"bus": "yes", "highway": "bus_stop", "location": "New Clear Water Bay Road", "name": "\u5f69\u96f2\u90a8\u767d\u8679\u6a13 Pak Hung House, Choi Wan Estate", "name:en": "Pak Hung House, Choi Wan Estate", "name:zh": "\u5f69\u96f2\u90a8\u767d\u8679\u6a13", "network": "Citybus;Cityflyer", "network:wikidata": "Q5124055;Q5124066", "operator": "\u57ce\u5df4 Citybus", "operator:en": "Citybus", "operator:wikidata": "Q5124055", "operator:zh": "\u57ce\u5df4", "owner": "\u57ce\u5df4 Citybus", "owner:en": "Citybus", "owner:wikidata": "Q5124055", "owner:zh": "\u57ce\u5df4", "public_transport": "platform", "ref:ctb": "1652A", "ref:hkbus": "\u767d\u8679\u6a13", "route_ref": "A28;E22P;N26", "shelter": "yes"}}, {"type": "node", "id": 2405964771, "lat": 22.3325076, "lon": 114.2234791, "tags": {"bus": "yes", "highway": "bus_stop", "location": "New Clear Water Bay Road", "name": "\u57fa\u9806\u5c0f\u5b78 Kei Shun School", "name:en": "Kei Shun School", "name:zh": "\u57fa\u9806\u5c0f\u5b78", "network": "CTB;CityFlyer", "network:wikidata": "Q5124055;Q5124066", "operator": "\u57ce\u5df4 Citybus", "operator:en": "Citybus", "operator:wikidata": "Q5142055", "operator:zh": "\u57ce\u5df4", "owner": "\u57ce\u5df4 Citybus", "owner:en": "Citybus", "owner:wikidata": "Q5142055", "owner:zh": "\u57ce\u5df4", "public_transport": "platform", "ref:ctb": "1780A", "route_ref": "A28;E22P;N26"}}, {"type": "node", "id": 2405964772, "lat": 22.3326051, "lon": 114.2154961, "tags": {"bus": "yes", "highway": "bus_stop", "location": "New Clear Water Bay Road", "name": "\u767d\u8679\u6a13 Pak Hung House", "name:en": "Pak Hung House", "name:zh": "\u767d\u8679\u6a13", "network": "KMB", "network:wikidata": "Q312243", "operator": "\u4e5d\u5df4 KMB", "operator:en": "KMB", "operator:wikidata": "Q312243", "operator:zh": "\u4e5d\u5df4", "owner": "\u4e5d\u5df4 KMB", "owner:en": "KMB", "owner:wikidata": "Q312243", "owner:zh": "\u4e5d\u5df4", "public_transport": "platform", "ref:hkbus": "\u767d\u8679\u6a13", "ref:kmb": "NE01-E-1050-0", "route_ref": "19;88;91;91A;91M;91P;95;213D;214;290;290A;290B;290X;N290"}}, {"type": "node", "id": 2405964773, "lat": 22.3327347, "lon": 114.2229206, "tags": {"bus": "yes", "highway": "bus_stop", "name": "\u57fa\u9806\u5b78\u6821 Kei Shun Special School", "name:en": "Kei Shun Special School", "name:zh": "\u57fa\u9806\u5b78\u6821", "network": "KMB", "network:wikidata": "Q312243", "operator": "\u4e5d\u5df4 KMB", "operator:en": "KMB", "operator:wikidata": "Q312243", "operator:zh": "\u4e5d\u5df4", "owner": "\u4e5d\u5df4 KMB", "owner:en": "KMB", "owner:wikidata": "Q312243", "owner:zh": "\u4e5d\u5df4", "public_transport": "platform", "ref:kmb": "NE01-E-1125-0", "route_ref": "14D;26;26X;27;27X;29M;88;96R;213D;214"}}, {"type": "node", "id": 2405964774, "lat": 22.3325947, "lon": 114.2154264, "tags": {"bus": "yes", "highway": "bus_stop", "name": "\u767d\u8679\u6a13 Pak Hung House", "name:en": "Pak Hung House", "name:zh": "\u767d\u8679\u6a13", "network": "KMB", "network:wikidata": "Q312243", "operator": "\u4e5d\u5df4 KMB", "operator:en": "KMB", "operator:wikidata": "Q312243", "operator:zh": "\u4e5d\u5df4", "owner": "\u4e5d\u5df4 KMB", "owner:en": "KMB", "owner:wikidata": "Q312243", "owner:zh": "\u4e5d\u5df4", "public_transport": "platform", "ref:kmb": "NE01-E-1000-0", "route_ref": "3M;10;21;92;96R;606;606A;N216", "shelter": "yes"}}, {"type": "node", "id": 2405964775, "lat": 22.3342983, "lon": 114.2118283, "tags": {"bus": "yes", "highway": "bus_stop", "local_ref": "WT227", "location": "Clear Water Bay Road", "name": "\u5f69\u96f2\u8056\u82e5\u745f\u5c0f\u5b78 Choi Wan St. Joseph's Primary School", "name:en": "Choi Wan St. Joseph's Primary School", "name:zh": "\u5f69\u96f2\u8056\u82e5\u745f\u5c0f\u5b78", "network": "KMB", "network:wikidata": "Q312243", "operator": "\u4e5d\u5df4 KMB", "operator:en": "KMB", "operator:wikidata": "Q312243", "operator:zh": "\u4e5d\u5df4", "owner": "\u4e5d\u5df4 KMB", "owner:en": "KMB", "owner:wikidata": "Q312243", "owner:zh": "\u4e5d\u5df4", "public_transport": "platform", "ref:kmb": "CL01-E-1240-0", "route_ref": "19;42;88;95;213D;214;606;606A;N216"}}, {"type": "node", "id": 2405991166, "lat": 22.3340218, "lon": 114.2100432, "tags": {"bus": "yes", "highway": "bus_stop", "local_ref": "K5", "location": "Ping Shek Public Transport Interchange", "name": "\u5f69\u8679\u7ad9 Choi Hung Station", "name:en": "Choi Hung Station", "name:zh": "\u5f69\u8679\u7ad9", "network": "KMB", "network:wikidata": "Q312243", "operator": "\u4e5d\u5df4 KMB", "operator:en": "KMB", "operator:wikidata": "Q312243", "operator:zh": "\u4e5d\u5df4", "owner": "\u4e5d\u5df4 KMB", "owner:en": "KMB", "owner:wikidata": "Q312243", "owner:zh": "\u4e5d\u5df4", "public_transport": "platform", "ref:kmb": "PI01-T-1200-0", "route_ref": "29M", "shelter": "yes"}}, {"type": "node", "id": 2405991180, "lat": 22.3344709, "lon": 114.2102905, "tags": {"addr:street": "Clear Water Bay Road", "bus": "yes", "highway": "bus_stop", "local_ref": "F2", "name": "\u725b\u6c60\u7063\u8857\u5e02 Ngau Chi Wan Market", "name:en": "Ngau Chi Wan Market", "name:zh": "\u725b\u6c60\u7063\u8857\u5e02", "network": "KMB", "network:wikidata": "Q312243", "operator": "\u4e5d\u5df4 KMB", "operator:en": "KMB", "operator:wikidata": "Q312243", "operator:zh": "\u4e5d\u5df4", "owner": "\u4e5d\u5df4 KMB", "owner:en": "KMB", "owner:wikidata": "Q312243", "owner:zh": "\u4e5d\u5df4", "public_transport": "platform", "ref:kmb": "CL01-E-1225-0", "route_ref": "3M;10;14D;21;26;26X"}}, {"type": "node", "id": 2512795740, "lat": 22.3252956, "lon": 114.2143889, "tags": {"addr:street": "Kwun Tong Road", "bus": "yes", "highway": "bus_stop", "name": "\u4e5d\u9f8d\u7063\u7ad9\uff08\u6771\u4e5d\u6587\u5316\u4e2d\u5fc3\uff09 Kowloon Bay Station (EKCC)", "name:en": "Kowloon Bay Station (EKCC)", "name:zh": "\u4e5d\u9f8d\u7063\u7ad9\uff08\u6771\u4e5d\u6587\u5316\u4e2d\u5fc3\uff09", "operator": "\u4e5d\u5df4 KMB", "public_transport": "platform", "ref": "KW16-E-1250-0", "route_ref": "74C;74D;74E;74F;74P;74X;80;80P", "shelter": "yes"}}, {"type": "node", "id": 2590461549, "lat": 22.3248142, "lon": 114.2140745, "tags": {"addr:street": "Kwun Tong Road", "bus": "yes", "comment": "Temporary position until 2023-06-30", "highway": "bus_stop", "name": "\u4e5d\u9f8d\u7063\u7ad9 Kowloon Bay Station", "name:en": "Kowloon Bay Station", "name:zh": "\u4e5d\u9f8d\u7063\u7ad9", "network": "KMB", "network:wikidata": "Q312243", "operator": "\u4e5d\u5df4 KMB", "operator:en": "KMB", "operator:wikidata": "Q312243", "operator:zh": "\u4e5d\u5df4", "owner": "\u4e5d\u5df4 KMB", "owner:en": "KMB", "owner:wikidata": "Q312243", "owner:zh": "\u4e5d\u5df4", "public_transport": "platform", "ref:kmb": "KW16-W-2250-0", "route_ref": "1A;6P;11D;13P;16;296C;671;671X", "shelter": "yes"}}, {"type": "node", "id": 2690901278, "lat": 22.3342638, "lon": 114.2093658, "tags": {"bus": "yes", "highway": "bus_stop", "name": "\u725b\u6c60\u7063\u8857\u5e02 Ngau Chi Wan Market", "name:en": "Ngau Chi Wan Market", "name:zh": "\u725b\u6c60\u7063\u8857\u5e02", "network": "CTB;Cityflyer", "network:wikidata": "Q5124055;Q5124066", "operator": "\u57ce\u5df4 Citybus", "operator:en": "Citybus", "operator:wikidata": "Q5124055", "operator:zh": "\u57ce\u5df4", "owner": "\u57ce\u5df4 Citybus", "owner:en": "Citybus", "owner:wikidata": "Q5124055", "owner:zh": "\u57ce\u5df4", "public_transport": "platform", "ref:ctb": "1653A", "route_ref": "A28;E22P;N26", "shelter": "no"}}, {"type": "node", "id": 2810264135, "lat": 22.3289236, "lon": 114.2253069, "tags": {"bus": "yes", "highway": "bus_stop", "name": "\u9806\u5229\u90a8\u516c\u5712 Shun Lee Tsuen Park", "name:en": "Shun Lee Tsuen Park", "name:zh": "\u9806\u5229\u90a8\u516c\u5712", "network": "KMB", "network:wikidata": "Q312243", "operator": "\u4e5d\u5df4 KMB", "operator:en": "KMB", "operator:wikidata": "Q312243", "operator:zh": "\u4e5d\u5df4", "owner": "\u4e5d\u5df4 KMB", "owner:en": "KMB", "owner:wikidata": "Q312243", "owner:zh": "\u4e5d\u5df4", "public_transport": "platform", "route_ref": "95"}}, {"type": "node", "id": 3150107790, "lat": 22.3339035, "lon": 114.2225146, "tags": {"bus": "yes", "highway": "bus_stop", "name": "\u5fb7\u671b\u5b78\u6821 Good Hope School", "name:en": "Good Hope School", "name:zh": "\u5fb7\u671b\u5b78\u6821", "network": "KMB", "network:wikidata": "Q312243", "operator": "\u4e5d\u5df4 KMB", "public_transport": "platform", "ref:hkbus": "\u5fb7\u671b\u5b78\u6821 (\u65b0\u6e05\u6c34\u7063\u9053)", "ref:kmb": "NE01-E-1250-0"}}, {"type": "node", "id": 3150107796, "lat": 22.3337932, "lon": 114.221285, "tags": {"bus": "yes", "highway": "bus_stop", "name": "\u5fb7\u671b\u5b78\u6821 Good Hope School", "name:en": "Good Hope School", "name:zh": "\u5fb7\u671b\u5b78\u6821", "operator": "KMB", "public_transport": "platform", "ref:hkbus": "\u5fb7\u671b\u5b78\u6821 (\u6e05\u6c34\u7063\u9053)", "ref:kmb": "CL01-W-2000-0"}}, {"type": "node", "id": 4333631504, "lat": 22.3339518, "lon": 114.2100578, "tags": {"bus": "yes", "highway": "bus_stop", "local_ref": "K2", "location": "Ping Shek Public Transport Interchange", "name": "\u5f69\u8679\u7ad9 Choi Hung Station", "name:en": "Choi Hung Station", "name:zh": "\u5f69\u8679\u7ad9", "network": "KMB", "network:wikidata": "Q312243", "operator": "\u4e5d\u5df4 KMB", "operator:en": "KMB", "operator:wikidata": "Q312243", "operator:zh": "\u4e5d\u5df4", "owner": "\u4e5d\u5df4 KMB", "owner:en": "KMB", "owner:wikidata": "Q312243", "owner:zh": "\u4e5d\u5df4", "public_transport": "platform", "ref:kmb": "PI01-T-1100-0", "route_ref": "10;91;91A;91M;91P;92;92R;96R;291P", "shelter": "yes"}}, {"type": "node", "id": 4333631505, "lat": 22.3341118, "lon": 114.2100081, "tags": {"bus": "yes", "highway": "bus_stop", "local_ref": "K7", "name": "\u5f69\u8679\u7ad9 Choi Hung Station", "name:en": "Choi Hung Station", "name:zh": "\u5f69\u8679\u7ad9", "network": "KMB", "network:wikidata": "Q312243", "operator": "\u4e5d\u5df4 KMB", "operator:en": "KMB", "operator:wikidata": "Q312243", "operator:zh": "\u4e5d\u5df4", "owner": "\u4e5d\u5df4 KMB", "owner:en": "KMB", "owner:wikidata": "Q312243", "owner:zh": "\u4e5d\u5df4", "public_transport": "platform", "ref:kmb": "PI01-T-1300-0", "route_ref": "9;19;26;26X;27;95;213A;213D;214;214P;290;290A;290X;N214;N216;N290"}}, {"type": "node", "id": 4333631506, "lat": 22.3341613, "lon": 114.2102888, "tags": {"bus": "yes", "highway": "bus_stop", "local_ref": "K6", "location": "Ping Shek Public Transport Interchange", "name": "\u5f69\u8679\u7ad9 Choi Hung Station", "name:en": "Choi Hung Station", "name:zh": "\u5f69\u8679\u7ad9", "network": "KMB", "network:wikidata": "Q312243", "operator": "\u4e5d\u5df4 KMB", "operator:en": "KMB", "operator:wikidata": "Q312243", "operator:zh": "\u4e5d\u5df4", "owner": "\u4e5d\u5df4 KMB", "owner:en": "KMB", "owner:wikidata": "Q312243", "owner:zh": "\u4e5d\u5df4", "public_transport": "platform", "ref:kmb": "PI01-T-1250-0", "route_ref": "14D;26M;292P;606;606A"}}, {"type": "node", "id": 4333631507, "lat": 22.3334246, "lon": 114.2146939, "tags": {"bus": "yes", "highway": "bus_stop", "name": "\u5f69\u96f2\u90a8 Choi Wan Estate", "name:en": "Choi Wan Estate", "name:zh": "\u5f69\u96f2\u90a8", "operator": "KMB", "public_transport": "platform", "ref:hkbus": "\u5f69\u96f2\u90a8", "ref:kmb": "CL01-W-2050-0", "route_ref": "91;91M;92;292P;606;606A"}}, {"type": "node", "id": 4333631518, "lat": 22.333765, "lon": 114.2100979, "tags": {"bench": "no", "bus": "yes", "highway": "bus_stop", "local_ref": "K1", "location": "Ping Shek Public Transport Interchange", "name": "\u576a\u77f3\u7e3d\u7ad9 Ping Shek Bus Terminus", "name:en": "Ping Shek Bus Terminus", "name:zh": "\u576a\u77f3\u7e3d\u7ad9", "network": "KMB", "network:wikidata": "Q312243", "operator": "\u4e5d\u5df4 KMB", "operator:en": "KMB", "operator:wikidata": "Q312243", "operator:zh": "\u4e5d\u5df4", "owner": "\u4e5d\u5df4 KMB", "owner:en": "KMB", "owner:wikidata": "Q312243", "owner:zh": "\u4e5d\u5df4", "public_transport": "platform", "ref:kmb": "PI01-T-1000-0", "route_ref": "111", "shelter": "yes"}}, {"type": "node", "id": 4333631519, "lat": 22.3340693, "lon": 114.2103022, "tags": {"bus": "yes", "highway": "bus_stop", "local_ref": "K3", "location": "Ping Shek Public Transport Interchange", "name": "\u5f69\u8679\u7ad9 Choi Hung Station", "name:en": "Choi Hung Station", "name:zh": "\u5f69\u8679\u7ad9", "network": "KMB", "network:wikidata": "Q312243", "operator": "\u4e5d\u5df4 KMB", "operator:en": "KMB", "operator:wikidata": "Q312243", "operator:zh": "\u4e5d\u5df4", "owner": "\u4e5d\u5df4 KMB", "owner:en": "KMB", "owner:wikidata": "Q312243", "owner:zh": "\u4e5d\u5df4", "public_transport": "platform", "ref:kmb": "PI01-T-1150-0", "route_ref": "3M;21", "shelter": "yes"}}, {"type": "node", "id": 4333631520, "lat": 22.3341409, "lon": 114.2101666, "tags": {"bus": "yes", "highway": "bus_stop", "location": "Ping Shek Public Transport Interchange", "name": "\u576a\u77f3\u90a8 Ping Shek Estate", "name:en": "Ping Shek Estate", "name:zh": "\u576a\u77f3\u90a8", "network": "Citybus;Cityflyer", "network:wikidata": "Q5124055;Q5124066", "operator": "\u57ce\u5df4 Citybus", "operator:en": "Citybus", "operator:wikidata": "Q5124055", "operator:zh": "\u57ce\u5df4", "owner": "\u57ce\u5df4 Citybus", "owner:en": "Citybus", "owner:wikidata": "Q5124055", "owner:zh": "\u57ce\u5df4", "public_transport": "platform", "ref:ctb": "1654A", "route_ref": "A28;E22P;N26"}}, {"type": "node", "id": 4338376775, "lat": 22.3325178, "lon": 114.2234553, "tags": {"bus": "yes", "highway": "bus_stop", "location": "New Clear Water Bay Road", "name": "\u57fa\u9806\u5b78\u6821 Kei Shun Special School", "name:en": "Kei Shun Special School", "name:zh": "\u57fa\u9806\u5b78\u6821", "network": "KMB", "network:wikidata": "Q312243", "operator": "\u4e5d\u5df4 KMB", "operator:en": "KMB", "operator:wikidata": "Q312243", "operator:zh": "\u4e5d\u5df4", "owner": "\u4e5d\u5df4 KMB", "owner:en": "KMB", "owner:wikidata": "Q312243", "owner:zh": "\u4e5d\u5df4", "public_transport": "platform", "ref:kmb": "NE01-E-1150-0", "route_ref": "91;91M;92"}}, {"type": "node", "id": 4347488584, "lat": 22.3300617, "lon": 114.2109959, "tags": {"bus": "yes", "highway": "bus_stop", "name": "\u555f\u696d\u90a8 Kai Yip Estate", "name:en": "Kai Yip Estate", "name:zh": "\u555f\u696d\u90a8", "network": "\u4e5d\u5df4 KMB", "network:en": "KMB", "network:wikidata": "Q312243", "network:zh": "\u4e5d\u5df4", "operator": "\u4e5d\u5df4 KMB", "operator:en": "KMB", "operator:wikidata": "Q312243", "operator:zh": "\u4e5d\u5df4", "owner": "\u4e5d\u5df4 KMB", "owner:en": "KMB", "owner:wikidata": "Q312243", "owner:zh": "\u4e5d\u5df4", "public_transport": "platform", "ref:kmb": "KW16-E-1100-0", "route_ref": "11D;69C;74C;74D;74E;74P;74X;80X;83A;83X;268A;268C;269C;292P;889"}}, {"type": "node", "id": 4457380090, "lat": 22.3302078, "lon": 114.2108354, "tags": {"bus": "yes", "highway": "bus_stop", "name": "\u555f\u696d\u90a8 Kai Yip Estate", "name:en": "Kai Yip Estate", "name:zh": "\u555f\u696d\u90a8", "network": "\u4e5d\u5df4 KMB", "network:en": "KMB", "network:wikidata": "Q312243", "network:zh": "\u4e5d\u5df4", "operator": "\u4e5d\u5df4 KMB", "operator:en": "KMB", "operator:wikidata": "Q312243", "operator:zh": "\u4e5d\u5df4", "owner": "\u4e5d\u5df4 KMB", "owner:en": "KMB", "owner:wikidata": "Q312243", "owner:zh": "\u4e5d\u5df4", "public_transport": "platform", "ref:kmb": "KW16-E-1050-0", "route_ref": "6P;14;15;16;42C;62P;62X;89D;252X;258A;258D;258P;258S;259D;267X;277A;277E;277P;277X;X42C", "shelter": "separate"}}, {"type": "node", "id": 4457419310, "lat": 22.3284374, "lon": 114.2122894, "tags": {"brand": "\u4e5d\u5df4 KMB", "brand:en": "KMB", "brand:zh": "\u4e5d\u5df4", "bus": "yes", "bus_bay": "left", "highway": "bus_stop", "name": "\u555f\u6cf0\u82d1 Kai Tai Court", "name:en": "Kai Tai Court", "name:zh": "\u555f\u6cf0\u82d1", "network": "\u4e5d\u5df4 KMB", "network:en": "KMB", "network:wikidata": "Q312243", "network:zh": "\u4e5d\u5df4", "operator": "\u4e5d\u5df4 KMB", "operator:en": "KMB", "operator:ownership": "private", "operator:type": "private", "operator:wikidata": "Q312243", "operator:zh": "\u4e5d\u5df4", "owner": "\u4e5d\u5df4 KMB", "owner:en": "KMB", "owner:wikidata": "Q312243", "owner:zh": "\u4e5d\u5df4", "ownership": "private", "public_transport": "platform", "ref:kmb": "KW16-W-2465-0", "route_ref": "42C;62X;69C;252X;258D;258P;259D;267X;268C;269C;X42C", "shelter": "yes"}}, {"type": "node", "id": 4457419311, "lat": 22.3245057, "lon": 114.214131, "tags": {"bus": "yes", "highway": "bus_stop", "name": "\u4e5d\u9f8d\u7063\u7ad9 Kowloon Bay Station", "name:en": "Kowloon Bay Station", "name:zh": "\u4e5d\u9f8d\u7063\u7ad9", "operator": "\u4e5d\u5df4", "public_transport": "platform", "ref:kmb": "KW16-W-2230-0", "route_ref": "252X;258D;258P;267X"}}, {"type": "node", "id": 4481795801, "lat": 22.3257615, "lon": 114.2144017, "tags": {"addr:street": "Kwun Tong Road", "bench": "yes", "bus": "yes", "highway": "bus_stop", "name": "\u4e5d\u9f8d\u7063\u7ad9\uff08\u6771\u4e5d\u6587\u5316\u4e2d\u5fc3\uff09 Kowloon Bay Station (EKCC)", "name:en": "Kowloon Bay Station (EKCC)", "name:zh": "\u4e5d\u9f8d\u7063\u7ad9\uff08\u6771\u4e5d\u6587\u5316\u4e2d\u5fc3\uff09", "network": "KMB", "network:wikidata": "Q312243", "operator": "\u4e5d\u5df4 KMB", "operator:en": "KMB", "operator:wikidata": "Q312243", "operator:zh": "\u4e5d\u5df4", "owner": "\u4e5d\u5df4 KMB", "owner:en": "KMB", "owner:wikidata": "Q312243", "owner:zh": "\u4e5d\u5df4", "public_transport": "platform", "ref:kmb": "KW16-E-1125-0", "route_ref": "6P;14;15;15X;16;38;62P;62X;88X;259D;671;889", "shelter": "separate"}}, {"type": "node", "id": 4714440789, "lat": 22.3287833, "lon": 114.2118303, "tags": {"bench": "yes", "bus": "yes", "highway": "bus_stop", "name": "\u555f\u6cf0\u82d1 Kai Tai Court", "name:en": "Kai Tai Court", "name:zh": "\u555f\u6cf0\u82d1", "network": "\u4e5d\u5df4 KMB", "network:en": "KMB", "network:wikidata": "Q312243", "network:zh": "\u4e5d\u5df4", "operator": "\u4e5d\u5df4 KMB", "operator:en": "KMB", "operator:wikidata": "Q312243", "operator:zh": "\u4e5d\u5df4", "owner": "\u4e5d\u5df4 KMB", "owner:en": "KMB", "owner:wikidata": "Q312243", "owner:zh": "\u4e5d\u5df4", "public_transport": "platform", "ref:kmb": "KW16-W-2490-0", "route_ref": "3D;11C;N3D", "shelter": "separate"}}, {"type": "node", "id": 4714440889, "lat": 22.3305961, "lon": 114.2097274, "tags": {"bench": "yes", "bus": "yes", "highway": "bus_stop", "name": "\u555f\u696d\u90a8 Kai Yip Estate", "name:en": "Kai Yip Estate", "name:zh": "\u555f\u696d\u90a8", "network": "\u4e5d\u5df4 KMB", "network:en": "KMB", "network:wikidata": "Q312243", "network:zh": "\u4e5d\u5df4", "operator": "\u4e5d\u5df4 KMB", "operator:en": "KMB", "operator:wikidata": "Q312243", "operator:zh": "\u4e5d\u5df4", "public_transport": "platform", "ref:kmb": "KW16-W-2800-0", "route_ref": "1A;2A;2X;13;13D;16;296C", "shelter": "yes"}}, {"type": "node", "id": 5037456644, "lat": 22.3285822, "lon": 114.2121211, "tags": {"highway": "bus_stop", "minibus": "yes", "network": "\u9999\u6e2f\u5c0f\u578b\u5df4\u58eb Public light bus", "network:en": "Public light bus", "network:wikidata": "Q4389972", "network:zh": "\u9999\u6e2f\u5c0f\u578b\u5df4\u58eb", "public_transport": "platform", "route_ref": "102;102B"}}, {"type": "node", "id": 5265469560, "lat": 22.3305803, "lon": 114.2104491, "tags": {"bench": "yes", "bus": "yes", "highway": "bus_stop", "name": "\u555f\u696d\u90a8 Kai Yip Estate", "name:en": "Kai Yip Estate", "name:zh": "\u555f\u696d\u90a8", "network": "\u4e5d\u5df4 KMB", "network:en": "KMB", "network:wikidata": "Q312243", "network:zh": "\u4e5d\u5df4", "operator": "\u4e5d\u5df4 KMB", "operator:en": "KMB", "operator:wikidata": "Q312243", "operator:zh": "\u4e5d\u5df4", "owner": "\u4e5d\u5df4 KMB", "owner:en": "KMB", "owner:wikidata": "Q312243", "owner:zh": "\u4e5d\u5df4", "public_transport": "platform", "ref:kmb": "KW16-E-1025-0", "route_ref": "1A;3D;9;11B;11C;17;89B;89C;89X;101;101R;606;606A;671;N3D", "shelter": "yes"}}, {"type": "node", "id": 5265469561, "lat": 22.3306989, "lon": 114.2103033, "tags": {"bench": "yes", "bus": "yes", "highway": "bus_stop", "name": "\u555f\u696d\u90a8 Kai Yip Estate", "name:en": "Kai Yip Estate", "name:zh": "\u555f\u696d\u90a8", "network": "\u4e5d\u5df4 KMB", "network:en": "KMB", "network:wikidata": "Q312243", "network:zh": "\u4e5d\u5df4", "operator": "\u4e5d\u5df4 KMB", "operator:en": "KMB", "operator:wikidata": "Q312243", "operator:zh": "\u4e5d\u5df4", "owner": "\u4e5d\u5df4 KMB", "owner:en": "KMB", "owner:wikidata": "Q312243", "owner:zh": "\u4e5d\u5df4", "public_transport": "platform", "ref:kmb": "KW16-E-1000-0", "route_ref": "2A;2X;5M;6D;13;13D;28;93K;296C;N121;N293", "shelter": "yes"}}, {"type": "node", "id": 5265469562, "lat": 22.3303169, "lon": 114.2100697, "tags": {"bench": "yes", "bus": "yes", "highway": "bus_stop", "name": "\u555f\u696d\u90a8 Kai Yip Estate", "name:en": "Kai Yip Estate", "name:zh": "\u555f\u696d\u90a8", "network": "\u4e5d\u5df4 KMB", "network:en": "KMB", "network:wikidata": "Q312243", "network:zh": "\u4e5d\u5df4", "operator": "\u4e5d\u5df4 KMB", "operator:en": "KMB", "operator:wikidata": "Q312243", "operator:zh": "\u4e5d\u5df4", "public_transport": "platform", "ref:kmb": "KW16-W-2700-0", "route_ref": "6D;6P;40;89;89X", "shelter": "yes"}}, {"type": "node", "id": 6427504140, "lat": 22.3312457, "lon": 114.2133547, "tags": {"bus": "yes", "highway": "bus_stop", "name": "\u5f69\u8208\u82d1 Choi Hing Court", "name:en": "Choi Hing Court", "name:zh": "\u5f69\u8208\u82d1", "network": "KMB", "network:wikidata": "Q312243", "operator": "\u4e5d\u5df4 KMB", "operator:en": "KMB", "operator:wikidata": "Q312243", "operator:zh": "\u4e5d\u5df4", "owner": "\u4e5d\u5df4 KMB", "owner:en": "KMB", "owner:wikidata": "Q312243", "owner:zh": "\u4e5d\u5df4", "public_transport": "platform", "ref:hkbus": "\u5f69\u8208\u82d1", "ref:kmb": "CH44-E-1000-0"}}, {"type": "node", "id": 7249170786, "lat": 22.3316364, "lon": 114.2246848, "tags": {"bus": "yes", "highway": "bus_stop", "name": "\u5229\u660e\u6a13 Lee Ming House", "name:en": "Lee Ming House", "name:yue-Hant": "\u5229\u660e\u6a13", "name:zh": "\u5229\u660e\u6a13", "network": "KMB", "network:wikidata": "Q312243", "operator": "KMB", "public_transport": "platform", "route_ref": "619;619P;619X;N619"}}, {"type": "node", "id": 7470409822, "lat": 22.3312229, "lon": 114.2123687, "tags": {"bus": "yes", "highway": "bus_stop", "name": "\u5f69\u8208\u8def Choi Hing Road", "name:en": "Choi Hing Road", "name:zh": "\u5f69\u8208\u8def", "public_transport": "platform", "ref:hkbus": "\u5f69\u8208\u8def", "ref:kmb": "CH44-E-0950-0", "route_ref": "9;111P;606;606A"}}, {"type": "node", "id": 8900138258, "lat": 22.3382014, "lon": 114.2142007, "tags": {"bus": "yes", "highway": "bus_stop", "public_transport": "platform"}}, {"type": "node", "id": 9921844165, "lat": 22.3304526, "lon": 114.2099143, "tags": {"bus": "yes", "highway": "bus_stop", "name": "\u555f\u696d\u90a8 Kai Yip Estate", "name:en": "Kai Yip Estate", "name:zh": "\u555f\u696d\u90a8", "network": "\u4e5d\u5df4 KMB", "network:en": "KMB", "network:wikidata": "Q312243", "network:zh": "\u4e5d\u5df4", "operator": "\u4e5d\u5df4 KMB", "operator:en": "KMB", "operator:wikidata": "Q312243", "operator:zh": "\u4e5d\u5df4", "public_transport": "platform", "ref:kmb": "KW16-W-2750-0", "route_ref": "101;N121;N293", "shelter": "yes"}}, {"type": "node", "id": 9951284197, "lat": 22.3306701, "lon": 114.2103277, "tags": {"bus": "yes", "highway": "bus_stop", "name": "\u555f\u696d\u90a8 Kai Yip Estate", "name:en": "Kai Yip Estate", "name:zh": "\u555f\u696d\u90a8", "network": "\u65b0\u5df4 NWFB;\u57ce\u5df4 Citybus", "network:en": "NWFB;Citybus", "network:wikidata": "Q3408488;Q5124055", "network:zh": "\u65b0\u5df4;\u57ce\u5df4", "operator": "\u65b0\u5df4 NWFB;\u57ce\u5df4 Citybus", "operator:en": "NWFB;Citybus", "operator:wikidata": "Q3408488;Q5124055", "operator:zh": "\u65b0\u5df4;\u57ce\u5df4", "owner": "\u65b0\u5df4 NWFB;\u57ce\u5df4 Citybus", "owner:en": "NWFB;Citybus", "owner:wikidata": "Q3408488;Q5124055", "owner:zh": "\u65b0\u5df4 NWFB;\u57ce\u5df4 Citybus", "public_transport": "platform", "ref:ctb": "1504A", "route_ref": "55;78P;A22;N29;N796"}}, {"type": "node", "id": 9951284200, "lat": 22.3307769, "lon": 114.2101964, "tags": {"highway": "bus_stop", "minibus": "yes", "network": "\u9999\u6e2f\u5c0f\u578b\u5df4\u58eb Public light bus", "network:en": "Public light bus", "network:wikidata": "Q4389972", "network:zh": "\u9999\u6e2f\u5c0f\u578b\u5df4\u58eb", "public_transport": "platform", "route_ref": "82;102"}}, {"type": "node", "id": 9955165366, "lat": 22.328511, "lon": 114.2122045, "tags": {"bus": "yes", "highway": "bus_stop", "name": "\u555f\u6cf0\u82d1 Kai Tai Court", "name:en": "Kai Tai Court", "name:zh": "\u555f\u6cf0\u82d1", "network": "\u4e5d\u5df4 KMB", "network:en": "KMB", "network:wikidata": "Q312243", "network:zh": "\u4e5d\u5df4", "operator": "\u4e5d\u5df4 KMB", "operator:en": "KMB", "operator:wikidata": "Q312243", "operator:zh": "\u4e5d\u5df4", "owner": "\u4e5d\u5df4 KMB", "owner:en": "KMB", "owner:wikidata": "Q312243", "owner:zh": "\u4e5d\u5df4", "public_transport": "platform", "ref:kmb": "KW16-W-2475-0", "route_ref": "38;40A;40P;74D;74E;74F;74P;74X;274X;277A;277E;277P;277X;671;671X", "shelter": "yes"}}, {"type": "node", "id": 9955165379, "lat": 22.328691, "lon": 114.2119531, "tags": {"bench": "yes", "bus": "yes", "highway": "bus_stop", "name": "\u555f\u6cf0\u82d1 Kai Tai Court", "name:en": "Kai Tai Court", "name:zh": "\u555f\u6cf0\u82d1", "network": "\u4e5d\u5df4 KMB", "network:en": "KMB", "network:wikidata": "Q312243", "network:zh": "\u4e5d\u5df4", "operator": "\u4e5d\u5df4 KMB", "operator:en": "KMB", "operator:wikidata": "Q312243", "operator:zh": "\u4e5d\u5df4", "owner": "\u4e5d\u5df4 KMB", "owner:en": "KMB", "owner:wikidata": "Q312243", "owner:zh": "\u4e5d\u5df4", "public_transport": "platform", "ref:kmb": "KW16-W-2480-0", "route_ref": "11B;11D;14;15;17;93K", "shelter": "separate"}}, {"type": "node", "id": 9955165380, "lat": 22.3288402, "lon": 114.2117519, "tags": {"bus": "yes", "highway": "bus_stop", "name": "\u555f\u6cf0\u82d1 Kai Tai Court", "name:en": "Kai Tai Court", "name:zh": "\u555f\u6cf0\u82d1", "network": "\u4e5d\u5df4 KMB", "network:en": "KMB", "network:wikidata": "Q312243", "network:zh": "\u4e5d\u5df4", "operator": "\u4e5d\u5df4 KMB", "operator:en": "KMB", "operator:wikidata": "Q312243", "operator:zh": "\u4e5d\u5df4", "owner": "\u4e5d\u5df4 KMB", "owner:en": "KMB", "owner:wikidata": "Q312243", "owner:zh": "\u4e5d\u5df4", "public_transport": "platform", "ref:kmb": "KW16-W-2500-0", "route_ref": "80;80X;83X;89B;89C;89D"}}, {"type": "node", "id": 9955165381, "lat": 22.3288477, "lon": 114.211746, "tags": {"bus": "yes", "highway": "bus_stop", "name": "\u555f\u6cf0\u82d1 Kai Tai Court", "name:en": "Kai Tai Court", "name:zh": "\u555f\u6cf0\u82d1", "network": "\u57ce\u5df4 Citybus", "network:en": "Citybus", "network:wikidata": "Q5124055", "network:zh": "\u57ce\u5df4", "operator": "\u57ce\u5df4 Citybus", "operator:en": "Citybus", "operator:wikidata": "Q5124055", "operator:zh": "\u57ce\u5df4", "owner": "\u57ce\u5df4 Citybus", "owner:en": "Citybus", "owner:wikidata": "Q5124055", "owner:zh": "\u57ce\u5df4", "public_transport": "platform", "ref:ctb": "1501A", "route_ref": "55;A22;E22;E22X;N29"}}, {"type": "node", "id": 9961981320, "lat": 22.3255481, "lon": 114.2143993, "tags": {"bench": "yes", "bus": "yes", "highway": "bus_stop", "name": "\u4e5d\u9f8d\u7063\u7ad9\uff08\u6771\u4e5d\u6587\u5316\u4e2d\u5fc3\uff09 Kowloon Bay Station (EKCC)", "name:en": "Kowloon Bay Station (EKCC)", "name:zh": "\u4e5d\u9f8d\u7063\u7ad9\uff08\u6771\u4e5d\u6587\u5316\u4e2d\u5fc3\uff09", "network": "KMB", "network:wikidata": "Q312243", "operator": "\u4e5d\u5df4 KMB", "operator:en": "KMB", "operator:wikidata": "Q312243", "operator:zh": "\u4e5d\u5df4", "owner": "\u4e5d\u5df4 KMB", "owner:en": "KMB", "owner:wikidata": "Q312243", "owner:zh": "\u4e5d\u5df4", "public_transport": "platform", "ref:kmb": "KW16-E-1150-0", "route_ref": "1A;3D;11C;17;101;101R;N3D", "shelter": "separate"}}, {"type": "node", "id": 9961981323, "lat": 22.3254325, "lon": 114.2143938, "tags": {"bench": "yes", "bus": "yes", "highway": "bus_stop", "name": "\u4e5d\u9f8d\u7063\u7ad9\uff08\u6771\u4e5d\u6587\u5316\u4e2d\u5fc3\uff09 Kowloon Bay Station (EKCC)", "name:en": "Kowloon Bay Station (EKCC)", "name:zh": "\u4e5d\u9f8d\u7063\u7ad9\uff08\u6771\u4e5d\u6587\u5316\u4e2d\u5fc3\uff09", "network": "KMB", "network:wikidata": "Q312243", "operator": "\u4e5d\u5df4 KMB", "operator:en": "KMB", "operator:wikidata": "Q312243", "operator:zh": "\u4e5d\u5df4", "owner": "\u4e5d\u5df4 KMB", "owner:en": "KMB", "owner:wikidata": "Q312243", "owner:zh": "\u4e5d\u5df4", "public_transport": "platform", "ref:kmb": "KW16-E-1200-0", "route_ref": "11B;40;40A;40P;89B;89C;89X", "shelter": "separate"}}, {"type": "node", "id": 9961981324, "lat": 22.3254146, "lon": 114.2143929, "tags": {"bus": "yes", "highway": "bus_stop", "name": "\u4e5d\u9f8d\u7063\u7ad9 Kowloon Bay Station", "name:en": "Kowloon Bay Station", "name:zh": "\u4e5d\u9f8d\u7063\u7ad9", "network": "CTB;Cityflyer", "network:wikidata": "Q5124055;Q5124066", "operator": "\u57ce\u5df4 Citybus", "operator:en": "Citybus", "operator:wikidata": "Q5124055", "operator:zh": "\u57ce\u5df4", "owner": "\u57ce\u5df4 Citybus", "owner:en": "Citybus", "owner:wikidata": "Q5124055", "owner:zh": "\u57ce\u5df4", "public_transport": "platform", "ref:ctb": "1505A", "route_ref": "55;78P;A22;A29;E22;E22A;E22C;E22X;N29;N796;NA29", "shelter": "yes"}}, {"type": "node", "id": 9967040426, "lat": 22.3252343, "lon": 114.213995, "tags": {"bus": "yes", "highway": "bus_stop", "name": "\u4e5d\u9f8d\u7063\u7ad9 Kowloon Bay Station", "name:en": "Kowloon Bay Station", "name:zh": "\u4e5d\u9f8d\u7063\u7ad9", "network": "KMB", "network:wikidata": "Q312243", "operator": "\u4e5d\u5df4 KMB", "operator:en": "KMB", "operator:wikidata": "Q312243", "operator:zh": "\u4e5d\u5df4", "owner": "\u4e5d\u5df4 KMB", "owner:en": "KMB", "owner:wikidata": "Q312243", "owner:zh": "\u4e5d\u5df4", "public_transport": "platform", "ref:kmb": "KW16-W-2300-0", "route_ref": "3D;11C;N3D"}}, {"type": "node", "id": 9967040428, "lat": 22.3253687, "lon": 114.2139857, "tags": {"bus": "yes", "highway": "bus_stop", "name": "\u4e5d\u9f8d\u7063\u7ad9 Kowloon Bay Station", "name:en": "Kowloon Bay Station", "name:zh": "\u4e5d\u9f8d\u7063\u7ad9", "network": "KMB", "network:wikidata": "Q312243", "operator": "\u4e5d\u5df4 KMB", "operator:en": "KMB", "operator:wikidata": "Q312243", "operator:zh": "\u4e5d\u5df4", "owner": "\u4e5d\u5df4 KMB", "owner:en": "KMB", "owner:wikidata": "Q312243", "owner:zh": "\u4e5d\u5df4", "public_transport": "platform", "ref:kmb": "KW16-W-2350-0", "route_ref": "11B;14;15;17;93K"}}, {"type": "node", "id": 9967040430, "lat": 22.3254359, "lon": 114.2139809, "tags": {"bus": "yes", "highway": "bus_stop", "name": "\u4e5d\u9f8d\u7063\u7ad9 Kowloon Bay Station", "name:en": "Kowloon Bay Station", "name:zh": "\u4e5d\u9f8d\u7063\u7ad9", "network": "KMB", "network:wikidata": "Q312243", "operator": "\u4e5d\u5df4 KMB", "operator:en": "KMB", "operator:wikidata": "Q312243", "operator:zh": "\u4e5d\u5df4", "owner": "\u4e5d\u5df4 KMB", "owner:en": "KMB", "owner:wikidata": "Q312243", "owner:zh": "\u4e5d\u5df4", "public_transport": "platform", "ref:kmb": "KW16-W-2400-0", "route_ref": "80X;83X;88X;89C;89D;89X"}}, {"type": "node", "id": 9967040431, "lat": 22.3254806, "lon": 114.2139765, "tags": {"bus": "yes", "highway": "bus_stop", "name": "\u4e5d\u9f8d\u7063\u7ad9 Kowloon Bay Station", "name:en": "Kowloon Bay Station", "name:zh": "\u4e5d\u9f8d\u7063\u7ad9", "network": "CTB;Cityflyer", "network:wikidata": "Q5124055;Q5124066", "operator": "\u57ce\u5df4 Citybus", "operator:en": "Citybus", "operator:wikidata": "Q5124055", "operator:zh": "\u57ce\u5df4", "owner": "\u57ce\u5df4 Citybus", "owner:en": "Citybus", "owner:wikidata": "Q5124055", "owner:zh": "\u57ce\u5df4", "public_transport": "platform", "ref:ctb": "1500A", "route_ref": "55;A22;A29;E22;E22X;N29;NA29"}}, {"type": "node", "id": 9967040432, "lat": 22.3255925, "lon": 114.2139657, "tags": {"bus": "yes", "highway": "bus_stop", "name": "\u4e5d\u9f8d\u7063\u7ad9 Kowloon Bay Station", "name:en": "Kowloon Bay Station", "name:zh": "\u4e5d\u9f8d\u7063\u7ad9", "network": "KMB", "network:wikidata": "Q312243", "operator": "\u4e5d\u5df4 KMB", "operator:en": "KMB", "operator:wikidata": "Q312243", "operator:zh": "\u4e5d\u5df4", "owner": "\u4e5d\u5df4 KMB", "owner:en": "KMB", "owner:wikidata": "Q312243", "owner:zh": "\u4e5d\u5df4", "public_transport": "platform", "ref:kmb": "KW16-W-2450-0", "route_ref": "33B;38;40;40A;40P;42C;74D;74E;74F;74P;74X;80;89B;234C;274X;277A;277E;277P;277X;X42C"}}, {"type": "node", "id": 10219469308, "lat": 22.3286358, "lon": 114.2172368, "tags": {"alt_name": "\u5f69\u798f\u90a8 Choi Fook Estate", "alt_name:en": "Choi Fook Estate", "alt_name:zh": "\u5f69\u798f\u90a8", "bus": "yes", "highway": "bus_stop", "name": "\u5f69\u798f Choi Fook", "name:en": "Choi Fook", "name:zh": "\u5f69\u798f", "network": "KMB", "network:wikidata": "Q312243", "operator": "\u4e5d\u5df4 KMB", "operator:en": "KMB", "operator:wikidata": "Q312243", "operator:zh": "\u4e5d\u5df4", "owner": "\u4e5d\u5df4 KMB", "owner:en": "KMB", "owner:wikidata": "Q312243", "owner:zh": "\u4e5d\u5df4", "public_transport": "platform", "ref:kmb": "CH42-W-0900-0", "route_ref": "2X;13X;111P"}}, {"type": "node", "id": 10275924871, "lat": 22.3334359, "lon": 114.2165426, "tags": {"bus": "yes", "highway": "bus_stop", "name": "\u89c0\u65e5\u6a13 Koon Yat House", "name:en": "Koon Yat House", "name:zh": "\u89c0\u65e5\u6a13", "network": "KMB", "network:wikidata": "Q312243", "operator": "\u4e5d\u5df4 KMB", "operator:en": "KMB", "operator:wikidata": "Q312243", "operator:zh": "\u4e5d\u5df4", "owner": "\u4e5d\u5df4 KMB", "owner:en": "KMB", "owner:wikidata": "Q312243", "owner:zh": "\u4e5d\u5df4", "public_transport": "platform", "ref:kmb": "FU04-N-1000-0", "route_ref": "3M;10;21", "shelter": "yes"}}, {"type": "node", "id": 10276117724, "lat": 22.3334064, "lon": 114.2149186, "tags": {"bus": "yes", "highway": "bus_stop", "name": "\u5f69\u96f2\u5df4\u58eb\u7e3d\u7ad9 Choi Wan Bus Terminus", "name:en": "Choi Wan Bus Terminus", "name:zh": "\u5f69\u96f2\u5df4\u58eb\u7e3d\u7ad9", "network": "\u4e5d\u5df4 KMB", "network:en": "KMB", "network:wikidata": "Q312243", "network:zh": "\u4e5d\u5df4", "operator": "\u4e5d\u5df4 KMB", "operator:en": "KMB", "operator:wikidata": "Q312243", "operator:zh": "\u4e5d\u5df4", "owner": "\u4e5d\u5df4 KMB", "owner:en": "KMB", "owner:wikidata": "Q312243", "owner:zh": "\u4e5d\u5df4", "public_transport": "platform", "ref:kmb": "CH12-T-1100-0", "route_ref": "10", "shelter": "yes"}}, {"type": "node", "id": 10276117725, "lat": 22.333281, "lon": 114.2149474, "tags": {"bus": "yes", "highway": "bus_stop", "name": "\u5f69\u96f2\u5df4\u58eb\u7e3d\u7ad9 Choi Wan Bus Terminus", "name:en": "Choi Wan Bus Terminus", "name:zh": "\u5f69\u96f2\u5df4\u58eb\u7e3d\u7ad9", "network": "KMB", "network:wikidata": "Q312243", "operator": "\u4e5d\u5df4 KMB", "operator:en": "KMB", "operator:wikidata": "Q312243", "operator:zh": "\u4e5d\u5df4", "owner": "\u4e5d\u5df4 KMB", "owner:en": "KMB", "owner:wikidata": "Q312243", "owner:zh": "\u4e5d\u5df4", "public_transport": "platform", "ref:kmb": "CH12-T-1000-0", "route_ref": "21", "shelter": "yes"}}, {"type": "node", "id": 10276117726, "lat": 22.3333409, "lon": 114.2149336, "tags": {"bus": "yes", "highway": "bus_stop", "name": "\u5f69\u96f2\u5df4\u58eb\u7e3d\u7ad9 Choi Wan Bus Terminus", "name:en": "Choi Wan Bus Terminus", "name:zh": "\u5f69\u96f2\u5df4\u58eb\u7e3d\u7ad9", "network": "\u4e5d\u5df4 KMB", "network:en": "KMB", "network:wikidata": "Q312243", "network:zh": "\u4e5d\u5df4", "operator": "\u4e5d\u5df4 KMB", "operator:en": "KMB", "operator:wikidata": "Q312243", "operator:zh": "\u4e5d\u5df4", "owner": "\u4e5d\u5df4 KMB", "owner:en": "KMB", "owner:wikidata": "Q312243", "owner:zh": "\u4e5d\u5df4", "public_transport": "platform", "ref:kmb": "CH12-T-1050-0", "route_ref": "3M", "shelter": "yes"}}, {"type": "node", "id": 10799091909, "lat": 22.3288259, "lon": 114.2171782, "tags": {"bus": "yes", "highway": "bus_stop", "name": "\u5f69\u798f Choi Fook", "name:en": "Choi Fook", "name:zh": "\u5f69\u798f", "network": "KMB", "network:wikidata": "Q312243", "operator": "\u4e5d\u5df4 KMB", "operator:en": "KMB", "operator:wikidata": "Q312243", "operator:zh": "\u4e5d\u5df4", "owner": "\u4e5d\u5df4 KMB", "owner:en": "KMB", "owner:wikidata": "Q312243", "owner:zh": "\u4e5d\u5df4", "public_transport": "platform", "ref:kmb": "CH42-W-1000-0", "route_ref": "9"}}, {"type": "node", "id": 11051210148, "lat": 22.3258082, "lon": 114.2166535, "tags": {"bus": "yes", "highway": "bus_stop", "name": "\u5f69\u9824\u5c45 Cheerful Court", "name:en": "Cheerful Court", "name:zh": "\u5f69\u9824\u5c45", "network": "Cityflyer", "network:wikidata": "Q5124066", "operator": "\u57ce\u5df4 Citybus", "operator:en": "Citybus", "operator:wikidata": "Q5124055", "operator:zh": "\u57ce\u5df4", "owner": "\u57ce\u5df4 Citybus", "owner:en": "Citybus", "owner:wikidata": "Q5124055", "owner:zh": "\u57ce\u5df4", "public_transport": "platform", "route_ref": "A26"}}, {"type": "node", "id": 11051210149, "lat": 22.3284037, "lon": 114.2155839, "tags": {"bus": "yes", "highway": "bus_stop", "name": "\u5f69\u76c8\u90a8\u76c8\u5b89\u6a13 Ying On House, Choi Ying Estate", "name:en": "Ying On House, Choi Ying Estate", "name:zh": "\u5f69\u76c8\u90a8\u76c8\u5b89\u6a13", "network": "Cityflyer", "network:wikidata": "Q5124066", "operator": "\u57ce\u5df4 Citybus", "operator:en": "Citybus", "operator:wikidata": "Q5124055", "operator:zh": "\u57ce\u5df4", "owner": "\u57ce\u5df4 Citybus", "owner:en": "Citybus", "owner:wikidata": "Q5124055", "owner:zh": "\u57ce\u5df4", "public_transport": "platform", "route_ref": "A26"}}, {"type": "node", "id": 11077304673, "lat": 22.3319983, "lon": 114.2226623, "tags": {"bus": "yes", "highway": "bus_stop", "name": "\u9806\u5229\u6d88\u9632\u5c40 Shun Lee Fire Station", "name:en": "Shun Lee Fire Station", "name:zh": "\u9806\u5229\u6d88\u9632\u5c40", "network": "CTB;Cityflyer", "network:wikidata": "Q5124055;Q5124066", "operator": "\u57ce\u5df4 Citybus", "operator:en": "Citybus", "operator:wikidata": "Q5124055", "operator:zh": "\u57ce\u5df4", "owner": "\u57ce\u5df4 Citybus", "owner:en": "Citybus", "owner:wikidata": "Q5124055", "owner:zh": "\u57ce\u5df4", "public_transport": "platform", "route_ref": "A26;A28;E22P;N26"}}, {"type": "node", "id": 11077880466, "lat": 22.3323585, "lon": 114.215563, "tags": {"bus": "yes", "departures_board": "timetable", "highway": "bus_stop", "name": "\u767d\u8679\u6a13 Pak Hung House", "name:en": "Pak Hung House", "name:zh": "\u767d\u8679\u6a13", "network": "KMB", "network:wikidata": "Q312243", "operator": "\u4e5d\u5df4 KMB", "operator:en": "KMB", "operator:wikidata": "Q312243", "operator:zh": "\u4e5d\u5df4", "owner": "\u4e5d\u5df4 KMB", "owner:en": "KMB", "owner:wikidata": "Q312243", "owner:zh": "\u4e5d\u5df4", "public_transport": "platform", "ref:hkbus": "\u767d\u8679\u6a13", "ref:kmb": "NE01-W-0950-0", "route_ref": "88;214;214P;290;290A;290B;290X;N214;N290", "shelter": "no"}}, {"type": "node", "id": 11470050944, "lat": 22.3311632, "lon": 114.2132325, "tags": {"bus": "yes", "highway": "bus_stop", "name": "\u5f69\u8208\u82d1 Choi Hing Court", "name:en": "Choi Hing Court", "name:zh": "\u5f69\u8208\u82d1", "network": "KMB", "network:wikidata": "Q312243", "operator": "\u4e5d\u5df4 KMB", "operator:en": "KMB", "operator:wikidata": "Q312243", "operator:zh": "\u4e5d\u5df4", "owner": "\u4e5d\u5df4 KMB", "owner:en": "KMB", "owner:wikidata": "Q312243", "owner:zh": "\u4e5d\u5df4", "public_transport": "platform", "route_ref": "27X"}}, {"type": "node", "id": 12009773951, "lat": 22.3330701, "lon": 114.2243996, "tags": {"bus": "yes", "highway": "bus_stop", "name": "\u9806\u5229\u90a8\u5229\u6052\u6a13 Lee Hang House, Shun Lee Estate", "name:en": "Lee Hang House, Shun Lee Estate", "name:zh": "\u9806\u5229\u90a8\u5229\u6052\u6a13", "network": "Cityflyer", "network:wikidata": "Q5124066", "operator": "\u57ce\u5df4 Citybus", "operator:en": "Citybus", "operator:wikidata": "Q5124055", "operator:zh": "\u57ce\u5df4", "owner": "\u57ce\u5df4 Citybus", "owner:en": "Citybus", "owner:wikidata": "Q5124055", "owner:zh": "\u57ce\u5df4", "public_transport": "platform", "ref:ctb": "3824A", "route_ref": "A26"}}, {"type": "node", "id": 12009773952, "lat": 22.3320305, "lon": 114.2225133, "tags": {"bus": "yes", "highway": "bus_stop", "name": "\u9806\u5229\u6d88\u9632\u5c40 Shun Lee Fire Station", "name:en": "Shun Lee Fire Station", "name:zh": "\u9806\u5229\u6d88\u9632\u5c40", "network": "Cityflyer", "network:wikidata": "Q5124066", "operator": "\u57ce\u5df4 Citybus", "operator:en": "Citybus", "operator:wikidata": "Q5124055", "operator:zh": "\u57ce\u5df4", "owner": "\u57ce\u5df4 Citybus", "owner:en": "Citybus", "owner:wikidata": "Q5124055", "owner:zh": "\u57ce\u5df4", "public_transport": "platform", "ref:ctb": "3823A", "route_ref": "A26"}}, {"type": "node", "id": 12009773958, "lat": 22.3258019, "lon": 114.2167769, "tags": {"bus": "yes", "highway": "bus_stop", "name": "\u5f69\u9824\u5c45 Cheerful Court", "name:en": "Cheerful Court", "name:zh": "\u5f69\u9824\u5c45", "network": "Cityflyer", "network:wikidata": "Q5124066", "operator": "\u57ce\u5df4 Citybus", "operator:en": "Citybus", "operator:wikidata": "Q5124055", "operator:zh": "\u57ce\u5df4", "owner": "\u57ce\u5df4 Citybus", "owner:en": "Citybus", "owner:wikidata": "Q5124055", "owner:zh": "\u57ce\u5df4", "public_transport": "platform", "ref:ctb": "3354B", "route_ref": "A26"}}, {"type": "node", "id": 12009773959, "lat": 22.3268893, "lon": 114.2152623, "tags": {"bus": "yes", "highway": "bus_stop", "name": "\u5f69\u76c8\u90a8\u76c8\u9806\u6a13 Ying Shun House Choi Ying Estate", "name:en": "Ying Shun House Choi Ying Estate", "name:zh": "\u5f69\u76c8\u90a8\u76c8\u9806\u6a13", "network": "Cityflyer", "network:wikidata": "Q5124066", "operator": "\u57ce\u5df4 Citybus", "operator:en": "Citybus", "operator:wikidata": "Q5124055", "operator:zh": "\u57ce\u5df4", "owner": "\u57ce\u5df4 Citybus", "owner:en": "Citybus", "owner:wikidata": "Q5124055", "owner:zh": "\u57ce\u5df4", "public_transport": "platform", "ref:ctb": "3293B", "route_ref": "A26"}}, {"type": "node", "id": 12369391369, "lat": 22.3340444, "lon": 114.2101746, "tags": {"bus": "yes", "highway": "bus_stop", "local_ref": "K4", "location": "Ping Shek Public Transport Interchange", "name": "\u5f69\u8679\u7ad9 Choi Hung Station", "name:en": "Choi Hung Station", "name:zh": "\u5f69\u8679\u7ad9", "network": "KMB", "network:wikidata": "Q312243", "operator": "\u4e5d\u5df4 KMB", "operator:en": "KMB", "operator:wikidata": "Q312243", "operator:zh": "\u4e5d\u5df4", "owner": "\u4e5d\u5df4 KMB", "owner:en": "KMB", "owner:wikidata": "Q312243", "owner:zh": "\u4e5d\u5df4", "public_transport": "platform", "ref:kmb": "PI01-T-1175-0", "route_ref": "42;88", "shelter": "yes"}}]}