{"version": 0.6, "generator": "Overpass API 0.7.62.10 2d4cfc48", "osm3s": {"timestamp_osm_base": "2026-02-25T01:53:36Z", "copyright": "The data included in this document is from www.openstreetmap.org. The data is made available under ODbL."}, "elements": [{"type": "node", "id": 2672751396, "lat": 22.291907, "lon": 113.9501412, "tags": {"bench": "yes", "bus": "yes", "highway": "bus_stop", "name": "\u6620\u7063\u5712\u4e8c\u671f Caribbean Coast Phase 2", "name:en": "Caribbean Coast Phase 2", "name:zh": "\u6620\u7063\u5712\u4e8c\u671f", "operator": "LWB", "public_transport": "platform", "ref:lwb": "MA70-E-1050-2", "route_ref": "E32A;E36A;E42P;E43;S64P;N31", "shelter": "yes", "tactile_paving": "no"}}, {"type": "node", "id": 2672753935, "lat": 22.2934158, "lon": 113.951819, "tags": {"bus": "yes", "highway": "bus_stop", "name": "\u6620\u7063\u5712\u4e00\u671f Caribbean Coast Phase 1", "name:en": "Caribbean Coast Phase 1", "name:zh": "\u6620\u7063\u5712\u4e00\u671f", "name:zh-Hans": "\u6620\u6e7e\u56ed\u4e00\u671f", "name:zh-Hant": "\u6620\u7063\u5712\u4e00\u671f", "operator": "LWB", "public_transport": "platform", "ref:lwb": "MA70-E-1100-2", "route_ref": "E32A;E36A;E42P;E43;S64P;N31", "shelter": "yes", "tactile_paving": "no"}}, {"type": "node", "id": 2672788446, "lat": 22.2920113, "lon": 113.9504819, "tags": {"bench": "no", "bin": "no", "bus": "yes", "highway": "bus_stop", "lit": "yes", "name": "\u6620\u7063\u5712\u4e8c\u671f Caribbean Coast Phase 2", "name:en": "Caribbean Coast Phase 2", "name:zh": "\u6620\u7063\u5712\u4e8c\u671f", "operator": "LWB", "public_transport": "platform", "ref:lwb": "MA70-W-1000-2", "shelter": "no", "tactile_paving": "no"}}, {"type": "node", "id": 2672789326, "lat": 22.2909007, "lon": 113.9477063, "tags": {"bench": "no", "bin": "yes", "bus": "yes", "highway": "bus_stop", "lit": "yes", "name": "\u6021\u6771\u8def Yi Tung Road", "name:en": "Yi Tung Road", "name:zh": "\u6021\u6771\u8def", "operator": "LWB", "public_transport": "platform", "ref:lwb": "MA70-W-1050-2", "shelter": "no", "tactile_paving": "no"}}, {"type": "node", "id": 4097502038, "lat": 22.2944016, "lon": 113.9505125, "tags": {"bus": "yes", "highway": "bus_stop", "name": "\u8fce\u79a7\u8def Ying Hei Road", "name:en": "Ying Hei Road", "name:zh": "\u8fce\u79a7\u8def", "note": "\u5f80\u5e02\u5340 To City", "operator": "CTB", "public_transport": "platform", "ref:cbnw": "3433A", "ref:hkbus": "\u8fce\u79a7\u8def", "route_ref": "E11A;E11B;E11S;E21A;E21D;E21X;E22S;E23A;N21A;S52A"}}, {"type": "node", "id": 4097502062, "lat": 22.2943974, "lon": 113.9504287, "tags": {"bus": "yes", "highway": "bus_stop", "name": "\u8fce\u79a7\u8def\u6607\u8588 The Visionary, Ying Hei Road", "name:en": "The Visionary, Ying Hei Road", "name:zh": "\u8fce\u79a7\u8def\u6607\u8588", "operator": "NLB", "public_transport": "platform", "ref:hkbus": "\u8fce\u79a7\u8def", "route_ref": "37M"}}, {"type": "node", "id": 4097502296, "lat": 22.2932333, "lon": 113.9503158, "tags": {"bus": "yes", "highway": "bus_stop", "name": "\u5065\u6771\u8def Kin Tung Road", "name:en": "Kin Tung Road", "name:zh": "\u5065\u6771\u8def", "name:zh-Hans": "\u5065\u4e1c\u8def", "name:zh-Hant": "\u5065\u6771\u8def", "operator": "NLB", "public_transport": "platform", "ref:hkbus": "\u6620\u7063\u5712\u7e3d\u7ad9", "shelter": "no", "tactile_paving": "no"}}, {"type": "node", "id": 4097502334, "lat": 22.2944023, "lon": 113.950474, "tags": {"bus": "yes", "highway": "bus_stop", "name": "\u8fce\u79a7\u8def Ying Hei Road", "name:en": "Ying Hei Road", "name:zh": "\u8fce\u79a7\u8def", "note": "\u5f80\u9038\u6771\u90a8\uff0f\u6a5f\u5834 To Yat Tung Estate / Airport", "operator": "CTB", "public_transport": "platform", "ref:cbnw": "3433B", "ref:hkbus": "\u8fce\u79a7\u8def", "route_ref": "E11A;E11B;E21A;E21D;E22S;E23A;N21A;S52A;S56"}}, {"type": "node", "id": 4097502500, "lat": 22.2959952, "lon": 113.9518846, "tags": {"bus": "yes", "highway": "bus_stop", "name": "\u6607\u8588 The Visionary", "name:en": "The Visionary", "name:zh": "\u6607\u8588", "operator": "NLB", "public_transport": "platform", "ref:hkbus": "\u6607\u8588", "ref:nlb": "190", "shelter": "no", "tactile_paving": "no"}}, {"type": "node", "id": 4097502505, "lat": 22.2931863, "lon": 113.9505009, "tags": {"bus": "yes", "highway": "bus_stop", "name": "\u5065\u6771\u8def Kin Tung Road", "name:en": "Kin Tung Road", "name:zh": "\u5065\u6771\u8def", "name:zh-Hans": "\u5065\u4e1c\u8def", "name:zh-Hant": "\u5065\u6771\u8def", "operator": "NLB", "public_transport": "platform", "ref:hkbus": "\u6620\u7063\u5712\u7e3d\u7ad9", "shelter": "no", "tactile_paving": "no"}}, {"type": "node", "id": 4097502523, "lat": 22.295671, "lon": 113.9520471, "tags": {"bus": "yes", "highway": "bus_stop", "name": "\u6607\u8588 The Visionary", "name:en": "The Visionary", "name:zh": "\u6607\u8588", "operator": "NLB;LWB", "public_transport": "platform", "ref:hkbus": "\u6607\u8588", "shelter": "yes", "tactile_paving": "no"}}, {"type": "node", "id": 4596012189, "lat": 22.291389, "lon": 113.9489559, "tags": {"bench": "no", "bin": "yes", "bus": "yes", "highway": "bus_stop", "lit": "yes", "name": "\u6620\u7063\u5712\u4e09\u671f Caribbean Coast Phase 3", "name:en": "Caribbean Coast Phase 3", "name:zh": "\u6620\u7063\u5712\u4e09\u671f", "name:zh-Hans": "\u6620\u6e7e\u56ed\u4e09\u671f", "name:zh-Hant": "\u6620\u7063\u5712\u4e09\u671f", "operator": "NLB", "public_transport": "platform", "ref:nlb": "186", "route_ref": "37;37H;N37", "shelter": "no", "tactile_paving": "no"}}, {"type": "node", "id": 4625439211, "lat": 22.2971083, "lon": 113.9535284, "tags": {"bus": "yes", "highway": "bus_stop", "name": "\u8fce\u6771\u90a8 Ying Tung Estate", "name:en": "Ying Tung Estate", "name:zh": "\u8fce\u6771\u90a8", "operator": "NLB", "public_transport": "platform", "ref:hkbus": "\u8fce\u6771\u90a8\u7e3d\u7ad9", "route_ref": "37H", "shelter": "yes", "tactile_paving": "no"}}, {"type": "node", "id": 4625439216, "lat": 22.2958325, "lon": 113.951919, "tags": {"bus": "yes", "highway": "bus_stop", "name": "\u6607\u8588 The Visionary", "name:en": "The Visionary", "name:zh": "\u6607\u8588", "operator": "LWB", "public_transport": "platform", "ref:hkbus": "\u6607\u8588", "route_ref": "E32A;E36A;S64P;N31", "shelter": "no", "tactile_paving": "no"}}, {"type": "node", "id": 5142782713, "lat": 22.2946836, "lon": 113.9508362, "tags": {"bus": "yes", "bus_bay": "left", "highway": "bus_stop", "name": "\u6771\u74b0 Century Link", "name:en": "Century Link", "name:zh": "\u6771\u74b0", "public_transport": "platform", "shelter": "no"}}, {"type": "node", "id": 8236925990, "lat": 22.2934234, "lon": 113.9518253, "tags": {"bus": "yes", "highway": "bus_stop", "name": "\u6620\u7063\u5712\u4e00\u671f Caribbean Coast Phase 1", "name:en": "Caribbean Coast Phase 1", "name:zh": "\u6620\u7063\u5712\u4e00\u671f", "name:zh-Hans": "\u6620\u6e7e\u56ed\u4e00\u671f", "name:zh-Hant": "\u6620\u7063\u5712\u4e00\u671f", "operator": "\u57ce\u5df4 Citybus", "public_transport": "platform", "ref:ctb": "1882A", "route_ref": "E11A;E11B;E11S;E21A;E21D;E21X;E22S;E23A;N21A;S52A", "shelter": "yes", "tactile_paving": "no"}}, {"type": "node", "id": 8236925991, "lat": 22.2918848, "lon": 113.9501023, "tags": {"bench": "yes", "bus": "yes", "highway": "bus_stop", "name": "\u6620\u7063\u5712\u4e8c\u671f Caribbean Coast Phase 2", "name:en": "Caribbean Coast Phase 2", "name:zh": "\u6620\u7063\u5712\u4e8c\u671f", "note": "\u5f80\u9038\u6771\u90a8\uff0f\u6a5f\u5834 To Yat Tung Estate / Airport", "operator": "CTB", "public_transport": "platform", "ref:ctb": "1880B", "route_ref": "E11A;E11B;E21A;E21D;E22S;E23A;N21A;S52A;S56", "shelter": "yes", "tactile_paving": "no"}}, {"type": "node", "id": 8236925992, "lat": 22.2919317, "lon": 113.9501871, "tags": {"bench": "yes", "bin": "yes", "bus": "yes", "highway": "bus_stop", "name": "\u6620\u7063\u5712\u4e8c\u671f Caribbean Coast Phase 2", "name:en": "Caribbean Coast Phase 2", "name:zh": "\u6620\u7063\u5712\u4e8c\u671f", "note": "\u5f80\u5e02\u5340/\u6771\u6d8c\u5317 To City / Tung Chung North", "operator": "CTB", "public_transport": "platform", "ref:ctb": "1880A", "route_ref": "E11A;E11B;E11S;E21A;E21D;E21X;E22S;E23A;N21A;S52A", "shelter": "yes", "tactile_paving": "no"}}, {"type": "node", "id": 8236925993, "lat": 22.2959214, "lon": 113.9519028, "tags": {"bus": "yes", "highway": "bus_stop", "name": "\u6607\u8588 The Visionary", "name:en": "The Visionary", "name:zh": "\u6607\u8588", "note": "\u5f80\u5e02\u5340 To City", "operator": "CTB", "public_transport": "platform", "ref:ctb": "3452B", "route_ref": "E11A;E11B;E21A;E21D;E21X;E22S"}}, {"type": "node", "id": 8236925994, "lat": 22.2957568, "lon": 113.9520352, "tags": {"bus": "yes", "highway": "bus_stop", "name": "\u6607\u8588 The Visionary", "name:en": "The Visionary", "name:zh": "\u6607\u8588", "operator": "CTB", "public_transport": "platform", "ref:ctb": "3454A"}}, {"type": "node", "id": 8265984025, "lat": 22.2944057, "lon": 113.9505359, "tags": {"bus": "yes", "highway": "bus_stop", "name": "\u8fce\u79a7\u8def Ying Hei Road", "name:en": "Ying Hei Road", "name:zh": "\u8fce\u79a7\u8def", "operator": "\u9f8d\u904b\u5df4\u58eb Long Win Bus", "public_transport": "platform", "ref:hkbus": "\u8fce\u79a7\u8def", "ref:lwb": "YI05-W-1000-2", "route_ref": "E32A;E36A;E42P;E43;N31"}}, {"type": "node", "id": 8296348797, "lat": 22.2918778, "lon": 113.9500814, "tags": {"bus": "yes", "highway": "bus_stop", "name": "\u6620\u7063\u5712\u4e8c\u671f Caribbean Coast Phase 2", "name:en": "Caribbean Coast Phase 2", "name:zh": "\u6620\u7063\u5712\u4e8c\u671f", "operator": "\u5dbc\u5df4 NLB", "public_transport": "platform", "ref:nlb": "109", "route_ref": "37;37H;37P;N37", "shelter": "yes"}}, {"type": "node", "id": 8296348799, "lat": 22.2972019, "lon": 113.9533716, "tags": {"bus": "yes", "highway": "bus_stop", "name": "\u8fce\u6771\u90a8 Ying Tung Estate", "name:en": "Ying Tung Estate", "name:zh": "\u8fce\u6771\u90a8", "operator": "NLB", "public_transport": "platform", "ref:hkbus": "\u8fce\u6771\u90a8\u7e3d\u7ad9", "route_ref": "37;N37", "shelter": "yes", "tactile_paving": "no"}}, {"type": "node", "id": 8296388827, "lat": 22.2971161, "lon": 113.9532141, "tags": {"bus": "yes", "highway": "bus_stop", "name": "\u8fce\u6771\u90a8\u5df4\u58eb\u7e3d\u7ad9 Ying Tung Estate Bus Terminus", "name:en": "Ying Tung Estate Bus Terminus", "name:zh": "\u8fce\u6771\u90a8\u5df4\u58eb\u7e3d\u7ad9", "note": "\u5f80\u8343\u7063 to Tsuen Wan", "public_transport": "platform", "ref:hkbus": "\u8fce\u6771\u90a8\u7e3d\u7ad9", "route_ref": "E32A;N31;S64P"}}, {"type": "node", "id": 8296388828, "lat": 22.2971186, "lon": 113.953304, "tags": {"bus": "yes", "highway": "bus_stop", "name": "\u8fce\u6771\u90a8\u5df4\u58eb\u7e3d\u7ad9 Ying Tung Estate Bus Terminus", "name:en": "Ying Tung Estate Bus Terminus", "name:zh": "\u8fce\u6771\u90a8\u5df4\u58eb\u7e3d\u7ad9", "note": "\u5f80\u6771\u6d8c\u53ca\u6a5f\u5834 to Tung Chung & Airport", "public_transport": "platform", "ref:hkbus": "\u8fce\u6771\u90a8\u7e3d\u7ad9", "route_ref": "E32A;N31"}}, {"type": "node", "id": 8296388830, "lat": 22.2972191, "lon": 113.9535494, "tags": {"bus": "yes", "highway": "bus_stop", "name": "\u8fce\u6771\u90a8 Ying Tung Estate", "name:en": "Ying Tung Estate", "name:zh": "\u8fce\u6771\u90a8", "public_transport": "platform", "ref:hkbus": "\u8fce\u6771\u90a8\u7e3d\u7ad9", "route_ref": "901"}}, {"type": "node", "id": 8296388833, "lat": 22.2971268, "lon": 113.953676, "tags": {"bus": "yes", "highway": "bus_stop", "name": "\u8fce\u6771\u90a8 Ying Tung Estate", "name:en": "Ying Tung Estate", "name:zh": "\u8fce\u6771\u90a8", "operator": "NLB", "public_transport": "platform", "ref:hkbus": "\u8fce\u6771\u90a8\u7e3d\u7ad9", "route_ref": "37M"}}, {"type": "node", "id": 8296388835, "lat": 22.2933555, "lon": 113.9517687, "tags": {"bus": "yes", "highway": "bus_stop", "name": "\u6620\u7063\u5712\u4e00\u671f Caribbean Coast Phase 1", "name:en": "Caribbean Coast Phase 1", "name:zh": "\u6620\u7063\u5712\u4e00\u671f", "name:zh-Hans": "\u6620\u6e7e\u56ed\u4e00\u671f", "name:zh-Hant": "\u6620\u7063\u5712\u4e00\u671f", "operator": "\u5dbc\u5df4 NLB", "public_transport": "platform", "ref:nlb": "109", "route_ref": "37H;N37"}}, {"type": "node", "id": 8849067793, "lat": 22.2943064, "lon": 113.9477613, "tags": {"bus": "yes", "highway": "bus_stop", "name": "\u8fce\u79a7\u8def\u88d5\u96c5\u82d1 Yu Nga Court, Ying Hei Road", "name:en": "Yu Nga Court, Ying Hei Road", "name:zh": "\u8fce\u79a7\u8def\u88d5\u96c5\u82d1", "public_transport": "platform"}}, {"type": "node", "id": 10006526655, "lat": 22.2964579, "lon": 113.948361, "tags": {"bus": "yes", "highway": "bus_stop", "local_ref": "A", "name": "\u88d5\u96c5\u82d1 Yu Nga Court", "name:en": "Yu Nga Court", "name:zh": "\u88d5\u96c5\u82d1", "note": "\u5f80\u5e02\u5340 To City", "operator": "\u57ce\u5df4 Citybus", "public_transport": "platform", "ref:ctb": "3814A", "ref:hkbus": "\u88d5\u96c5\u82d1\u7e3d\u7ad9", "route_ref": "E11A;E11B;E11S;E21A;E21D;E21X;E22S;S52A"}}, {"type": "node", "id": 11390840137, "lat": 22.296475, "lon": 113.948291, "tags": {"bus": "yes", "highway": "bus_stop", "name": "\u88d5\u96c5\u82d1 Yu Nga Court", "name:en": "Yu Nga Court", "name:zh": "\u88d5\u96c5\u82d1", "public_transport": "platform", "ref:hkbus": "\u88d5\u96c5\u82d1\u7e3d\u7ad9", "ref:nlb": "329", "route_ref": "36M;37A;37M"}}, {"type": "node", "id": 11390840149, "lat": 22.2964384, "lon": 113.9484617, "tags": {"bus": "yes", "highway": "bus_stop", "name": "\u88d5\u96c5\u82d1\u96c5\u76db\u95a3 Nga Shing House Yu Nga Court", "name:en": "Nga Shing House Yu Nga Court", "name:zh": "\u88d5\u96c5\u82d1\u96c5\u76db\u95a3", "public_transport": "platform", "ref:hkbus": "\u88d5\u96c5\u82d1\u7e3d\u7ad9", "ref:kmb": "YI70-W-1000-2", "route_ref": "E32A;E36A;N31"}}, {"type": "node", "id": 11390840154, "lat": 22.296443, "lon": 113.9484351, "tags": {"bus": "yes", "highway": "bus_stop", "local_ref": "B", "name": "\u88d5\u96c5\u82d1 Yu Nga Court", "name:en": "Yu Nga Court", "name:zh": "\u88d5\u96c5\u82d1", "note": "\u5f80\u6771\u6d8c\u53ca\u6a5f\u5834 to Tung Chung & Airport", "operator": "\u57ce\u5df4 Citybus", "public_transport": "platform", "ref:ctb": "3814B", "ref:hkbus": "\u88d5\u96c5\u82d1\u7e3d\u7ad9", "route_ref": "E11A;E11B;E21A;E21D;E22S;S52A;S56"}}, {"type": "node", "id": 12749434523, "lat": 22.2933087, "lon": 113.9517296, "tags": {"bus": "yes", "highway": "bus_stop", "name": "\u6620\u7063\u5712\u4e00\u671f Caribbean Coast Phase 1", "name:en": "Caribbean Coast Phase 1", "name:zh": "\u6620\u7063\u5712\u4e00\u671f", "name:zh-Hans": "\u6620\u6e7e\u56ed\u4e00\u671f", "name:zh-Hant": "\u6620\u7063\u5712\u4e00\u671f", "note": "\u5f80\u9038\u6771\u90a8\uff0f\u6a5f\u5834 To Yat Tung Estate / Airport", "operator": "\u57ce\u5df4 Citybus", "public_transport": "platform", "ref:ctb": "1882B", "route_ref": "E11A;E11B;E21A;E21D;E22S;E23A;N21A;S52A;S56", "shelter": "yes", "tactile_paving": "no"}}, {"type": "node", "id": 12860310003, "lat": 22.297198, "lon": 113.9533034, "tags": {"bench": "no", "bus": "yes", "highway": "bus_stop", "name": "\u8fce\u6771\u90a8 Ying Tung Estate", "name:en": "Ying Tung Estate", "name:zh": "\u8fce\u6771\u90a8", "public_transport": "platform", "ref:ctb": "3453A", "ref:hkbus": "\u8fce\u6771\u90a8\u7e3d\u7ad9", "route_ref": "E11A;E11B;E21A;E21D;E21X;E22S", "shelter": "yes", "tactile_paving": "no"}}, {"type": "node", "id": 12860310004, "lat": 22.295866, "lon": 113.9519119, "tags": {"bus": "yes", "highway": "bus_stop", "name": "\u6607\u8588 The Visionary", "name:en": "The Visionary", "name:zh": "\u6607\u8588", "note": "\u5f80\u6771\u6d8c\u897f\uff0f\u6a5f\u5834 To Tung Chung West / Airport", "operator": "CTB", "public_transport": "platform", "ref:ctb": "3452B", "route_ref": "E11A;E11B;E21A;E21D;E22S;S52A;S56"}}, {"type": "node", "id": 12872463916, "lat": 22.2972104, "lon": 113.9534408, "tags": {"bench": "no", "bus": "yes", "highway": "bus_stop", "name": "\u8fce\u6771\u90a8 Ying Tung Estate", "name:en": "Ying Tung Estate", "name:zh": "\u8fce\u6771\u90a8", "note": "\u5f80\u9038\u6771\u90a8\uff0f\u6a5f\u5834 To Yat Tung Estate / Airport", "public_transport": "platform", "ref:ctb": "3453B", "ref:hkbus": "\u8fce\u6771\u90a8\u7e3d\u7ad9", "route_ref": "E11A;E11B;E21A;E21D;E22S;S52A;S56", "shelter": "yes", "tactile_paving": "no"}}, {"type": "node", "id": 13240793602, "lat": 22.2982534, "lon": 113.9536225, "tags": {"bus": "yes", "highway": "bus_stop", "name": "\u7fd4\u6771\u90a8\u7fd4\u6708\u6a13 Cheung Yuet House Cheung Tung Estate", "name:en": "Cheung Yuet House Cheung Tung Estate", "name:zh": "\u7fd4\u6771\u90a8\u7fd4\u6708\u6a13", "operator": "NLB", "public_transport": "platform", "ref:hkbus": "\u7fd4\u6771\u90a8\u7fd4\u6708\u6a13", "route_ref": "36M;37A"}}, {"type": "node", "id": 13240793603, "lat": 22.2989278, "lon": 113.9515762, "tags": {"bus": "yes", "highway": "bus_stop", "name": "\u532f\u6771\u8857 Wui Tung Street", "name:en": "Wui Tung Street", "name:zh": "\u532f\u6771\u8857", "operator": "NLB", "public_transport": "platform", "ref:hkbus": "\u532f\u6771\u8857", "route_ref": "36M;37A"}}, {"type": "node", "id": 13240793604, "lat": 22.2992004, "lon": 113.9517159, "tags": {"bus": "yes", "highway": "bus_stop", "name": "\u532f\u6771\u8857 Wui Tung Street", "name:en": "Wui Tung Street", "name:zh": "\u532f\u6771\u8857", "operator": "NLB", "public_transport": "platform", "ref:hkbus": "\u532f\u6771\u8857", "route_ref": "37A"}}]}