{"version": 0.6, "generator": "Overpass API 0.7.62.10 2d4cfc48", "osm3s": {"timestamp_osm_base": "2026-02-25T03:35:50Z", "copyright": "The data included in this document is from www.openstreetmap.org. The data is made available under ODbL."}, "elements": [{"type": "node", "id": 243844956, "lat": 22.3835848, "lon": 114.1883558}, {"type": "node", "id": 262135575, "lat": 22.3747317, "lon": 114.1871962}, {"type": "node", "id": 517544608, "lat": 22.407598, "lon": 114.2221549}, {"type": "node", "id": 517544616, "lat": 22.407511, "lon": 114.2223341}, {"type": "node", "id": 517544620, "lat": 22.4088784, "lon": 114.2230977}, {"type": "node", "id": 1501303937, "lat": 22.3829911, "lon": 114.1875705}, {"type": "node", "id": 1506610348, "lat": 22.3747011, "lon": 114.1850994}, {"type": "node", "id": 1506610349, "lat": 22.3746579, "lon": 114.1853395}, {"type": "node", "id": 1506610351, "lat": 22.3747542, "lon": 114.1872468}, {"type": "node", "id": 1506610359, "lat": 22.3745948, "lon": 114.1867637}, {"type": "node", "id": 1506610362, "lat": 22.3748428, "lon": 114.1872515}, {"type": "node", "id": 1506610369, "lat": 22.3749387, "lon": 114.1851139}, {"type": "node", "id": 1981082124, "lat": 22.3763809, "lon": 114.1942456}, {"type": "node", "id": 1981082128, "lat": 22.3765317, "lon": 114.1941214}, {"type": "node", "id": 1981082141, "lat": 22.3775172, "lon": 114.1958546}, {"type": "node", "id": 1981082145, "lat": 22.3763833, "lon": 114.1942263}, {"type": "node", "id": 1981082148, "lat": 22.3765118, "lon": 114.1941198}, {"type": "node", "id": 1981082154, "lat": 22.3776734, "lon": 114.1957238}, {"type": "node", "id": 1988101458, "lat": 22.3881124, "lon": 114.2086273, "tags": {"name": "\u9054\u5229\u5ee3\u5834 Technology Park", "name:en": "Technology Park", "name:zh": "\u9054\u5229\u5ee3\u5834", "railway": "subway_entrance", "ref": "C", "wheelchair": "yes"}}, {"type": "node", "id": 1988101459, "lat": 22.3874181, "lon": 114.2082235, "tags": {"name": "\u9999\u6e2f\u6d78\u6703\u5927\u5b78 Hong Kong Baptist University", "name:en": "Hong Kong Baptist University", "name:zh": "\u9999\u6e2f\u6d78\u6703\u5927\u5b78", "railway": "subway_entrance", "ref": "B", "wheelchair": "yes"}}, {"type": "node", "id": 1988101464, "lat": 22.3884968, "lon": 114.2090072}, {"type": "node", "id": 1988101466, "lat": 22.3883685, "lon": 114.2091572}, {"type": "node", "id": 1988101468, "lat": 22.3875433, "lon": 114.2080651, "tags": {"name": "\u6c38\u5f97\u5229\u4e2d\u5fc3 Ever Gain Centre", "name:en": "Ever Gain Centre", "name:zh": "\u6c38\u5f97\u5229\u4e2d\u5fc3", "railway": "subway_entrance", "ref": "A", "wheelchair": "yes"}}, {"type": "node", "id": 1988101472, "lat": 22.3868935, "lon": 114.2076962}, {"type": "node", "id": 1988101513, "lat": 22.3870207, "lon": 114.207544}, {"type": "node", "id": 1988101515, "lat": 22.3879701, "lon": 114.2087676, "tags": {"name": "\u5efa\u9020\u696d\u8a13\u7df4\u5834 CICTA Training Ground", "name:en": "CICTA Training Ground", "name:zh": "\u5efa\u9020\u696d\u8a13\u7df4\u5834", "railway": "subway_entrance", "ref": "D", "wheelchair": "yes"}}, {"type": "node", "id": 1992279535, "lat": 22.3949374, "lon": 114.1977757}, {"type": "node", "id": 1992279551, "lat": 22.3957215, "lon": 114.1986725, "tags": {"name": "\u5fa1\u9f8d\u5c71 The Palazzo", "name:en": "The Palazzo", "name:zh": "\u5fa1\u9f8d\u5c71", "railway": "subway_entrance", "ref": "C", "wheelchair": "no"}}, {"type": "node", "id": 1992279554, "lat": 22.3948315, "lon": 114.1977086}, {"type": "node", "id": 1992279561, "lat": 22.3948735, "lon": 114.1976347}, {"type": "node", "id": 1992279582, "lat": 22.3946716, "lon": 114.1980007}, {"type": "node", "id": 1992279588, "lat": 22.3955696, "lon": 114.1982894}, {"type": "node", "id": 1992279602, "lat": 22.3957171, "lon": 114.1985878}, {"type": "node", "id": 1992279604, "lat": 22.3958616, "lon": 114.1986498}, {"type": "node", "id": 1992279620, "lat": 22.3949177, "lon": 114.198162}, {"type": "node", "id": 1992279622, "lat": 22.3958668, "lon": 114.1982941}, {"type": "node", "id": 1992279626, "lat": 22.3948978, "lon": 114.1977506}, {"type": "node", "id": 1992279628, "lat": 22.3946466, "lon": 114.197589}, {"type": "node", "id": 1992279630, "lat": 22.3947205, "lon": 114.198033, "tags": {"name": "\u706b\u70ad\u9435\u8def\u5927\u6a13 Fo Tan Railway House", "name:en": "Fo Tan Railway House", "name:zh": "\u706b\u70ad\u9435\u8def\u5927\u6a13", "railway": "subway_entrance", "ref": "A", "wheelchair": "no"}}, {"type": "node", "id": 1992279644, "lat": 22.3957872, "lon": 114.1984341}, {"type": "node", "id": 1992279649, "lat": 22.39488, "lon": 114.197623}, {"type": "node", "id": 1992279651, "lat": 22.3949854, "lon": 114.1976889}, {"type": "node", "id": 1992279653, "lat": 22.395322, "lon": 114.1983288}, {"type": "node", "id": 1992279657, "lat": 22.3958101, "lon": 114.1986156}, {"type": "node", "id": 1992279658, "lat": 22.3946889, "lon": 114.1975162}, {"type": "node", "id": 1992279664, "lat": 22.3949228, "lon": 114.1976498, "tags": {"name": "\u7a57\u8f1d\u5de5\u696d\u5927\u5ec8 Sui Fai Factory Estate", "name:en": "Sui Fai Factory Estate", "name:zh": "\u7a57\u8f1d\u5de5\u696d\u5927\u5ec8", "railway": "subway_entrance", "ref": "B", "wheelchair": "no"}}, {"type": "node", "id": 1992279681, "lat": 22.3949596, "lon": 114.1980914}, {"type": "node", "id": 1992279683, "lat": 22.3957623, "lon": 114.1986996}, {"type": "node", "id": 1992279686, "lat": 22.3959231, "lon": 114.1983315}, {"type": "node", "id": 2185507412, "lat": 22.3838701, "lon": 114.1879917}, {"type": "node", "id": 2185507444, "lat": 22.3828394, "lon": 114.1878936}, {"type": "node", "id": 2185507452, "lat": 22.3836064, "lon": 114.1883709}, {"type": "node", "id": 2201772020, "lat": 22.3746935, "lon": 114.1870998}, {"type": "node", "id": 2298558134, "lat": 22.4076755, "lon": 114.2224384, "tags": {"door": "no", "entrance": "yes", "name": "\u5bcc\u5b89\u82b1\u5712 Chevalier Garden", "name:en": "Chevalier Garden", "name:zh": "\u5bcc\u5b89\u82b1\u5712", "note:loc_ref": "A", "note:ref": "TSH", "public_transport": "yes", "railway": "subway_entrance", "ref": "B", "train": "yes", "wheelchair": "yes"}}, {"type": "node", "id": 2298558162, "lat": 22.4077796, "lon": 114.222249, "tags": {"door": "no", "entrance": "yes", "name": "\u9326\u6cf0\u82d1 Kam Tai Court", "name:en": "Kam Tai Court", "name:zh": "\u9326\u6cf0\u82d1", "note:loc_ref": "A", "note:ref": "TSH", "public_transport": "yes", "railway": "subway_entrance", "ref": "A", "train": "yes", "wheelchair": "yes"}}, {"type": "node", "id": 2325225341, "lat": 22.4004756, "lon": 114.2028994, "tags": {"name": "\u99ac\u5834 Racecourse", "name:en": "Racecourse", "name:zh": "\u99ac\u5834", "network": "MTR", "operator": "\u9999\u6e2f\u9435\u8def\u6709\u9650\u516c\u53f8 MTR Corporation", "platforms": "2", "public_transport": "station", "railway": "station", "ref": "RAC", "ref:note": "Common use in MTR app indoor navigation labels, station shop units, etc", "start_date": "1985-10-01", "station": "subway", "subway": "yes", "wikidata": "Q841864", "wikipedia": "zh:\u99ac\u5834\u7ad9 (\u9999\u6e2f)"}}, {"type": "node", "id": 2327076223, "lat": 22.3838434, "lon": 114.1878726}, {"type": "node", "id": 2327076226, "lat": 22.3831475, "lon": 114.1873421}, {"type": "node", "id": 2327076229, "lat": 22.3828268, "lon": 114.1878354}, {"type": "node", "id": 2327076232, "lat": 22.3835538, "lon": 114.1884032}, {"type": "node", "id": 2327076235, "lat": 22.382859, "lon": 114.1878631}, {"type": "node", "id": 2364176420, "lat": 22.3828093, "lon": 114.1878621}, {"type": "node", "id": 2364176507, "lat": 22.3823084, "lon": 114.1870748}, {"type": "node", "id": 2410074738, "lat": 22.3824231, "lon": 114.2032013, "tags": {"name": "\u5a01\u723e\u65af\u89aa\u738b\u91ab\u9662 Prince of Wales Hospital", "name:en": "Prince of Wales Hospital", "name:zh": "\u5a01\u723e\u65af\u89aa\u738b\u91ab\u9662", "railway": "subway_entrance", "ref": "B", "wheelchair": "no"}}, {"type": "node", "id": 2410074739, "lat": 22.3825622, "lon": 114.2030545, "tags": {"name": "\u6109\u7530\u82d1 Yue Tin Court", "name:en": "Yue Tin Court", "name:zh": "\u6109\u7530\u82d1", "railway": "subway_entrance", "ref": "A", "wheelchair": "no"}}, {"type": "node", "id": 2410074740, "lat": 22.3830363, "lon": 114.2038394, "tags": {"name": "\u6109\u7fe0\u82d1 Yu Chui Court", "name:en": "Yu Chui Court", "name:zh": "\u6109\u7fe0\u82d1", "railway": "subway_entrance", "ref": "D", "wheelchair": "yes"}}, {"type": "node", "id": 2410074741, "lat": 22.3831719, "lon": 114.2036999, "tags": {"name": "\u6c99\u7530\u7b2c\u4e00\u57ce City One Shatin", "name:en": "City One Shatin", "name:zh": "\u6c99\u7530\u7b2c\u4e00\u57ce", "railway": "subway_entrance", "ref": "C", "wheelchair": "yes"}}, {"type": "node", "id": 2410078031, "lat": 22.3773444, "lon": 114.1952575, "tags": {"name": "\u6c99\u89d2\u90a8 Sha Kok Estate", "name:en": "Sha Kok Estate", "name:zh": "\u6c99\u89d2\u90a8", "railway": "subway_entrance", "ref": "C", "wheelchair": "no"}}, {"type": "node", "id": 2410078032, "lat": 22.3771942, "lon": 114.1953821, "tags": {"name": "\u6c99\u7530\u570d Sha Tin Wai", "name:en": "Sha Tin Wai", "name:zh": "\u6c99\u7530\u570d", "railway": "subway_entrance", "ref": "D", "wheelchair": "no"}}, {"type": "node", "id": 2410078033, "lat": 22.376874, "lon": 114.1945897, "tags": {"name": "\u4e59\u660e\u90a8 Jat Ming Estate", "name:en": "Jat Ming Estate", "name:zh": "\u4e59\u660e\u90a8", "railway": "subway_entrance", "ref": "A", "wheelchair": "yes"}}, {"type": "node", "id": 2410078034, "lat": 22.3767145, "lon": 114.194706, "tags": {"name": "\u535a\u5eb7\u90a8 Pok Hong Estate", "name:en": "Pok Hong Estate", "name:zh": "\u535a\u5eb7\u90a8", "railway": "subway_entrance", "ref": "B", "wheelchair": "yes"}}, {"type": "node", "id": 2410098346, "lat": 22.3749091, "lon": 114.1857738, "tags": {"entrance": "yes", "exit": "yes", "name": "\u9999\u6e2f\u6587\u5316\u535a\u7269\u9928 Hong Kong Heritage Museum", "name:en": "Hong Kong Heritage Museum", "name:zh": "\u9999\u6e2f\u6587\u5316\u535a\u7269\u9928", "railway": "subway_entrance", "ref": "A", "wheelchair": "no"}}, {"type": "node", "id": 2410098347, "lat": 22.3746394, "lon": 114.1857574, "tags": {"entrance": "yes", "exit": "yes", "name": "\u8eca\u516c\u5edf Che Kung Temple", "name:en": "Che Kung Temple", "name:zh": "\u8eca\u516c\u5edf", "railway": "subway_entrance", "ref": "B", "wheelchair": "no"}}, {"type": "node", "id": 2410098348, "lat": 22.3748836, "lon": 114.1863407, "tags": {"name": "\u57ce\u9580\u6cb3 Shing Mun River", "name:en": "Shing Mun River", "name:zh": "\u57ce\u9580\u6cb3", "railway": "subway_entrance", "ref": "C", "wheelchair": "yes"}}, {"type": "node", "id": 2410098353, "lat": 22.3746142, "lon": 114.186325, "tags": {"entrance": "yes", "exit": "yes", "name": "\u6c99\u7530\u982d Sha Tin Tau", "name:en": "Sha Tin Tau", "name:zh": "\u6c99\u7530\u982d", "railway": "subway_entrance", "ref": "D", "wheelchair": "yes"}}, {"type": "node", "id": 2410098357, "lat": 22.3748726, "lon": 114.1865858, "tags": {"access": "private", "entrance": "yes", "exit": "yes", "name": "\u6eb1\u5cb88\u865f The Riverpark", "name:en": "The Riverpark", "name:zh": "\u6eb1\u5cb88\u865f", "railway": "subway_entrance", "ref": "E", "wheelchair": "no"}}, {"type": "node", "id": 2434934708, "lat": 22.382128, "lon": 114.1873599}, {"type": "node", "id": 2434976527, "lat": 22.3822946, "lon": 114.2027943}, {"type": "node", "id": 2434976528, "lat": 22.3821635, "lon": 114.2029302}, {"type": "node", "id": 2434976529, "lat": 22.3834668, "lon": 114.2043063}, {"type": "node", "id": 2434976530, "lat": 22.3836002, "lon": 114.2041592}, {"type": "node", "id": 2616048001, "lat": 22.3948702, "lon": 114.1978015}, {"type": "node", "id": 2616048022, "lat": 22.3954056, "lon": 114.1981796}, {"type": "node", "id": 2616048028, "lat": 22.395487, "lon": 114.1984347}, {"type": "node", "id": 2616048038, "lat": 22.3956833, "lon": 114.1986471}, {"type": "node", "id": 2616048056, "lat": 22.3958708, "lon": 114.1984955}, {"type": "node", "id": 2616048058, "lat": 22.3958808, "lon": 114.1984059}, {"type": "node", "id": 2616048060, "lat": 22.3959105, "lon": 114.1984256}, {"type": "node", "id": 2616048064, "lat": 22.3959278, "lon": 114.1985334}, {"type": "node", "id": 2900648605, "lat": 22.4096846, "lon": 114.2232332}, {"type": "node", "id": 2900648606, "lat": 22.4089928, "lon": 114.2228738}, {"type": "node", "id": 2900648607, "lat": 22.4095903, "lon": 114.2234511}, {"type": "node", "id": 2901137506, "lat": 22.3868746, "lon": 114.2074811}, {"type": "node", "id": 2901137508, "lat": 22.3868152, "lon": 114.207551}, {"type": "node", "id": 4087914603, "lat": 22.4079912, "lon": 114.2226269}, {"type": "node", "id": 4087914604, "lat": 22.4080765, "lon": 114.2224029}, {"type": "node", "id": 4088029789, "lat": 22.3869231, "lon": 114.2076602}, {"type": "node", "id": 4088029790, "lat": 22.3869818, "lon": 114.2075893}, {"type": "node", "id": 4504502005, "lat": 22.3747819, "lon": 114.1851043}, {"type": "node", "id": 4504502006, "lat": 22.3748253, "lon": 114.185107}, {"type": "node", "id": 4796625655, "lat": 22.3948489, "lon": 114.1981169, "tags": {"amenity": "atm", "brand": "\u6052\u751f\u9280\u884c Hang Seng Bank", "brand:en": "Hang Seng Bank", "brand:wikidata": "Q1575470", "brand:zh": "\u6052\u751f\u9280\u884c", "brand:zh-Hans": "\u6052\u751f\u94f6\u884c", "brand:zh-Hant": "\u6052\u751f\u9280\u884c", "check_date": "2021-04-27", "name": "\u6052\u751f\u9280\u884c Hang Seng Bank", "name:en": "Hang Seng Bank", "name:zh": "\u6052\u751f\u9280\u884c", "name:zh-Hans": "\u6052\u751f\u94f6\u884c", "name:zh-Hant": "\u6052\u751f\u9280\u884c", "operator": "\u6052\u751f\u9280\u884c Hang Seng Bank", "operator:wikidata": "Q1575470"}}, {"type": "node", "id": 5098496689, "lat": 22.4135688, "lon": 114.2101033, "tags": {"name": "\u5927\u5b78 University", "name:en": "University", "name:zh": "\u5927\u5b78", "network": "MTR", "old_name": "\u99ac\u6599\u6c34 Ma Liu Shui", "old_name:en": "Ma Liu Shui", "old_name:zh": "\u99ac\u6599\u6c34", "operator": "\u9999\u6e2f\u9435\u8def\u6709\u9650\u516c\u53f8 MTR Corporation", "platforms": "2", "public_transport": "station", "railway": "station", "ref": "UNI", "ref:note": "Common use in MTR app indoor navigation labels, station shop units, etc", "start_date": "1956-09-24", "station": "subway", "subway": "yes", "wheelchair": "yes", "wikidata": "Q996480"}}, {"type": "node", "id": 5389481794, "lat": 22.3954171, "lon": 114.1981535}, {"type": "node", "id": 6026475590, "lat": 22.3958838, "lon": 114.1983046}, {"type": "node", "id": 6776343093, "lat": 22.3833725, "lon": 114.1882749}, {"type": "node", "id": 6777645830, "lat": 22.3838579, "lon": 114.1880099}, {"type": "node", "id": 9672056463, "lat": 22.3748549, "lon": 114.186981, "tags": {"entrance": "yes", "exit": "yes", "name": "\u6eb1\u5cb88\u865f The Riverpark", "name:en": "The Riverpark", "name:zh": "\u6eb1\u5cb88\u865f", "railway": "subway_entrance", "ref": "F", "wheelchair": "yes"}}, {"type": "node", "id": 9917328265, "lat": 22.3746499, "lon": 114.186971}, {"type": "node", "id": 9917328266, "lat": 22.3746072, "lon": 114.1868172}, {"type": "node", "id": 9917328268, "lat": 22.3746165, "lon": 114.1868551, "tags": {"access": "no", "barrier": "gate", "fence": "bars", "gate": "door", "gate:wings": "1", "material": "metal", "movable": "turning"}}, {"type": "node", "id": 9917328269, "lat": 22.3745959, "lon": 114.1867382, "tags": {"access": "no", "barrier": "gate", "entrance": "service", "exit": "service", "fence": "corrugated", "gate": "shutter", "installation": "fixed", "material": "metal", "movable": "lifting"}}, {"type": "node", "id": 9917328291, "lat": 22.374631, "lon": 114.1869078}, {"type": "way", "id": 41856916, "nodes": [517544608, 517544616, 2298558134, 4087914603, 517544620, 2900648607, 2900648605, 2900648606, 4087914604, 2298558162, 517544608], "tags": {"addr:suburb": "\u5927\u6c34\u5751 Tai Shui Hang", "addr:suburb:en": "Tai Shui Hang", "addr:suburb:zh": "\u5927\u6c34\u5751", "brand": "\u6e2f\u9435 MTR", "brand:en": "MTR", "brand:zh": "\u6e2f\u9435", "building": "train_station", "building:levels": "2", "building:levels:underground": "1", "name": "\u5927\u6c34\u5751 Tai Shui Hang", "name:en": "Tai Shui Hang", "name:zh": "\u5927\u6c34\u5751", "network": "\u6e2f\u9435 MTR", "network:en": "MTR", "network:wikidata": "Q14751", "network:zh": "\u6e2f\u9435", "network:zh-Hans": "\u6e2f\u94c1", "network:zh-Hant": "\u6e2f\u9435", "note:station": "subway", "note:train": "yes", "operator": "\u9999\u6e2f\u9435\u8def\u6709\u9650\u516c\u53f8 MTR Corporation Limited", "operator:en": "MTR Corporation Limited", "operator:wikidata": "Q1479375", "operator:zh": "\u9999\u6e2f\u9435\u8def\u6709\u9650\u516c\u53f8", "operator:zh-Hans": "\u9999\u6e2f\u94c1\u8def\u6709\u9650\u516c\u53f8", "operator:zh-Hant": "\u9999\u6e2f\u9435\u8def\u6709\u9650\u516c\u53f8", "owner": "\u4e5d\u5ee3\u9435\u8def\u516c\u53f8 Kowloon-Canton Railway Corporation", "owner:en": "Kowloon-Canton Railway Corporation", "owner:wikidata": "Q838436", "owner:zh": "\u4e5d\u5ee3\u9435\u8def\u516c\u53f8", "ownership": "public", "platforms": "2", "public_transport": "station", "railway": "station", "ref": "TSH", "start_date": "2004-12-21", "station": "subway", "subway": "yes", "toilets:wheelchair": "yes", "wheelchair": "yes", "wikidata": "Q839589"}}, {"type": "way", "id": 137340368, "nodes": [1506610348, 1506610349, 2410098347, 2410098353, 9917328269, 1506610359, 9917328266, 9917328268, 9917328291, 9917328265, 2201772020, 262135575, 1506610351, 1506610362, 9672056463, 2410098357, 2410098348, 2410098346, 1506610369, 4504502006, 4504502005, 1506610348], "tags": {"building": "train_station", "building:levels": "3", "layer": "1", "name": "\u8eca\u516c\u5edf Che Kung Temple", "name:en": "Che Kung Temple", "name:zh": "\u8eca\u516c\u5edf", "name:zh-Hans": "\u8f66\u516c\u5e99", "network": "MTR", "operator": "\u9999\u6e2f\u9435\u8def\u6709\u9650\u516c\u53f8 MTR Corporation", "platforms": "2", "public_transport": "station", "railway": "station", "ref": "CKT", "start_date": "2004-12-21", "station": "subway", "subway": "yes", "wheelchair": "yes", "wikidata": "Q839625"}}, {"type": "way", "id": 187405865, "nodes": [1981082145, 1981082124, 2410078034, 2410078032, 1981082141, 1981082154, 2410078031, 2410078033, 1981082128, 1981082148, 1981082145], "tags": {"building": "train_station", "layer": "1", "name": "\u6c99\u7530\u570d Sha Tin Wai", "name:en": "Sha Tin Wai", "name:zh": "\u6c99\u7530\u570d", "network": "MTR", "operator": "\u9999\u6e2f\u9435\u8def\u6709\u9650\u516c\u53f8 MTR Corporation", "platforms": "2", "public_transport": "station", "railway": "station", "ref": "STW", "start_date": "2004-12-21", "station": "subway", "wheelchair": "yes", "wikidata": "Q839644"}}, {"type": "way", "id": 188183631, "nodes": [1988101466, 1988101515, 1988101459, 1988101472, 4088029789, 2901137508, 2901137506, 4088029790, 1988101513, 1988101468, 1988101458, 1988101464, 1988101466], "tags": {"building": "train_station", "layer": "1", "name": "\u77f3\u9580 Shek Mun", "name:en": "Shek Mun", "name:zh": "\u77f3\u9580", "network": "MTR", "operator": "\u9999\u6e2f\u9435\u8def\u6709\u9650\u516c\u53f8 MTR Corporation", "platforms": "2", "public_transport": "station", "railway": "station", "ref": "SHM", "start_date": "2004-12-21", "station": "subway", "wheelchair": "yes", "wikidata": "Q839699"}}, {"type": "way", "id": 188606344, "nodes": [1992279653, 2616048028, 1992279602, 2616048038, 1992279551, 1992279683, 1992279657, 1992279604, 2616048064, 2616048056, 2616048060, 2616048058, 1992279686, 6026475590, 1992279622, 1992279644, 1992279588, 2616048022, 5389481794, 2616048001, 1992279626, 1992279535, 1992279651, 1992279664, 1992279649, 1992279561, 1992279658, 1992279628, 1992279554, 1992279582, 1992279630, 4796625655, 1992279620, 1992279681, 1992279653], "tags": {"brand": "\u6e2f\u9435 MTR", "brand:en": "MTR", "brand:zh": "\u6e2f\u9435", "building": "train_station", "layer": "1", "name": "\u706b\u70ad Fo Tan", "name:en": "Fo Tan", "name:zh": "\u706b\u70ad", "network": "\u6e2f\u9435 MTR", "network:en": "MTR", "network:wikidata": "Q14751", "network:zh": "\u6e2f\u9435", "network:zh-Hans": "\u6e2f\u94c1", "network:zh-Hant": "\u6e2f\u9435", "operator": "\u9999\u6e2f\u9435\u8def\u6709\u9650\u516c\u53f8 MTR Corporation Limited", "operator:en": "MTR Corporation Limited", "operator:wikidata": "Q1479375", "operator:zh": "\u9999\u6e2f\u9435\u8def\u6709\u9650\u516c\u53f8", "operator:zh-Hans": "\u9999\u6e2f\u94c1\u8def\u6709\u9650\u516c\u53f8", "operator:zh-Hant": "\u9999\u6e2f\u9435\u8def\u6709\u9650\u516c\u53f8", "owner": "\u4e5d\u5ee3\u9435\u8def\u516c\u53f8 Kowloon-Canton Railway Corporation", "owner:en": "Kowloon-Canton Railway Corporation", "owner:wikidata": "Q838436", "owner:zh": "\u4e5d\u5ee3\u9435\u8def\u516c\u53f8", "ownership": "public", "platforms": "4", "public_transport": "station", "railway": "station", "ref": "FOT", "station": "subway", "subway": "yes", "wheelchair": "limited", "wikidata": "Q1669429"}}, {"type": "way", "id": 223848687, "nodes": [2327076226, 1501303937, 2364176507, 2434934708, 2364176420, 2327076229, 2327076235, 2185507444, 6776343093, 2327076232, 243844956, 2185507452, 6777645830, 2185507412, 2327076223, 2327076226], "tags": {"brand": "\u6e2f\u9435 MTR", "brand:en": "MTR", "brand:zh": "\u6e2f\u9435", "building": "train_station", "building:levels": "1", "layer": "2", "name": "\u6c99\u7530 Sha Tin", "name:en": "Sha Tin", "name:zh": "\u6c99\u7530", "network": "\u6e2f\u9435 MTR", "network:en": "MTR", "network:wikidata": "Q14751", "network:zh": "\u6e2f\u9435", "network:zh-Hans": "\u6e2f\u94c1", "network:zh-Hant": "\u6e2f\u9435", "operator": "\u9999\u6e2f\u9435\u8def\u6709\u9650\u516c\u53f8 MTR Corporation Limited", "operator:en": "MTR Corporation Limited", "operator:wikidata": "Q1479375", "operator:zh": "\u9999\u6e2f\u9435\u8def\u6709\u9650\u516c\u53f8", "operator:zh-Hans": "\u9999\u6e2f\u94c1\u8def\u6709\u9650\u516c\u53f8", "operator:zh-Hant": "\u9999\u6e2f\u9435\u8def\u6709\u9650\u516c\u53f8", "owner": "\u4e5d\u5ee3\u9435\u8def\u516c\u53f8 Kowloon-Canton Railway Corporation", "owner:en": "Kowloon-Canton Railway Corporation", "owner:wikidata": "Q838436", "owner:zh": "\u4e5d\u5ee3\u9435\u8def\u516c\u53f8", "ownership": "public", "platforms": "4", "public_transport": "station", "railway": "station", "ref": "SHT", "station": "subway", "subway": "yes", "wheelchair": "yes", "wikidata": "Q15242", "wikipedia": "zh:\u6c99\u7530\u7ad9"}}, {"type": "way", "id": 235438725, "nodes": [2434976527, 2434976528, 2410074738, 2410074740, 2434976529, 2434976530, 2410074741, 2410074739, 2434976527], "tags": {"building": "train_station", "building:levels": "2", "layer": "1", "name": "\u7b2c\u4e00\u57ce City One", "name:en": "City One", "name:zh": "\u7b2c\u4e00\u57ce", "network": "MTR", "operator": "\u9999\u6e2f\u9435\u8def\u6709\u9650\u516c\u53f8 MTR Corporation", "platforms": "2", "public_transport": "station", "railway": "station", "ref": "CIO", "start_date": "2004-12-21", "station": "subway", "wheelchair": "yes", "wikidata": "Q839594"}}]}